<?xml version='1.0' encoding='UTF-8'?>
<gpx version="1.1" creator="https://www.komoot.de" xmlns="http://www.topografix.com/GPX/1/1" xmlns:xsi="http://www.w3.org/2001/XMLSchema-instance" xsi:schemaLocation="http://www.topografix.com/GPX/1/1 http://www.topografix.com/GPX/1/1/gpx.xsd">
  <metadata>
    <name>Lac de Chateaupré > Cabane de Moiry À/R</name>
    <author>
      <link href="https://www.komoot.de">
        <text>komoot</text>
        <type>text/html</type>
      </link>
    </author>
  </metadata>
  <wpt lat="46.090930" lon="7.595378">
    <name>Cabane de Moiry</name>
    <sym>Fishing Hot Spot Facility</sym>
  </wpt>
  <trk>
    <name>Lac de Chateaupré > Cabane de Moiry À/R</name>
    <type>jogging</type>
    <trkseg>
      <trkpt lat="46.106551" lon="7.578895">
        <ele>2348.748057</ele>
        <time>2026-09-12T06:50:52.298Z</time>
      </trkpt>
      <trkpt lat="46.106472" lon="7.579000">
        <ele>2348.748057</ele>
        <time>2026-09-12T06:50:57.176Z</time>
      </trkpt>
      <trkpt lat="46.106323" lon="7.579174">
        <ele>2348.748057</ele>
        <time>2026-09-12T06:51:05.839Z</time>
      </trkpt>
      <trkpt lat="46.106208" lon="7.579650">
        <ele>2348.748057</ele>
        <time>2026-09-12T06:51:28.314Z</time>
      </trkpt>
      <trkpt lat="46.106122" lon="7.579894">
        <ele>2348.748057</ele>
        <time>2026-09-12T06:51:41.038Z</time>
      </trkpt>
      <trkpt lat="46.106016" lon="7.580272">
        <ele>2350.880360</ele>
        <time>2026-09-12T06:52:00.868Z</time>
      </trkpt>
      <trkpt lat="46.106075" lon="7.580739">
        <ele>2354.044597</ele>
        <time>2026-09-12T06:52:24.870Z</time>
      </trkpt>
      <trkpt lat="46.106120" lon="7.581098">
        <ele>2356.476449</ele>
        <time>2026-09-12T06:52:43.827Z</time>
      </trkpt>
      <trkpt lat="46.106091" lon="7.581604">
        <ele>2359.860896</ele>
        <time>2026-09-12T06:53:11.806Z</time>
      </trkpt>
      <trkpt lat="46.106096" lon="7.582222">
        <ele>2363.980700</ele>
        <time>2026-09-12T06:53:49.702Z</time>
      </trkpt>
      <trkpt lat="46.105927" lon="7.582439">
        <ele>2366.215661</ele>
        <time>2026-09-12T06:54:11.138Z</time>
      </trkpt>
      <trkpt lat="46.105902" lon="7.582679">
        <ele>2368.669527</ele>
        <time>2026-09-12T06:54:27.483Z</time>
      </trkpt>
      <trkpt lat="46.105995" lon="7.583116">
        <ele>2373.291479</ele>
        <time>2026-09-12T06:54:58.712Z</time>
      </trkpt>
      <trkpt lat="46.105980" lon="7.583420">
        <ele>2376.372982</ele>
        <time>2026-09-12T06:55:19.572Z</time>
      </trkpt>
      <trkpt lat="46.106028" lon="7.583599">
        <ele>2378.313494</ele>
        <time>2026-09-12T06:55:32.704Z</time>
      </trkpt>
      <trkpt lat="46.105985" lon="7.583724">
        <ele>2379.724377</ele>
        <time>2026-09-12T06:55:42.187Z</time>
      </trkpt>
      <trkpt lat="46.105931" lon="7.584114">
        <ele>2383.745515</ele>
        <time>2026-09-12T06:56:09.574Z</time>
      </trkpt>
      <trkpt lat="46.105544" lon="7.584233">
        <ele>2389.516065</ele>
        <time>2026-09-12T06:56:48.294Z</time>
      </trkpt>
      <trkpt lat="46.105341" lon="7.584254">
        <ele>2392.603456</ele>
        <time>2026-09-12T06:57:09.426Z</time>
      </trkpt>
      <trkpt lat="46.105158" lon="7.584350">
        <ele>2397.034148</ele>
        <time>2026-09-12T06:57:30.592Z</time>
      </trkpt>
      <trkpt lat="46.104889" lon="7.584558">
        <ele>2403.978849</ele>
        <time>2026-09-12T06:58:06.418Z</time>
      </trkpt>
      <trkpt lat="46.104736" lon="7.584652">
        <ele>2407.762765</ele>
        <time>2026-09-12T06:58:27.763Z</time>
      </trkpt>
      <trkpt lat="46.104582" lon="7.584844">
        <ele>2412.394440</ele>
        <time>2026-09-12T06:58:55.666Z</time>
      </trkpt>
      <trkpt lat="46.104143" lon="7.585913">
        <ele>2431.994940</ele>
        <time>2026-09-12T07:01:08.825Z</time>
      </trkpt>
      <trkpt lat="46.103919" lon="7.585994">
        <ele>2437.715049</ele>
        <time>2026-09-12T07:01:49.268Z</time>
      </trkpt>
      <trkpt lat="46.103725" lon="7.586168">
        <ele>2443.510194</ele>
        <time>2026-09-12T07:02:28.278Z</time>
      </trkpt>
      <trkpt lat="46.103638" lon="7.586408">
        <ele>2448.273478</ele>
        <time>2026-09-12T07:02:59.214Z</time>
      </trkpt>
      <trkpt lat="46.103603" lon="7.586839">
        <ele>2455.905844</ele>
        <time>2026-09-12T07:03:46.765Z</time>
      </trkpt>
      <trkpt lat="46.103682" lon="7.586966">
        <ele>2458.906747</ele>
        <time>2026-09-12T07:04:04.676Z</time>
      </trkpt>
      <trkpt lat="46.103764" lon="7.587335">
        <ele>2465.722001</ele>
        <time>2026-09-12T07:04:44.294Z</time>
      </trkpt>
      <trkpt lat="46.103322" lon="7.587570">
        <ele>2477.671742</ele>
        <time>2026-09-12T07:05:51.352Z</time>
      </trkpt>
      <trkpt lat="46.103091" lon="7.587943">
        <ele>2484.036585</ele>
        <time>2026-09-12T07:06:37.048Z</time>
      </trkpt>
      <trkpt lat="46.103009" lon="7.587938">
        <ele>2485.456471</ele>
        <time>2026-09-12T07:06:47.408Z</time>
      </trkpt>
      <trkpt lat="46.102632" lon="7.588454">
        <ele>2494.448152</ele>
        <time>2026-09-12T07:07:51.079Z</time>
      </trkpt>
      <trkpt lat="46.102485" lon="7.588728">
        <ele>2498.603904</ele>
        <time>2026-09-12T07:08:17.164Z</time>
      </trkpt>
      <trkpt lat="46.102364" lon="7.588828">
        <ele>2501.016566</ele>
        <time>2026-09-12T07:08:31.352Z</time>
      </trkpt>
      <trkpt lat="46.102260" lon="7.589167">
        <ele>2505.463299</ele>
        <time>2026-09-12T07:08:56.368Z</time>
      </trkpt>
      <trkpt lat="46.102227" lon="7.589383">
        <ele>2508.116482</ele>
        <time>2026-09-12T07:09:10.696Z</time>
      </trkpt>
      <trkpt lat="46.102175" lon="7.589569">
        <ele>2510.187225</ele>
        <time>2026-09-12T07:09:23.302Z</time>
      </trkpt>
      <trkpt lat="46.102081" lon="7.589914">
        <ele>2512.081270</ele>
        <time>2026-09-12T07:09:45.732Z</time>
      </trkpt>
      <trkpt lat="46.101910" lon="7.590249">
        <ele>2514.206826</ele>
        <time>2026-09-12T07:10:08.931Z</time>
      </trkpt>
      <trkpt lat="46.101636" lon="7.590978">
        <ele>2518.443847</ele>
        <time>2026-09-12T07:10:48.725Z</time>
      </trkpt>
      <trkpt lat="46.101160" lon="7.591703">
        <ele>2523.408985</ele>
        <time>2026-09-12T07:11:30.584Z</time>
      </trkpt>
      <trkpt lat="46.100752" lon="7.591893">
        <ele>2525.343250</ele>
        <time>2026-09-12T07:11:56.743Z</time>
      </trkpt>
      <trkpt lat="46.100354" lon="7.591854">
        <ele>2527.142958</ele>
        <time>2026-09-12T07:12:22.028Z</time>
      </trkpt>
      <trkpt lat="46.100138" lon="7.591916">
        <ele>2528.136552</ele>
        <time>2026-09-12T07:12:35.952Z</time>
      </trkpt>
      <trkpt lat="46.100010" lon="7.592023">
        <ele>2528.804018</ele>
        <time>2026-09-12T07:12:45.010Z</time>
      </trkpt>
      <trkpt lat="46.099838" lon="7.592278">
        <ele>2529.916886</ele>
        <time>2026-09-12T07:13:00.095Z</time>
      </trkpt>
      <trkpt lat="46.099725" lon="7.592285">
        <ele>2530.427154</ele>
        <time>2026-09-12T07:13:07.072Z</time>
      </trkpt>
      <trkpt lat="46.099500" lon="7.592403">
        <ele>2531.519496</ele>
        <time>2026-09-12T07:13:21.901Z</time>
      </trkpt>
      <trkpt lat="46.099382" lon="7.592515">
        <ele>2532.195863</ele>
        <time>2026-09-12T07:13:30.824Z</time>
      </trkpt>
      <trkpt lat="46.099321" lon="7.592618">
        <ele>2532.645576</ele>
        <time>2026-09-12T07:13:36.811Z</time>
      </trkpt>
      <trkpt lat="46.098631" lon="7.592637">
        <ele>2535.949889</ele>
        <time>2026-09-12T07:14:20.707Z</time>
      </trkpt>
      <trkpt lat="46.097789" lon="7.592801">
        <ele>2540.066740</ele>
        <time>2026-09-12T07:15:13.878Z</time>
      </trkpt>
      <trkpt lat="46.097607" lon="7.593069">
        <ele>2541.930236</ele>
        <time>2026-09-12T07:15:30.008Z</time>
      </trkpt>
      <trkpt lat="46.097319" lon="7.593055">
        <ele>2543.994669</ele>
        <time>2026-09-12T07:15:48.284Z</time>
      </trkpt>
      <trkpt lat="46.097170" lon="7.593098">
        <ele>2545.083285</ele>
        <time>2026-09-12T07:15:58.015Z</time>
      </trkpt>
      <trkpt lat="46.097014" lon="7.593076">
        <ele>2546.206216</ele>
        <time>2026-09-12T07:16:08.136Z</time>
      </trkpt>
      <trkpt lat="46.096773" lon="7.593138">
        <ele>2547.960022</ele>
        <time>2026-09-12T07:16:24.531Z</time>
      </trkpt>
      <trkpt lat="46.096557" lon="7.593098">
        <ele>2549.520175</ele>
        <time>2026-09-12T07:16:40.077Z</time>
      </trkpt>
      <trkpt lat="46.095933" lon="7.593126">
        <ele>2556.200333</ele>
        <time>2026-09-12T07:17:30.248Z</time>
      </trkpt>
      <trkpt lat="46.095818" lon="7.593183">
        <ele>2558.691247</ele>
        <time>2026-09-12T07:17:41.862Z</time>
      </trkpt>
      <trkpt lat="46.095772" lon="7.593308">
        <ele>2560.701360</ele>
        <time>2026-09-12T07:17:51.684Z</time>
      </trkpt>
      <trkpt lat="46.095571" lon="7.593486">
        <ele>2565.533016</ele>
        <time>2026-09-12T07:18:17.612Z</time>
      </trkpt>
      <trkpt lat="46.095576" lon="7.593695">
        <ele>2568.503572</ele>
        <time>2026-09-12T07:18:35.738Z</time>
      </trkpt>
      <trkpt lat="46.095486" lon="7.593914">
        <ele>2572.119648</ele>
        <time>2026-09-12T07:18:59.794Z</time>
      </trkpt>
      <trkpt lat="46.095415" lon="7.593960">
        <ele>2573.714049</ele>
        <time>2026-09-12T07:19:10.830Z</time>
      </trkpt>
      <trkpt lat="46.095221" lon="7.593881">
        <ele>2577.843337</ele>
        <time>2026-09-12T07:19:40.209Z</time>
      </trkpt>
      <trkpt lat="46.095013" lon="7.593989">
        <ele>2582.371773</ele>
        <time>2026-09-12T07:20:14.020Z</time>
      </trkpt>
      <trkpt lat="46.094462" lon="7.594085">
        <ele>2596.190335</ele>
        <time>2026-09-12T07:21:41.776Z</time>
      </trkpt>
      <trkpt lat="46.094239" lon="7.593914">
        <ele>2604.461438</ele>
        <time>2026-09-12T07:22:24.332Z</time>
      </trkpt>
      <trkpt lat="46.094179" lon="7.593924">
        <ele>2606.439392</ele>
        <time>2026-09-12T07:22:34.834Z</time>
      </trkpt>
      <trkpt lat="46.094039" lon="7.593856">
        <ele>2611.277189</ele>
        <time>2026-09-12T07:23:02.325Z</time>
      </trkpt>
      <trkpt lat="46.094027" lon="7.594019">
        <ele>2614.999704</ele>
        <time>2026-09-12T07:23:24.352Z</time>
      </trkpt>
      <trkpt lat="46.093800" lon="7.593978">
        <ele>2622.491560</ele>
        <time>2026-09-12T07:24:10.263Z</time>
      </trkpt>
      <trkpt lat="46.093699" lon="7.593890">
        <ele>2626.355978</ele>
        <time>2026-09-12T07:24:34.582Z</time>
      </trkpt>
      <trkpt lat="46.093554" lon="7.593927">
        <ele>2631.178195</ele>
        <time>2026-09-12T07:25:05.590Z</time>
      </trkpt>
      <trkpt lat="46.093651" lon="7.593976">
        <ele>2634.544016</ele>
        <time>2026-09-12T07:25:27.602Z</time>
      </trkpt>
      <trkpt lat="46.093694" lon="7.594067">
        <ele>2637.044777</ele>
        <time>2026-09-12T07:25:44.049Z</time>
      </trkpt>
      <trkpt lat="46.093728" lon="7.594223">
        <ele>2640.758388</ele>
        <time>2026-09-12T07:26:09.151Z</time>
      </trkpt>
      <trkpt lat="46.093789" lon="7.594293">
        <ele>2643.311355</ele>
        <time>2026-09-12T07:26:26.511Z</time>
      </trkpt>
      <trkpt lat="46.093815" lon="7.594463">
        <ele>2647.264829</ele>
        <time>2026-09-12T07:26:53.516Z</time>
      </trkpt>
      <trkpt lat="46.093730" lon="7.594348">
        <ele>2651.023384</ele>
        <time>2026-09-12T07:27:19.385Z</time>
      </trkpt>
      <trkpt lat="46.093657" lon="7.594345">
        <ele>2653.359794</ele>
        <time>2026-09-12T07:27:35.541Z</time>
      </trkpt>
      <trkpt lat="46.093525" lon="7.594264">
        <ele>2657.949292</ele>
        <time>2026-09-12T07:28:07.082Z</time>
      </trkpt>
      <trkpt lat="46.093339" lon="7.594375">
        <ele>2664.389387</ele>
        <time>2026-09-12T07:28:51.196Z</time>
      </trkpt>
      <trkpt lat="46.093483" lon="7.594413">
        <ele>2669.072834</ele>
        <time>2026-09-12T07:29:22.776Z</time>
      </trkpt>
      <trkpt lat="46.093584" lon="7.594702">
        <ele>2676.252868</ele>
        <time>2026-09-12T07:30:09.498Z</time>
      </trkpt>
      <trkpt lat="46.093560" lon="7.594743">
        <ele>2677.443245</ele>
        <time>2026-09-12T07:30:17.054Z</time>
      </trkpt>
      <trkpt lat="46.093419" lon="7.594602">
        <ele>2682.932770</ele>
        <time>2026-09-12T07:30:49.753Z</time>
      </trkpt>
      <trkpt lat="46.093254" lon="7.594616">
        <ele>2688.220684</ele>
        <time>2026-09-12T07:31:18.789Z</time>
      </trkpt>
      <trkpt lat="46.092759" lon="7.594424">
        <ele>2704.619955</ele>
        <time>2026-09-12T07:32:39.617Z</time>
      </trkpt>
      <trkpt lat="46.092885" lon="7.594728">
        <ele>2711.569602</ele>
        <time>2026-09-12T07:33:15.518Z</time>
      </trkpt>
      <trkpt lat="46.092687" lon="7.594690">
        <ele>2717.051160</ele>
        <time>2026-09-12T07:33:44.571Z</time>
      </trkpt>
      <trkpt lat="46.092794" lon="7.594915">
        <ele>2722.243277</ele>
        <time>2026-09-12T07:34:13.240Z</time>
      </trkpt>
      <trkpt lat="46.092560" lon="7.594868">
        <ele>2728.726852</ele>
        <time>2026-09-12T07:34:50.852Z</time>
      </trkpt>
      <trkpt lat="46.092643" lon="7.595098">
        <ele>2733.661224</ele>
        <time>2026-09-12T07:35:20.464Z</time>
      </trkpt>
      <trkpt lat="46.092436" lon="7.595070">
        <ele>2739.366789</ele>
        <time>2026-09-12T07:35:55.783Z</time>
      </trkpt>
      <trkpt lat="46.092540" lon="7.595303">
        <ele>2744.640176</ele>
        <time>2026-09-12T07:36:29.462Z</time>
      </trkpt>
      <trkpt lat="46.092376" lon="7.595244">
        <ele>2749.278725</ele>
        <time>2026-09-12T07:36:58.804Z</time>
      </trkpt>
      <trkpt lat="46.092431" lon="7.595370">
        <ele>2752.112154</ele>
        <time>2026-09-12T07:37:16.342Z</time>
      </trkpt>
      <trkpt lat="46.092346" lon="7.595356">
        <ele>2754.459945</ele>
        <time>2026-09-12T07:37:30.947Z</time>
      </trkpt>
      <trkpt lat="46.092388" lon="7.595450">
        <ele>2756.245302</ele>
        <time>2026-09-12T07:37:43.681Z</time>
      </trkpt>
      <trkpt lat="46.092321" lon="7.595429">
        <ele>2757.558587</ele>
        <time>2026-09-12T07:37:55.103Z</time>
      </trkpt>
      <trkpt lat="46.092343" lon="7.595508">
        <ele>2758.689411</ele>
        <time>2026-09-12T07:38:04.890Z</time>
      </trkpt>
      <trkpt lat="46.092083" lon="7.595551">
        <ele>2763.702101</ele>
        <time>2026-09-12T07:38:48.835Z</time>
      </trkpt>
      <trkpt lat="46.092179" lon="7.595671">
        <ele>2766.135609</ele>
        <time>2026-09-12T07:39:09.551Z</time>
      </trkpt>
      <trkpt lat="46.092017" lon="7.595717">
        <ele>2769.298148</ele>
        <time>2026-09-12T07:39:35.557Z</time>
      </trkpt>
      <trkpt lat="46.092106" lon="7.595787">
        <ele>2771.239955</ele>
        <time>2026-09-12T07:39:50.271Z</time>
      </trkpt>
      <trkpt lat="46.092044" lon="7.595852">
        <ele>2772.708205</ele>
        <time>2026-09-12T07:40:00.562Z</time>
      </trkpt>
      <trkpt lat="46.091886" lon="7.595896">
        <ele>2775.790460</ele>
        <time>2026-09-12T07:40:19.658Z</time>
      </trkpt>
      <trkpt lat="46.091794" lon="7.595868">
        <ele>2777.591452</ele>
        <time>2026-09-12T07:40:30.049Z</time>
      </trkpt>
      <trkpt lat="46.091542" lon="7.595711">
        <ele>2782.849531</ele>
        <time>2026-09-12T07:40:59.501Z</time>
      </trkpt>
      <trkpt lat="46.091385" lon="7.595676">
        <ele>2785.892437</ele>
        <time>2026-09-12T07:41:13.521Z</time>
      </trkpt>
      <trkpt lat="46.091289" lon="7.595584">
        <ele>2788.100290</ele>
        <time>2026-09-12T07:41:22.633Z</time>
      </trkpt>
      <trkpt lat="46.091129" lon="7.595539">
        <ele>2789.179206</ele>
        <time>2026-09-12T07:41:32.806Z</time>
      </trkpt>
      <trkpt lat="46.090980" lon="7.595442">
        <ele>2787.456342</ele>
        <time>2026-09-12T07:41:41.747Z</time>
      </trkpt>
      <trkpt lat="46.090921" lon="7.595411">
        <ele>2786.794574</ele>
        <time>2026-09-12T07:41:44.720Z</time>
      </trkpt>
      <trkpt lat="46.090980" lon="7.595442">
        <ele>2786.132806</ele>
        <time>2026-09-12T07:41:48.480Z</time>
      </trkpt>
      <trkpt lat="46.091129" lon="7.595539">
        <ele>2784.409942</ele>
        <time>2026-09-12T07:41:56.613Z</time>
      </trkpt>
      <trkpt lat="46.091289" lon="7.595584">
        <ele>2782.691998</ele>
        <time>2026-09-12T07:42:04.223Z</time>
      </trkpt>
      <trkpt lat="46.091385" lon="7.595676">
        <ele>2781.477235</ele>
        <time>2026-09-12T07:42:09.098Z</time>
      </trkpt>
      <trkpt lat="46.091542" lon="7.595711">
        <ele>2779.803025</ele>
        <time>2026-09-12T07:42:15.536Z</time>
      </trkpt>
      <trkpt lat="46.091794" lon="7.595868">
        <ele>2776.910025</ele>
        <time>2026-09-12T07:42:26.607Z</time>
      </trkpt>
      <trkpt lat="46.091886" lon="7.595896">
        <ele>2775.919117</ele>
        <time>2026-09-12T07:42:30.365Z</time>
      </trkpt>
      <trkpt lat="46.092044" lon="7.595852">
        <ele>2774.223258</ele>
        <time>2026-09-12T07:42:36.796Z</time>
      </trkpt>
      <trkpt lat="46.092106" lon="7.595787">
        <ele>2773.415425</ele>
        <time>2026-09-12T07:42:39.839Z</time>
      </trkpt>
      <trkpt lat="46.092017" lon="7.595717">
        <ele>2772.347041</ele>
        <time>2026-09-12T07:42:43.949Z</time>
      </trkpt>
      <trkpt lat="46.092179" lon="7.595671">
        <ele>2770.061368</ele>
        <time>2026-09-12T07:42:50.898Z</time>
      </trkpt>
      <trkpt lat="46.092083" lon="7.595551">
        <ele>2766.588634</ele>
        <time>2026-09-12T07:42:56.322Z</time>
      </trkpt>
      <trkpt lat="46.092343" lon="7.595508">
        <ele>2759.435279</ele>
        <time>2026-09-12T07:43:07.636Z</time>
      </trkpt>
      <trkpt lat="46.092321" lon="7.595429">
        <ele>2757.821538</ele>
        <time>2026-09-12T07:43:10.171Z</time>
      </trkpt>
      <trkpt lat="46.092388" lon="7.595450">
        <ele>2755.947416</ele>
        <time>2026-09-12T07:43:13.123Z</time>
      </trkpt>
      <trkpt lat="46.092346" lon="7.595356">
        <ele>2753.827761</ele>
        <time>2026-09-12T07:43:16.459Z</time>
      </trkpt>
      <trkpt lat="46.092431" lon="7.595370">
        <ele>2751.489289</ele>
        <time>2026-09-12T07:43:20.184Z</time>
      </trkpt>
      <trkpt lat="46.092376" lon="7.595244">
        <ele>2748.667108</ele>
        <time>2026-09-12T07:43:24.668Z</time>
      </trkpt>
      <trkpt lat="46.092540" lon="7.595303">
        <ele>2744.046973</ele>
        <time>2026-09-12T07:43:32.077Z</time>
      </trkpt>
      <trkpt lat="46.092436" lon="7.595070">
        <ele>2738.794519</ele>
        <time>2026-09-12T07:43:40.543Z</time>
      </trkpt>
      <trkpt lat="46.092643" lon="7.595098">
        <ele>2733.111602</ele>
        <time>2026-09-12T07:43:49.598Z</time>
      </trkpt>
      <trkpt lat="46.092560" lon="7.594868">
        <ele>2728.196818</ele>
        <time>2026-09-12T07:43:57.327Z</time>
      </trkpt>
      <trkpt lat="46.092794" lon="7.594915">
        <ele>2721.736008</ele>
        <time>2026-09-12T07:44:07.317Z</time>
      </trkpt>
      <trkpt lat="46.092687" lon="7.594690">
        <ele>2716.236294</ele>
        <time>2026-09-12T07:44:15.141Z</time>
      </trkpt>
      <trkpt lat="46.092885" lon="7.594728">
        <ele>2710.429991</ele>
        <time>2026-09-12T07:44:23.253Z</time>
      </trkpt>
      <trkpt lat="46.092759" lon="7.594424">
        <ele>2703.290643</ele>
        <time>2026-09-12T07:44:33.261Z</time>
      </trkpt>
      <trkpt lat="46.093254" lon="7.594616">
        <ele>2688.390302</ele>
        <time>2026-09-12T07:44:54.850Z</time>
      </trkpt>
      <trkpt lat="46.093419" lon="7.594602">
        <ele>2683.585715</ele>
        <time>2026-09-12T07:45:02.131Z</time>
      </trkpt>
      <trkpt lat="46.093560" lon="7.594743">
        <ele>2678.597945</ele>
        <time>2026-09-12T07:45:09.944Z</time>
      </trkpt>
      <trkpt lat="46.093584" lon="7.594702">
        <ele>2677.516371</ele>
        <time>2026-09-12T07:45:11.694Z</time>
      </trkpt>
      <trkpt lat="46.093483" lon="7.594413">
        <ele>2670.992608</ele>
        <time>2026-09-12T07:45:22.330Z</time>
      </trkpt>
      <trkpt lat="46.093339" lon="7.594375">
        <ele>2666.199618</ele>
        <time>2026-09-12T07:45:29.381Z</time>
      </trkpt>
      <trkpt lat="46.093525" lon="7.594264">
        <ele>2659.210346</ele>
        <time>2026-09-12T07:45:39.163Z</time>
      </trkpt>
      <trkpt lat="46.093657" lon="7.594345">
        <ele>2654.229480</ele>
        <time>2026-09-12T07:45:46.141Z</time>
      </trkpt>
      <trkpt lat="46.093730" lon="7.594348">
        <ele>2651.693833</ele>
        <time>2026-09-12T07:45:49.699Z</time>
      </trkpt>
      <trkpt lat="46.093815" lon="7.594463">
        <ele>2647.646947</ele>
        <time>2026-09-12T07:45:55.414Z</time>
      </trkpt>
      <trkpt lat="46.093789" lon="7.594293">
        <ele>2643.455295</ele>
        <time>2026-09-12T07:46:01.350Z</time>
      </trkpt>
      <trkpt lat="46.093728" lon="7.594223">
        <ele>2640.748525</ele>
        <time>2026-09-12T07:46:05.159Z</time>
      </trkpt>
      <trkpt lat="46.093694" lon="7.594067">
        <ele>2636.811186</ele>
        <time>2026-09-12T07:46:10.699Z</time>
      </trkpt>
      <trkpt lat="46.093651" lon="7.593976">
        <ele>2634.159766</ele>
        <time>2026-09-12T07:46:14.383Z</time>
      </trkpt>
      <trkpt lat="46.093554" lon="7.593927">
        <ele>2630.591171</ele>
        <time>2026-09-12T07:46:19.314Z</time>
      </trkpt>
      <trkpt lat="46.093699" lon="7.593890">
        <ele>2625.478439</ele>
        <time>2026-09-12T07:46:26.324Z</time>
      </trkpt>
      <trkpt lat="46.093800" lon="7.593978">
        <ele>2621.381209</ele>
        <time>2026-09-12T07:46:31.873Z</time>
      </trkpt>
      <trkpt lat="46.094027" lon="7.594019">
        <ele>2613.438005</ele>
        <time>2026-09-12T07:46:42.513Z</time>
      </trkpt>
      <trkpt lat="46.094039" lon="7.593856">
        <ele>2609.491227</ele>
        <time>2026-09-12T07:46:47.720Z</time>
      </trkpt>
      <trkpt lat="46.094179" lon="7.593924">
        <ele>2605.096999</ele>
        <time>2026-09-12T07:46:54.381Z</time>
      </trkpt>
      <trkpt lat="46.094239" lon="7.593914">
        <ele>2603.572953</ele>
        <time>2026-09-12T07:46:57.021Z</time>
      </trkpt>
      <trkpt lat="46.094462" lon="7.594085">
        <ele>2597.199927</ele>
        <time>2026-09-12T07:47:07.973Z</time>
      </trkpt>
      <trkpt lat="46.095013" lon="7.593989">
        <ele>2583.195542</ele>
        <time>2026-09-12T07:47:31.375Z</time>
      </trkpt>
      <trkpt lat="46.095221" lon="7.593881">
        <ele>2577.617259</ele>
        <time>2026-09-12T07:47:40.567Z</time>
      </trkpt>
      <trkpt lat="46.095415" lon="7.593960">
        <ele>2572.530661</ele>
        <time>2026-09-12T07:47:48.783Z</time>
      </trkpt>
      <trkpt lat="46.095486" lon="7.593914">
        <ele>2570.566622</ele>
        <time>2026-09-12T07:47:51.896Z</time>
      </trkpt>
      <trkpt lat="46.095576" lon="7.593695">
        <ele>2566.112216</ele>
        <time>2026-09-12T07:47:58.914Z</time>
      </trkpt>
      <trkpt lat="46.095571" lon="7.593486">
        <ele>2562.452984</ele>
        <time>2026-09-12T07:48:04.702Z</time>
      </trkpt>
      <trkpt lat="46.095772" lon="7.593308">
        <ele>2559.537749</ele>
        <time>2026-09-12T07:48:14.197Z</time>
      </trkpt>
      <trkpt lat="46.095818" lon="7.593183">
        <ele>2558.517152</ele>
        <time>2026-09-12T07:48:18.143Z</time>
      </trkpt>
      <trkpt lat="46.095933" lon="7.593126">
        <ele>2557.252436</ele>
        <time>2026-09-12T07:48:23.075Z</time>
      </trkpt>
      <trkpt lat="46.096557" lon="7.593098">
        <ele>2550.759487</ele>
        <time>2026-09-12T07:48:49.286Z</time>
      </trkpt>
      <trkpt lat="46.096773" lon="7.593138">
        <ele>2548.494567</ele>
        <time>2026-09-12T07:48:58.832Z</time>
      </trkpt>
      <trkpt lat="46.097014" lon="7.593076">
        <ele>2545.948515</ele>
        <time>2026-09-12T07:49:09.827Z</time>
      </trkpt>
      <trkpt lat="46.097170" lon="7.593098">
        <ele>2544.318323</ele>
        <time>2026-09-12T07:49:16.972Z</time>
      </trkpt>
      <trkpt lat="46.097319" lon="7.593055">
        <ele>2542.854981</ele>
        <time>2026-09-12T07:49:23.931Z</time>
      </trkpt>
      <trkpt lat="46.097607" lon="7.593069">
        <ele>2541.434302</ele>
        <time>2026-09-12T07:49:37.232Z</time>
      </trkpt>
      <trkpt lat="46.097789" lon="7.592801">
        <ele>2540.151901</ele>
        <time>2026-09-12T07:49:49.357Z</time>
      </trkpt>
      <trkpt lat="46.098631" lon="7.592637">
        <ele>2535.963056</ele>
        <time>2026-09-12T07:50:28.743Z</time>
      </trkpt>
      <trkpt lat="46.099321" lon="7.592618">
        <ele>2532.660698</ele>
        <time>2026-09-12T07:51:00.493Z</time>
      </trkpt>
      <trkpt lat="46.099382" lon="7.592515">
        <ele>2532.227867</ele>
        <time>2026-09-12T07:51:04.814Z</time>
      </trkpt>
      <trkpt lat="46.099500" lon="7.592403">
        <ele>2531.576892</ele>
        <time>2026-09-12T07:51:11.345Z</time>
      </trkpt>
      <trkpt lat="46.099725" lon="7.592285">
        <ele>2530.473608</ele>
        <time>2026-09-12T07:51:22.493Z</time>
      </trkpt>
      <trkpt lat="46.099838" lon="7.592278">
        <ele>2529.952397</ele>
        <time>2026-09-12T07:51:27.812Z</time>
      </trkpt>
      <trkpt lat="46.100010" lon="7.592023">
        <ele>2528.815661</ele>
        <time>2026-09-12T07:51:39.370Z</time>
      </trkpt>
      <trkpt lat="46.100138" lon="7.591916">
        <ele>2528.133880</ele>
        <time>2026-09-12T07:51:46.309Z</time>
      </trkpt>
      <trkpt lat="46.100354" lon="7.591854">
        <ele>2527.118977</ele>
        <time>2026-09-12T07:51:56.508Z</time>
      </trkpt>
      <trkpt lat="46.100752" lon="7.591893">
        <ele>2525.178933</ele>
        <time>2026-09-12T07:52:14.906Z</time>
      </trkpt>
      <trkpt lat="46.101160" lon="7.591703">
        <ele>2522.819365</ele>
        <time>2026-09-12T07:52:35.062Z</time>
      </trkpt>
      <trkpt lat="46.101636" lon="7.590978">
        <ele>2519.009293</ele>
        <time>2026-09-12T07:53:07.674Z</time>
      </trkpt>
      <trkpt lat="46.101910" lon="7.590249">
        <ele>2515.753206</ele>
        <time>2026-09-12T07:53:33.194Z</time>
      </trkpt>
      <trkpt lat="46.102081" lon="7.589914">
        <ele>2511.760534</ele>
        <time>2026-09-12T07:53:45.306Z</time>
      </trkpt>
      <trkpt lat="46.102175" lon="7.589569">
        <ele>2508.202736</ele>
        <time>2026-09-12T07:53:55.799Z</time>
      </trkpt>
      <trkpt lat="46.102227" lon="7.589383">
        <ele>2506.277854</ele>
        <time>2026-09-12T07:54:01.449Z</time>
      </trkpt>
      <trkpt lat="46.102260" lon="7.589167">
        <ele>2504.154956</ele>
        <time>2026-09-12T07:54:07.679Z</time>
      </trkpt>
      <trkpt lat="46.102364" lon="7.588828">
        <ele>2500.596982</ele>
        <time>2026-09-12T07:54:18.064Z</time>
      </trkpt>
      <trkpt lat="46.102485" lon="7.588728">
        <ele>2498.666533</ele>
        <time>2026-09-12T07:54:23.684Z</time>
      </trkpt>
      <trkpt lat="46.102632" lon="7.588454">
        <ele>2495.341382</ele>
        <time>2026-09-12T07:54:33.327Z</time>
      </trkpt>
      <trkpt lat="46.103009" lon="7.587938">
        <ele>2486.196805</ele>
        <time>2026-09-12T07:54:54.075Z</time>
      </trkpt>
      <trkpt lat="46.103091" lon="7.587943">
        <ele>2484.286381</ele>
        <time>2026-09-12T07:54:57.350Z</time>
      </trkpt>
      <trkpt lat="46.103322" lon="7.587570">
        <ele>2476.214666</ele>
        <time>2026-09-12T07:55:11.173Z</time>
      </trkpt>
      <trkpt lat="46.103764" lon="7.587335">
        <ele>2465.249388</ele>
        <time>2026-09-12T07:55:30.145Z</time>
      </trkpt>
      <trkpt lat="46.103682" lon="7.586966">
        <ele>2458.995599</ele>
        <time>2026-09-12T07:55:41.130Z</time>
      </trkpt>
      <trkpt lat="46.103603" lon="7.586839">
        <ele>2456.241922</ele>
        <time>2026-09-12T07:55:46.023Z</time>
      </trkpt>
      <trkpt lat="46.103638" lon="7.586408">
        <ele>2449.238338</ele>
        <time>2026-09-12T07:55:58.719Z</time>
      </trkpt>
      <trkpt lat="46.103725" lon="7.586168">
        <ele>2444.478379</ele>
        <time>2026-09-12T07:56:06.763Z</time>
      </trkpt>
      <trkpt lat="46.103919" lon="7.585994">
        <ele>2438.676479</ele>
        <time>2026-09-12T07:56:16.727Z</time>
      </trkpt>
      <trkpt lat="46.104143" lon="7.585913">
        <ele>2432.811598</ele>
        <time>2026-09-12T07:56:26.899Z</time>
      </trkpt>
      <trkpt lat="46.104582" lon="7.584844">
        <ele>2410.934056</ele>
        <time>2026-09-12T07:57:02.883Z</time>
      </trkpt>
      <trkpt lat="46.104736" lon="7.584652">
        <ele>2405.764307</ele>
        <time>2026-09-12T07:57:10.972Z</time>
      </trkpt>
      <trkpt lat="46.104889" lon="7.584558">
        <ele>2402.221435</ele>
        <time>2026-09-12T07:57:17.603Z</time>
      </trkpt>
      <trkpt lat="46.105158" lon="7.584350">
        <ele>2397.216571</ele>
        <time>2026-09-12T07:57:29.801Z</time>
      </trkpt>
      <trkpt lat="46.105341" lon="7.584254">
        <ele>2394.023488</ele>
        <time>2026-09-12T07:57:37.623Z</time>
      </trkpt>
      <trkpt lat="46.105544" lon="7.584233">
        <ele>2390.686224</ele>
        <time>2026-09-12T07:57:45.840Z</time>
      </trkpt>
      <trkpt lat="46.105931" lon="7.584114">
        <ele>2384.197739</ele>
        <time>2026-09-12T07:58:01.837Z</time>
      </trkpt>
      <trkpt lat="46.105985" lon="7.583724">
        <ele>2379.676316</ele>
        <time>2026-09-12T07:58:12.960Z</time>
      </trkpt>
      <trkpt lat="46.106028" lon="7.583599">
        <ele>2378.089900</ele>
        <time>2026-09-12T07:58:16.867Z</time>
      </trkpt>
      <trkpt lat="46.105980" lon="7.583420">
        <ele>2375.907961</ele>
        <time>2026-09-12T07:58:22.261Z</time>
      </trkpt>
      <trkpt lat="46.105995" lon="7.583116">
        <ele>2372.893465</ele>
        <time>2026-09-12T07:58:30.806Z</time>
      </trkpt>
      <trkpt lat="46.105902" lon="7.582679">
        <ele>2369.231171</ele>
        <time>2026-09-12T07:58:43.608Z</time>
      </trkpt>
      <trkpt lat="46.105927" lon="7.582439">
        <ele>2367.286802</ele>
        <time>2026-09-12T07:58:50.408Z</time>
      </trkpt>
      <trkpt lat="46.106096" lon="7.582222">
        <ele>2364.672215</ele>
        <time>2026-09-12T07:58:59.582Z</time>
      </trkpt>
      <trkpt lat="46.106091" lon="7.581604">
        <ele>2359.720713</ele>
        <time>2026-09-12T07:59:17.044Z</time>
      </trkpt>
      <trkpt lat="46.106120" lon="7.581098">
        <ele>2355.653020</ele>
        <time>2026-09-12T07:59:31.857Z</time>
      </trkpt>
      <trkpt lat="46.106075" lon="7.580739">
        <ele>2353.184344</ele>
        <time>2026-09-12T07:59:42.753Z</time>
      </trkpt>
      <trkpt lat="46.106016" lon="7.580272">
        <ele>2353.184344</ele>
        <time>2026-09-12T07:59:57.039Z</time>
      </trkpt>
      <trkpt lat="46.106122" lon="7.579894">
        <ele>2353.184344</ele>
        <time>2026-09-12T08:00:09.461Z</time>
      </trkpt>
      <trkpt lat="46.106208" lon="7.579650">
        <ele>2353.184344</ele>
        <time>2026-09-12T08:00:18.008Z</time>
      </trkpt>
      <trkpt lat="46.106323" lon="7.579174">
        <ele>2353.184344</ele>
        <time>2026-09-12T08:00:34.045Z</time>
      </trkpt>
      <trkpt lat="46.106472" lon="7.579000">
        <ele>2353.184344</ele>
        <time>2026-09-12T08:00:40.437Z</time>
      </trkpt>
      <trkpt lat="46.106551" lon="7.578895">
        <ele>2353.184344</ele>
        <time>2026-09-12T08:00:44.018Z</time>
      </trkpt>
    </trkseg>
  </trk>
</gpx>