<?xml version='1.0' encoding='UTF-8'?>
<gpx version="1.1" creator="https://www.komoot.de" xmlns="http://www.topografix.com/GPX/1/1" xmlns:xsi="http://www.w3.org/2001/XMLSchema-instance" xsi:schemaLocation="http://www.topografix.com/GPX/1/1 http://www.topografix.com/GPX/1/1/gpx.xsd">
  <metadata>
    <name>Espace Weisshorn > Cabane du Petit Mountet > Zinal</name>
    <author>
      <link href="https://www.komoot.de">
        <text>komoot</text>
        <type>text/html</type>
      </link>
    </author>
  </metadata>
  <trk>
    <name>Espace Weisshorn > Cabane du Petit Mountet > Zinal</name>
    <type>jogging</type>
    <trkseg>
      <trkpt lat="46.150060" lon="7.595320">
        <ele>2653.756779</ele>
        <time>2026-09-12T07:42:58.131Z</time>
      </trkpt>
      <trkpt lat="46.149986" lon="7.595614">
        <ele>2653.756779</ele>
        <time>2026-09-12T07:43:05.382Z</time>
      </trkpt>
      <trkpt lat="46.149875" lon="7.595786">
        <ele>2653.756779</ele>
        <time>2026-09-12T07:43:10.759Z</time>
      </trkpt>
      <trkpt lat="46.149808" lon="7.595712">
        <ele>2653.756779</ele>
        <time>2026-09-12T07:43:13.492Z</time>
      </trkpt>
      <trkpt lat="46.149665" lon="7.595534">
        <ele>2653.756779</ele>
        <time>2026-09-12T07:43:19.481Z</time>
      </trkpt>
      <trkpt lat="46.149599" lon="7.595399">
        <ele>2653.756779</ele>
        <time>2026-09-12T07:43:23.083Z</time>
      </trkpt>
      <trkpt lat="46.149520" lon="7.594931">
        <ele>2652.333147</ele>
        <time>2026-09-12T07:43:33.359Z</time>
      </trkpt>
      <trkpt lat="46.149476" lon="7.594756">
        <ele>2651.422337</ele>
        <time>2026-09-12T07:43:37.292Z</time>
      </trkpt>
      <trkpt lat="46.149417" lon="7.594644">
        <ele>2650.733970</ele>
        <time>2026-09-12T07:43:40.348Z</time>
      </trkpt>
      <trkpt lat="46.149111" lon="7.594451">
        <ele>2648.375719</ele>
        <time>2026-09-12T07:43:51.055Z</time>
      </trkpt>
      <trkpt lat="46.148823" lon="7.594033">
        <ele>2645.491500</ele>
        <time>2026-09-12T07:44:04.374Z</time>
      </trkpt>
      <trkpt lat="46.148511" lon="7.593103">
        <ele>2639.983356</ele>
        <time>2026-09-12T07:44:27.114Z</time>
      </trkpt>
      <trkpt lat="46.148336" lon="7.592788">
        <ele>2636.562364</ele>
        <time>2026-09-12T07:44:35.849Z</time>
      </trkpt>
      <trkpt lat="46.148218" lon="7.592698">
        <ele>2634.930197</ele>
        <time>2026-09-12T07:44:39.968Z</time>
      </trkpt>
      <trkpt lat="46.148054" lon="7.592673">
        <ele>2632.913389</ele>
        <time>2026-09-12T07:44:44.946Z</time>
      </trkpt>
      <trkpt lat="46.147898" lon="7.592758">
        <ele>2630.874170</ele>
        <time>2026-09-12T07:44:49.915Z</time>
      </trkpt>
      <trkpt lat="46.147747" lon="7.592963">
        <ele>2628.339019</ele>
        <time>2026-09-12T07:44:55.991Z</time>
      </trkpt>
      <trkpt lat="46.147718" lon="7.593090">
        <ele>2627.206048</ele>
        <time>2026-09-12T07:44:58.711Z</time>
      </trkpt>
      <trkpt lat="46.147801" lon="7.593361">
        <ele>2624.695591</ele>
        <time>2026-09-12T07:45:04.688Z</time>
      </trkpt>
      <trkpt lat="46.147799" lon="7.593520">
        <ele>2623.348215</ele>
        <time>2026-09-12T07:45:07.895Z</time>
      </trkpt>
      <trkpt lat="46.147675" lon="7.594243">
        <ele>2615.677765</ele>
        <time>2026-09-12T07:45:22.805Z</time>
      </trkpt>
      <trkpt lat="46.147574" lon="7.594576">
        <ele>2610.525115</ele>
        <time>2026-09-12T07:45:30.048Z</time>
      </trkpt>
      <trkpt lat="46.147454" lon="7.594691">
        <ele>2607.578080</ele>
        <time>2026-09-12T07:45:34.170Z</time>
      </trkpt>
      <trkpt lat="46.147174" lon="7.594819">
        <ele>2601.568901</ele>
        <time>2026-09-12T07:45:42.622Z</time>
      </trkpt>
      <trkpt lat="46.146940" lon="7.594838">
        <ele>2596.773751</ele>
        <time>2026-09-12T07:45:49.323Z</time>
      </trkpt>
      <trkpt lat="46.146828" lon="7.594897">
        <ele>2594.334417</ele>
        <time>2026-09-12T07:45:52.757Z</time>
      </trkpt>
      <trkpt lat="46.146373" lon="7.595413">
        <ele>2582.495554</ele>
        <time>2026-09-12T07:46:09.325Z</time>
      </trkpt>
      <trkpt lat="46.145837" lon="7.595659">
        <ele>2570.173164</ele>
        <time>2026-09-12T07:46:25.476Z</time>
      </trkpt>
      <trkpt lat="46.145719" lon="7.595666">
        <ele>2567.582161</ele>
        <time>2026-09-12T07:46:28.854Z</time>
      </trkpt>
      <trkpt lat="46.145623" lon="7.595707">
        <ele>2565.385738</ele>
        <time>2026-09-12T07:46:32.820Z</time>
      </trkpt>
      <trkpt lat="46.145465" lon="7.595654">
        <ele>2561.826974</ele>
        <time>2026-09-12T07:46:39.297Z</time>
      </trkpt>
      <trkpt lat="46.145194" lon="7.595639">
        <ele>2555.877100</ele>
        <time>2026-09-12T07:46:50.084Z</time>
      </trkpt>
      <trkpt lat="46.145121" lon="7.595676">
        <ele>2554.179665</ele>
        <time>2026-09-12T07:46:53.144Z</time>
      </trkpt>
      <trkpt lat="46.144976" lon="7.595882">
        <ele>2549.715974</ele>
        <time>2026-09-12T07:47:01.232Z</time>
      </trkpt>
      <trkpt lat="46.144826" lon="7.596041">
        <ele>2545.632970</ele>
        <time>2026-09-12T07:47:08.672Z</time>
      </trkpt>
      <trkpt lat="46.144755" lon="7.596163">
        <ele>2543.211135</ele>
        <time>2026-09-12T07:47:13.060Z</time>
      </trkpt>
      <trkpt lat="46.144723" lon="7.596387">
        <ele>2539.599955</ele>
        <time>2026-09-12T07:47:19.351Z</time>
      </trkpt>
      <trkpt lat="46.144692" lon="7.596819">
        <ele>2532.708007</ele>
        <time>2026-09-12T07:47:31.405Z</time>
      </trkpt>
      <trkpt lat="46.144711" lon="7.596951">
        <ele>2530.568612</ele>
        <time>2026-09-12T07:47:35.200Z</time>
      </trkpt>
      <trkpt lat="46.144660" lon="7.597276">
        <ele>2525.280654</ele>
        <time>2026-09-12T07:47:44.678Z</time>
      </trkpt>
      <trkpt lat="46.144680" lon="7.597408">
        <ele>2523.136482</ele>
        <time>2026-09-12T07:47:48.502Z</time>
      </trkpt>
      <trkpt lat="46.144630" lon="7.597610">
        <ele>2519.732577</ele>
        <time>2026-09-12T07:47:54.568Z</time>
      </trkpt>
      <trkpt lat="46.144548" lon="7.597807">
        <ele>2516.085650</ele>
        <time>2026-09-12T07:48:00.989Z</time>
      </trkpt>
      <trkpt lat="46.144597" lon="7.598010">
        <ele>2512.674396</ele>
        <time>2026-09-12T07:48:06.969Z</time>
      </trkpt>
      <trkpt lat="46.144518" lon="7.598236">
        <ele>2508.657463</ele>
        <time>2026-09-12T07:48:13.953Z</time>
      </trkpt>
      <trkpt lat="46.144490" lon="7.598489">
        <ele>2504.591771</ele>
        <time>2026-09-12T07:48:21.037Z</time>
      </trkpt>
      <trkpt lat="46.144514" lon="7.598632">
        <ele>2502.256909</ele>
        <time>2026-09-12T07:48:25.071Z</time>
      </trkpt>
      <trkpt lat="46.144489" lon="7.598817">
        <ele>2499.589098</ele>
        <time>2026-09-12T07:48:30.277Z</time>
      </trkpt>
      <trkpt lat="46.144536" lon="7.598907">
        <ele>2498.048125</ele>
        <time>2026-09-12T07:48:32.509Z</time>
      </trkpt>
      <trkpt lat="46.144557" lon="7.599043">
        <ele>2496.142983</ele>
        <time>2026-09-12T07:48:35.295Z</time>
      </trkpt>
      <trkpt lat="46.144573" lon="7.599810">
        <ele>2485.651085</ele>
        <time>2026-09-12T07:48:50.553Z</time>
      </trkpt>
      <trkpt lat="46.144549" lon="7.600072">
        <ele>2482.037600</ele>
        <time>2026-09-12T07:48:55.830Z</time>
      </trkpt>
      <trkpt lat="46.144435" lon="7.600574">
        <ele>2474.814481</ele>
        <time>2026-09-12T07:49:06.364Z</time>
      </trkpt>
      <trkpt lat="46.144429" lon="7.600706">
        <ele>2473.005769</ele>
        <time>2026-09-12T07:49:09.020Z</time>
      </trkpt>
      <trkpt lat="46.144475" lon="7.600918">
        <ele>2469.968275</ele>
        <time>2026-09-12T07:49:13.456Z</time>
      </trkpt>
      <trkpt lat="46.144592" lon="7.601138">
        <ele>2466.176231</ele>
        <time>2026-09-12T07:49:19.007Z</time>
      </trkpt>
      <trkpt lat="46.144616" lon="7.601246">
        <ele>2465.019813</ele>
        <time>2026-09-12T07:49:21.265Z</time>
      </trkpt>
      <trkpt lat="46.144596" lon="7.601313">
        <ele>2464.287956</ele>
        <time>2026-09-12T07:49:22.713Z</time>
      </trkpt>
      <trkpt lat="46.144549" lon="7.601360">
        <ele>2463.460057</ele>
        <time>2026-09-12T07:49:24.369Z</time>
      </trkpt>
      <trkpt lat="46.144315" lon="7.601421">
        <ele>2460.017110</ele>
        <time>2026-09-12T07:49:31.252Z</time>
      </trkpt>
      <trkpt lat="46.144206" lon="7.601542">
        <ele>2458.026069</ele>
        <time>2026-09-12T07:49:35.219Z</time>
      </trkpt>
      <trkpt lat="46.144137" lon="7.601813">
        <ele>2455.129678</ele>
        <time>2026-09-12T07:49:41.009Z</time>
      </trkpt>
      <trkpt lat="46.144082" lon="7.602338">
        <ele>2449.803088</ele>
        <time>2026-09-12T07:49:51.670Z</time>
      </trkpt>
      <trkpt lat="46.144122" lon="7.602448">
        <ele>2448.556831</ele>
        <time>2026-09-12T07:49:54.183Z</time>
      </trkpt>
      <trkpt lat="46.144495" lon="7.602671">
        <ele>2442.711103</ele>
        <time>2026-09-12T07:50:06.014Z</time>
      </trkpt>
      <trkpt lat="46.144622" lon="7.602796">
        <ele>2440.485381</ele>
        <time>2026-09-12T07:50:10.611Z</time>
      </trkpt>
      <trkpt lat="46.144691" lon="7.603019">
        <ele>2439.146665</ele>
        <time>2026-09-12T07:50:15.774Z</time>
      </trkpt>
      <trkpt lat="46.144680" lon="7.603278">
        <ele>2437.969977</ele>
        <time>2026-09-12T07:50:21.334Z</time>
      </trkpt>
      <trkpt lat="46.144419" lon="7.603120">
        <ele>2436.117544</ele>
        <time>2026-09-12T07:50:30.356Z</time>
      </trkpt>
      <trkpt lat="46.144053" lon="7.603061">
        <ele>2433.707154</ele>
        <time>2026-09-12T07:50:42.377Z</time>
      </trkpt>
      <trkpt lat="46.143638" lon="7.602803">
        <ele>2430.749691</ele>
        <time>2026-09-12T07:50:57.423Z</time>
      </trkpt>
      <trkpt lat="46.143287" lon="7.602728">
        <ele>2428.427333</ele>
        <time>2026-09-12T07:51:09.260Z</time>
      </trkpt>
      <trkpt lat="46.143004" lon="7.602492">
        <ele>2426.931183</ele>
        <time>2026-09-12T07:51:19.881Z</time>
      </trkpt>
      <trkpt lat="46.142857" lon="7.602438">
        <ele>2426.257111</ele>
        <time>2026-09-12T07:51:24.818Z</time>
      </trkpt>
      <trkpt lat="46.142729" lon="7.602531">
        <ele>2425.620291</ele>
        <time>2026-09-12T07:51:29.514Z</time>
      </trkpt>
      <trkpt lat="46.142494" lon="7.602817">
        <ele>2424.254271</ele>
        <time>2026-09-12T07:51:39.900Z</time>
      </trkpt>
      <trkpt lat="46.142211" lon="7.602901">
        <ele>2422.970344</ele>
        <time>2026-09-12T07:51:49.782Z</time>
      </trkpt>
      <trkpt lat="46.141974" lon="7.603134">
        <ele>2421.696024</ele>
        <time>2026-09-12T07:51:59.451Z</time>
      </trkpt>
      <trkpt lat="46.141743" lon="7.603027">
        <ele>2420.617924</ele>
        <time>2026-09-12T07:52:07.537Z</time>
      </trkpt>
      <trkpt lat="46.141646" lon="7.603038">
        <ele>2420.277742</ele>
        <time>2026-09-12T07:52:10.774Z</time>
      </trkpt>
      <trkpt lat="46.141457" lon="7.602942">
        <ele>2420.115500</ele>
        <time>2026-09-12T07:52:18.690Z</time>
      </trkpt>
      <trkpt lat="46.140899" lon="7.603854">
        <ele>2419.432879</ele>
        <time>2026-09-12T07:52:54.237Z</time>
      </trkpt>
      <trkpt lat="46.140704" lon="7.603928">
        <ele>2419.269613</ele>
        <time>2026-09-12T07:53:03.264Z</time>
      </trkpt>
      <trkpt lat="46.140070" lon="7.603635">
        <ele>2419.064203</ele>
        <time>2026-09-12T07:53:34.583Z</time>
      </trkpt>
      <trkpt lat="46.139235" lon="7.603915">
        <ele>2420.450968</ele>
        <time>2026-09-12T07:54:15.927Z</time>
      </trkpt>
      <trkpt lat="46.138539" lon="7.603833">
        <ele>2421.580635</ele>
        <time>2026-09-12T07:54:47.032Z</time>
      </trkpt>
      <trkpt lat="46.138465" lon="7.603809">
        <ele>2421.703331</ele>
        <time>2026-09-12T07:54:50.354Z</time>
      </trkpt>
      <trkpt lat="46.138371" lon="7.603715">
        <ele>2422.005741</ele>
        <time>2026-09-12T07:54:55.658Z</time>
      </trkpt>
      <trkpt lat="46.138320" lon="7.603721">
        <ele>2422.159557</ele>
        <time>2026-09-12T07:54:58.298Z</time>
      </trkpt>
      <trkpt lat="46.138216" lon="7.603638">
        <ele>2422.516801</ele>
        <time>2026-09-12T07:55:04.800Z</time>
      </trkpt>
      <trkpt lat="46.138151" lon="7.603347">
        <ele>2423.153651</ele>
        <time>2026-09-12T07:55:16.468Z</time>
      </trkpt>
      <trkpt lat="46.138043" lon="7.603015">
        <ele>2423.917601</ele>
        <time>2026-09-12T07:55:31.420Z</time>
      </trkpt>
      <trkpt lat="46.138033" lon="7.602004">
        <ele>2426.023670</ele>
        <time>2026-09-12T07:56:17.231Z</time>
      </trkpt>
      <trkpt lat="46.138008" lon="7.601910">
        <ele>2426.233393</ele>
        <time>2026-09-12T07:56:21.787Z</time>
      </trkpt>
      <trkpt lat="46.137945" lon="7.601854">
        <ele>2426.455813</ele>
        <time>2026-09-12T07:56:26.581Z</time>
      </trkpt>
      <trkpt lat="46.137872" lon="7.601596">
        <ele>2427.036290</ele>
        <time>2026-09-12T07:56:38.404Z</time>
      </trkpt>
      <trkpt lat="46.137794" lon="7.601457">
        <ele>2426.503376</ele>
        <time>2026-09-12T07:56:45.461Z</time>
      </trkpt>
      <trkpt lat="46.137730" lon="7.601411">
        <ele>2425.941621</ele>
        <time>2026-09-12T07:56:49.318Z</time>
      </trkpt>
      <trkpt lat="46.137746" lon="7.601455">
        <ele>2425.671092</ele>
        <time>2026-09-12T07:56:51.116Z</time>
      </trkpt>
      <trkpt lat="46.137733" lon="7.601588">
        <ele>2424.939836</ele>
        <time>2026-09-12T07:56:55.866Z</time>
      </trkpt>
      <trkpt lat="46.137664" lon="7.601441">
        <ele>2423.973196</ele>
        <time>2026-09-12T07:57:01.951Z</time>
      </trkpt>
      <trkpt lat="46.137627" lon="7.601437">
        <ele>2423.681675</ele>
        <time>2026-09-12T07:57:03.734Z</time>
      </trkpt>
      <trkpt lat="46.137430" lon="7.601645">
        <ele>2421.763845</ele>
        <time>2026-09-12T07:57:14.968Z</time>
      </trkpt>
      <trkpt lat="46.137380" lon="7.601733">
        <ele>2421.144278</ele>
        <time>2026-09-12T07:57:18.441Z</time>
      </trkpt>
      <trkpt lat="46.137356" lon="7.601844">
        <ele>2420.511225</ele>
        <time>2026-09-12T07:57:21.895Z</time>
      </trkpt>
      <trkpt lat="46.137280" lon="7.601935">
        <ele>2419.735331</ele>
        <time>2026-09-12T07:57:26.025Z</time>
      </trkpt>
      <trkpt lat="46.137167" lon="7.601983">
        <ele>2418.809839</ele>
        <time>2026-09-12T07:57:30.849Z</time>
      </trkpt>
      <trkpt lat="46.136946" lon="7.602313">
        <ele>2416.311263</ele>
        <time>2026-09-12T07:57:43.723Z</time>
      </trkpt>
      <trkpt lat="46.136810" lon="7.602419">
        <ele>2415.096840</ele>
        <time>2026-09-12T07:57:49.976Z</time>
      </trkpt>
      <trkpt lat="46.136740" lon="7.602715">
        <ele>2413.394044</ele>
        <time>2026-09-12T07:57:58.698Z</time>
      </trkpt>
      <trkpt lat="46.136596" lon="7.602977">
        <ele>2411.376011</ele>
        <time>2026-09-12T07:58:08.024Z</time>
      </trkpt>
      <trkpt lat="46.136500" lon="7.603068">
        <ele>2410.351000</ele>
        <time>2026-09-12T07:58:12.634Z</time>
      </trkpt>
      <trkpt lat="46.136443" lon="7.603245">
        <ele>2409.144014</ele>
        <time>2026-09-12T07:58:18.129Z</time>
      </trkpt>
      <trkpt lat="46.136276" lon="7.603608">
        <ele>2406.449548</ele>
        <time>2026-09-12T07:58:30.377Z</time>
      </trkpt>
      <trkpt lat="46.136214" lon="7.603918">
        <ele>2404.454264</ele>
        <time>2026-09-12T07:58:39.700Z</time>
      </trkpt>
      <trkpt lat="46.136106" lon="7.603987">
        <ele>2403.400223</ele>
        <time>2026-09-12T07:58:44.772Z</time>
      </trkpt>
      <trkpt lat="46.135896" lon="7.604347">
        <ele>2400.490184</ele>
        <time>2026-09-12T07:58:59.496Z</time>
      </trkpt>
      <trkpt lat="46.135818" lon="7.604393">
        <ele>2399.738215</ele>
        <time>2026-09-12T07:59:03.471Z</time>
      </trkpt>
      <trkpt lat="46.135752" lon="7.604472">
        <ele>2398.972979</ele>
        <time>2026-09-12T07:59:07.576Z</time>
      </trkpt>
      <trkpt lat="46.135463" lon="7.604894">
        <ele>2397.153219</ele>
        <time>2026-09-12T07:59:27.964Z</time>
      </trkpt>
      <trkpt lat="46.135302" lon="7.605041">
        <ele>2397.334454</ele>
        <time>2026-09-12T07:59:37.714Z</time>
      </trkpt>
      <trkpt lat="46.135241" lon="7.605036">
        <ele>2397.392574</ele>
        <time>2026-09-12T07:59:40.872Z</time>
      </trkpt>
      <trkpt lat="46.135132" lon="7.605156">
        <ele>2397.522991</ele>
        <time>2026-09-12T07:59:48.024Z</time>
      </trkpt>
      <trkpt lat="46.134839" lon="7.605357">
        <ele>2397.831603</ele>
        <time>2026-09-12T08:00:05.182Z</time>
      </trkpt>
      <trkpt lat="46.134700" lon="7.605574">
        <ele>2398.026400</ele>
        <time>2026-09-12T08:00:16.165Z</time>
      </trkpt>
      <trkpt lat="46.134595" lon="7.605651">
        <ele>2398.138440</ele>
        <time>2026-09-12T08:00:22.594Z</time>
      </trkpt>
      <trkpt lat="46.134462" lon="7.605992">
        <ele>2398.396386</ele>
        <time>2026-09-12T08:00:37.685Z</time>
      </trkpt>
      <trkpt lat="46.134402" lon="7.606051">
        <ele>2398.465454</ele>
        <time>2026-09-12T08:00:41.846Z</time>
      </trkpt>
      <trkpt lat="46.134152" lon="7.606190">
        <ele>2399.005368</ele>
        <time>2026-09-12T08:00:57.644Z</time>
      </trkpt>
      <trkpt lat="46.133932" lon="7.606433">
        <ele>2401.463132</ele>
        <time>2026-09-12T08:01:15.132Z</time>
      </trkpt>
      <trkpt lat="46.133827" lon="7.606447">
        <ele>2402.398578</ele>
        <time>2026-09-12T08:01:22.186Z</time>
      </trkpt>
      <trkpt lat="46.133582" lon="7.606652">
        <ele>2404.910972</ele>
        <time>2026-09-12T08:01:42.346Z</time>
      </trkpt>
      <trkpt lat="46.133559" lon="7.606672">
        <ele>2405.149191</ele>
        <time>2026-09-12T08:01:44.389Z</time>
      </trkpt>
      <trkpt lat="46.133309" lon="7.606780">
        <ele>2407.464247</ele>
        <time>2026-09-12T08:02:05.127Z</time>
      </trkpt>
      <trkpt lat="46.133181" lon="7.606950">
        <ele>2409.007498</ele>
        <time>2026-09-12T08:02:20.265Z</time>
      </trkpt>
      <trkpt lat="46.133073" lon="7.607012">
        <ele>2410.038623</ele>
        <time>2026-09-12T08:02:30.667Z</time>
      </trkpt>
      <trkpt lat="46.133012" lon="7.607146">
        <ele>2411.024248</ele>
        <time>2026-09-12T08:02:40.764Z</time>
      </trkpt>
      <trkpt lat="46.132864" lon="7.607321">
        <ele>2412.721671</ele>
        <time>2026-09-12T08:02:58.361Z</time>
      </trkpt>
      <trkpt lat="46.132684" lon="7.607435">
        <ele>2414.465519</ele>
        <time>2026-09-12T08:03:16.634Z</time>
      </trkpt>
      <trkpt lat="46.132610" lon="7.607508">
        <ele>2415.460916</ele>
        <time>2026-09-12T08:03:25.027Z</time>
      </trkpt>
      <trkpt lat="46.132564" lon="7.607606">
        <ele>2416.424112</ele>
        <time>2026-09-12T08:03:32.667Z</time>
      </trkpt>
      <trkpt lat="46.132431" lon="7.607695">
        <ele>2418.145637</ele>
        <time>2026-09-12T08:03:46.310Z</time>
      </trkpt>
      <trkpt lat="46.132325" lon="7.607865">
        <ele>2420.006573</ele>
        <time>2026-09-12T08:04:01.050Z</time>
      </trkpt>
      <trkpt lat="46.132156" lon="7.607916">
        <ele>2422.034008</ele>
        <time>2026-09-12T08:04:16.956Z</time>
      </trkpt>
      <trkpt lat="46.132101" lon="7.608005">
        <ele>2423.004394</ele>
        <time>2026-09-12T08:04:24.486Z</time>
      </trkpt>
      <trkpt lat="46.131890" lon="7.608186">
        <ele>2425.886828</ele>
        <time>2026-09-12T08:04:46.719Z</time>
      </trkpt>
      <trkpt lat="46.131590" lon="7.608234">
        <ele>2429.431204</ele>
        <time>2026-09-12T08:05:13.616Z</time>
      </trkpt>
      <trkpt lat="46.131377" lon="7.608152">
        <ele>2432.019867</ele>
        <time>2026-09-12T08:05:33.226Z</time>
      </trkpt>
      <trkpt lat="46.131230" lon="7.608212">
        <ele>2433.813759</ele>
        <time>2026-09-12T08:05:46.731Z</time>
      </trkpt>
      <trkpt lat="46.131078" lon="7.608152">
        <ele>2435.664217</ele>
        <time>2026-09-12T08:06:00.599Z</time>
      </trkpt>
      <trkpt lat="46.131006" lon="7.608174">
        <ele>2436.509488</ele>
        <time>2026-09-12T08:06:07.099Z</time>
      </trkpt>
      <trkpt lat="46.130615" lon="7.607948">
        <ele>2441.333083</ele>
        <time>2026-09-12T08:06:42.247Z</time>
      </trkpt>
      <trkpt lat="46.130604" lon="7.607919">
        <ele>2441.595457</ele>
        <time>2026-09-12T08:06:44.165Z</time>
      </trkpt>
      <trkpt lat="46.130487" lon="7.607908">
        <ele>2442.938179</ele>
        <time>2026-09-12T08:06:53.777Z</time>
      </trkpt>
      <trkpt lat="46.130265" lon="7.607736">
        <ele>2445.823815</ele>
        <time>2026-09-12T08:07:14.754Z</time>
      </trkpt>
      <trkpt lat="46.130049" lon="7.607623">
        <ele>2448.454996</ele>
        <time>2026-09-12T08:07:34.280Z</time>
      </trkpt>
      <trkpt lat="46.129914" lon="7.607588">
        <ele>2450.025769</ele>
        <time>2026-09-12T08:07:46.325Z</time>
      </trkpt>
      <trkpt lat="46.129849" lon="7.607382">
        <ele>2451.822173</ele>
        <time>2026-09-12T08:08:00.506Z</time>
      </trkpt>
      <trkpt lat="46.129737" lon="7.607439">
        <ele>2453.182234</ele>
        <time>2026-09-12T08:08:11.632Z</time>
      </trkpt>
      <trkpt lat="46.129638" lon="7.607391">
        <ele>2454.378271</ele>
        <time>2026-09-12T08:08:21.609Z</time>
      </trkpt>
      <trkpt lat="46.129560" lon="7.607436">
        <ele>2455.340276</ele>
        <time>2026-09-12T08:08:29.907Z</time>
      </trkpt>
      <trkpt lat="46.129510" lon="7.607424">
        <ele>2455.920741</ele>
        <time>2026-09-12T08:08:34.951Z</time>
      </trkpt>
      <trkpt lat="46.129389" lon="7.607498">
        <ele>2457.650225</ele>
        <time>2026-09-12T08:08:47.961Z</time>
      </trkpt>
      <trkpt lat="46.129303" lon="7.607474">
        <ele>2458.864832</ele>
        <time>2026-09-12T08:08:56.489Z</time>
      </trkpt>
      <trkpt lat="46.129264" lon="7.607520">
        <ele>2459.563305</ele>
        <time>2026-09-12T08:09:01.443Z</time>
      </trkpt>
      <trkpt lat="46.129236" lon="7.607515">
        <ele>2459.954526</ele>
        <time>2026-09-12T08:09:04.084Z</time>
      </trkpt>
      <trkpt lat="46.129022" lon="7.607371">
        <ele>2463.228738</ele>
        <time>2026-09-12T08:09:26.548Z</time>
      </trkpt>
      <trkpt lat="46.128920" lon="7.607276">
        <ele>2464.912160</ele>
        <time>2026-09-12T08:09:37.969Z</time>
      </trkpt>
      <trkpt lat="46.128909" lon="7.607229">
        <ele>2465.388887</ele>
        <time>2026-09-12T08:09:41.203Z</time>
      </trkpt>
      <trkpt lat="46.128772" lon="7.607154">
        <ele>2467.420712</ele>
        <time>2026-09-12T08:09:54.876Z</time>
      </trkpt>
      <trkpt lat="46.128689" lon="7.606830">
        <ele>2470.740241</ele>
        <time>2026-09-12T08:10:17.188Z</time>
      </trkpt>
      <trkpt lat="46.128600" lon="7.606773">
        <ele>2472.090453</ele>
        <time>2026-09-12T08:10:26.295Z</time>
      </trkpt>
      <trkpt lat="46.128541" lon="7.606693">
        <ele>2473.213114</ele>
        <time>2026-09-12T08:10:33.961Z</time>
      </trkpt>
      <trkpt lat="46.128226" lon="7.607232">
        <ele>2479.988732</ele>
        <time>2026-09-12T08:11:21.484Z</time>
      </trkpt>
      <trkpt lat="46.128053" lon="7.607454">
        <ele>2483.869254</ele>
        <time>2026-09-12T08:11:45.736Z</time>
      </trkpt>
      <trkpt lat="46.127976" lon="7.607452">
        <ele>2485.314348</ele>
        <time>2026-09-12T08:11:53.874Z</time>
      </trkpt>
      <trkpt lat="46.127877" lon="7.607610">
        <ele>2488.084351</ele>
        <time>2026-09-12T08:12:09.856Z</time>
      </trkpt>
      <trkpt lat="46.127394" lon="7.607678">
        <ele>2497.190603</ele>
        <time>2026-09-12T08:13:06.744Z</time>
      </trkpt>
      <trkpt lat="46.127048" lon="7.607581">
        <ele>2503.804504</ele>
        <time>2026-09-12T08:13:53.964Z</time>
      </trkpt>
      <trkpt lat="46.126882" lon="7.607427">
        <ele>2507.507690</ele>
        <time>2026-09-12T08:14:21.543Z</time>
      </trkpt>
      <trkpt lat="46.126748" lon="7.607374">
        <ele>2510.114881</ele>
        <time>2026-09-12T08:14:40.955Z</time>
      </trkpt>
      <trkpt lat="46.126248" lon="7.607453">
        <ele>2517.164935</ele>
        <time>2026-09-12T08:15:43.905Z</time>
      </trkpt>
      <trkpt lat="46.125836" lon="7.607823">
        <ele>2521.439311</ele>
        <time>2026-09-12T08:16:30.637Z</time>
      </trkpt>
      <trkpt lat="46.125776" lon="7.608051">
        <ele>2522.928106</ele>
        <time>2026-09-12T08:16:43.070Z</time>
      </trkpt>
      <trkpt lat="46.125191" lon="7.608715">
        <ele>2529.484032</ele>
        <time>2026-09-12T08:17:25.372Z</time>
      </trkpt>
      <trkpt lat="46.125136" lon="7.608892">
        <ele>2530.668179</ele>
        <time>2026-09-12T08:17:32.306Z</time>
      </trkpt>
      <trkpt lat="46.124977" lon="7.609104">
        <ele>2532.041099</ele>
        <time>2026-09-12T08:17:43.589Z</time>
      </trkpt>
      <trkpt lat="46.124871" lon="7.609334">
        <ele>2533.191508</ele>
        <time>2026-09-12T08:17:54.078Z</time>
      </trkpt>
      <trkpt lat="46.124320" lon="7.609675">
        <ele>2536.794424</ele>
        <time>2026-09-12T08:18:31.971Z</time>
      </trkpt>
      <trkpt lat="46.124174" lon="7.609705">
        <ele>2537.680645</ele>
        <time>2026-09-12T08:18:42.751Z</time>
      </trkpt>
      <trkpt lat="46.123803" lon="7.609593">
        <ele>2539.958403</ele>
        <time>2026-09-12T08:19:13.387Z</time>
      </trkpt>
      <trkpt lat="46.123658" lon="7.609688">
        <ele>2540.915395</ele>
        <time>2026-09-12T08:19:26.798Z</time>
      </trkpt>
      <trkpt lat="46.123018" lon="7.609597">
        <ele>2545.891285</ele>
        <time>2026-09-12T08:20:18.629Z</time>
      </trkpt>
      <trkpt lat="46.122799" lon="7.609962">
        <ele>2548.628320</ele>
        <time>2026-09-12T08:20:43.746Z</time>
      </trkpt>
      <trkpt lat="46.122607" lon="7.610027">
        <ele>2550.241499</ele>
        <time>2026-09-12T08:20:58.117Z</time>
      </trkpt>
      <trkpt lat="46.122592" lon="7.610160">
        <ele>2551.005468</ele>
        <time>2026-09-12T08:21:04.843Z</time>
      </trkpt>
      <trkpt lat="46.122367" lon="7.610492">
        <ele>2553.638019</ele>
        <time>2026-09-12T08:21:28.374Z</time>
      </trkpt>
      <trkpt lat="46.122097" lon="7.610709">
        <ele>2556.166126</ele>
        <time>2026-09-12T08:21:50.139Z</time>
      </trkpt>
      <trkpt lat="46.121936" lon="7.610680">
        <ele>2556.810139</ele>
        <time>2026-09-12T08:22:01.328Z</time>
      </trkpt>
      <trkpt lat="46.121854" lon="7.610727">
        <ele>2557.074291</ele>
        <time>2026-09-12T08:22:07.392Z</time>
      </trkpt>
      <trkpt lat="46.121672" lon="7.610757">
        <ele>2557.622699</ele>
        <time>2026-09-12T08:22:19.565Z</time>
      </trkpt>
      <trkpt lat="46.121496" lon="7.610888">
        <ele>2558.215590</ele>
        <time>2026-09-12T08:22:32.385Z</time>
      </trkpt>
      <trkpt lat="46.121480" lon="7.611031">
        <ele>2558.516166</ele>
        <time>2026-09-12T08:22:38.764Z</time>
      </trkpt>
      <trkpt lat="46.121353" lon="7.611015">
        <ele>2558.897820</ele>
        <time>2026-09-12T08:22:46.593Z</time>
      </trkpt>
      <trkpt lat="46.121181" lon="7.611331">
        <ele>2559.731561</ele>
        <time>2026-09-12T08:23:02.658Z</time>
      </trkpt>
      <trkpt lat="46.121052" lon="7.611811">
        <ele>2560.799850</ele>
        <time>2026-09-12T08:23:21.509Z</time>
      </trkpt>
      <trkpt lat="46.120916" lon="7.611948">
        <ele>2561.296429</ele>
        <time>2026-09-12T08:23:29.795Z</time>
      </trkpt>
      <trkpt lat="46.120813" lon="7.612673">
        <ele>2562.659603</ele>
        <time>2026-09-12T08:23:55.344Z</time>
      </trkpt>
      <trkpt lat="46.120710" lon="7.612783">
        <ele>2562.979089</ele>
        <time>2026-09-12T08:24:01.887Z</time>
      </trkpt>
      <trkpt lat="46.120659" lon="7.613015">
        <ele>2563.399675</ele>
        <time>2026-09-12T08:24:10.670Z</time>
      </trkpt>
      <trkpt lat="46.120501" lon="7.613279">
        <ele>2564.002404</ele>
        <time>2026-09-12T08:24:23.923Z</time>
      </trkpt>
      <trkpt lat="46.120309" lon="7.613322">
        <ele>2564.486806</ele>
        <time>2026-09-12T08:24:35.486Z</time>
      </trkpt>
      <trkpt lat="46.120015" lon="7.613516">
        <ele>2565.292795</ele>
        <time>2026-09-12T08:24:56.501Z</time>
      </trkpt>
      <trkpt lat="46.119821" lon="7.613517">
        <ele>2565.776453</ele>
        <time>2026-09-12T08:25:09.935Z</time>
      </trkpt>
      <trkpt lat="46.119496" lon="7.613657">
        <ele>2566.216830</ele>
        <time>2026-09-12T08:25:32.772Z</time>
      </trkpt>
      <trkpt lat="46.119404" lon="7.613815">
        <ele>2566.145209</ele>
        <time>2026-09-12T08:25:42.037Z</time>
      </trkpt>
      <trkpt lat="46.119018" lon="7.614138">
        <ele>2565.921768</ele>
        <time>2026-09-12T08:26:07.193Z</time>
      </trkpt>
      <trkpt lat="46.118858" lon="7.614102">
        <ele>2565.840683</ele>
        <time>2026-09-12T08:26:15.290Z</time>
      </trkpt>
      <trkpt lat="46.118753" lon="7.614212">
        <ele>2565.775706</ele>
        <time>2026-09-12T08:26:21.517Z</time>
      </trkpt>
      <trkpt lat="46.118628" lon="7.614227">
        <ele>2565.712899</ele>
        <time>2026-09-12T08:26:27.430Z</time>
      </trkpt>
      <trkpt lat="46.118455" lon="7.614533">
        <ele>2565.575842</ele>
        <time>2026-09-12T08:26:40.088Z</time>
      </trkpt>
      <trkpt lat="46.118257" lon="7.614588">
        <ele>2565.474877</ele>
        <time>2026-09-12T08:26:49.333Z</time>
      </trkpt>
      <trkpt lat="46.117857" lon="7.614792">
        <ele>2566.482325</ele>
        <time>2026-09-12T08:27:09.007Z</time>
      </trkpt>
      <trkpt lat="46.117756" lon="7.614791">
        <ele>2566.939389</ele>
        <time>2026-09-12T08:27:13.861Z</time>
      </trkpt>
      <trkpt lat="46.117608" lon="7.614872">
        <ele>2567.655708</ele>
        <time>2026-09-12T08:27:21.584Z</time>
      </trkpt>
      <trkpt lat="46.117548" lon="7.614875">
        <ele>2567.927388</ele>
        <time>2026-09-12T08:27:24.606Z</time>
      </trkpt>
      <trkpt lat="46.117452" lon="7.614806">
        <ele>2568.412748</ele>
        <time>2026-09-12T08:27:30.099Z</time>
      </trkpt>
      <trkpt lat="46.116808" lon="7.614734">
        <ele>2571.335770</ele>
        <time>2026-09-12T08:28:11.706Z</time>
      </trkpt>
      <trkpt lat="46.116663" lon="7.614655">
        <ele>2572.037173</ele>
        <time>2026-09-12T08:28:25.402Z</time>
      </trkpt>
      <trkpt lat="46.116617" lon="7.614588">
        <ele>2572.332983</ele>
        <time>2026-09-12T08:28:31.433Z</time>
      </trkpt>
      <trkpt lat="46.116588" lon="7.614592">
        <ele>2572.464815</ele>
        <time>2026-09-12T08:28:34.167Z</time>
      </trkpt>
      <trkpt lat="46.116599" lon="7.614636">
        <ele>2572.611541</ele>
        <time>2026-09-12T08:28:37.188Z</time>
      </trkpt>
      <trkpt lat="46.116569" lon="7.614647">
        <ele>2572.751616</ele>
        <time>2026-09-12T08:28:40.185Z</time>
      </trkpt>
      <trkpt lat="46.116534" lon="7.614762">
        <ele>2573.145597</ele>
        <time>2026-09-12T08:28:48.645Z</time>
      </trkpt>
      <trkpt lat="46.116400" lon="7.614793">
        <ele>2573.910342</ele>
        <time>2026-09-12T08:29:02.236Z</time>
      </trkpt>
      <trkpt lat="46.116247" lon="7.614891">
        <ele>2575.150541</ele>
        <time>2026-09-12T08:29:19.695Z</time>
      </trkpt>
      <trkpt lat="46.115848" lon="7.614553">
        <ele>2578.578482</ele>
        <time>2026-09-12T08:30:07.346Z</time>
      </trkpt>
      <trkpt lat="46.115713" lon="7.614492">
        <ele>2579.626536</ele>
        <time>2026-09-12T08:30:20.887Z</time>
      </trkpt>
      <trkpt lat="46.115197" lon="7.614937">
        <ele>2584.080322</ele>
        <time>2026-09-12T08:31:05.859Z</time>
      </trkpt>
      <trkpt lat="46.115092" lon="7.614933">
        <ele>2584.858480</ele>
        <time>2026-09-12T08:31:11.479Z</time>
      </trkpt>
      <trkpt lat="46.114993" lon="7.615101">
        <ele>2585.990878</ele>
        <time>2026-09-12T08:31:19.043Z</time>
      </trkpt>
      <trkpt lat="46.114780" lon="7.615221">
        <ele>2585.684022</ele>
        <time>2026-09-12T08:31:29.453Z</time>
      </trkpt>
      <trkpt lat="46.114733" lon="7.615524">
        <ele>2583.464164</ele>
        <time>2026-09-12T08:31:38.538Z</time>
      </trkpt>
      <trkpt lat="46.114671" lon="7.615746">
        <ele>2581.753016</ele>
        <time>2026-09-12T08:31:45.285Z</time>
      </trkpt>
      <trkpt lat="46.114692" lon="7.615781">
        <ele>2581.422072</ele>
        <time>2026-09-12T08:31:46.598Z</time>
      </trkpt>
      <trkpt lat="46.114637" lon="7.615854">
        <ele>2580.651258</ele>
        <time>2026-09-12T08:31:49.609Z</time>
      </trkpt>
      <trkpt lat="46.114624" lon="7.615938">
        <ele>2580.035917</ele>
        <time>2026-09-12T08:31:52.032Z</time>
      </trkpt>
      <trkpt lat="46.114586" lon="7.615988">
        <ele>2579.505462</ele>
        <time>2026-09-12T08:31:54.111Z</time>
      </trkpt>
      <trkpt lat="46.114501" lon="7.616241">
        <ele>2577.495402</ele>
        <time>2026-09-12T08:32:01.948Z</time>
      </trkpt>
      <trkpt lat="46.114392" lon="7.616373">
        <ele>2576.027618</ele>
        <time>2026-09-12T08:32:07.677Z</time>
      </trkpt>
      <trkpt lat="46.114287" lon="7.616608">
        <ele>2574.028728</ele>
        <time>2026-09-12T08:32:15.522Z</time>
      </trkpt>
      <trkpt lat="46.114239" lon="7.616664">
        <ele>2573.392041</ele>
        <time>2026-09-12T08:32:17.986Z</time>
      </trkpt>
      <trkpt lat="46.114168" lon="7.616885">
        <ele>2571.650562</ele>
        <time>2026-09-12T08:32:24.867Z</time>
      </trkpt>
      <trkpt lat="46.113852" lon="7.617164">
        <ele>2567.832413</ele>
        <time>2026-09-12T08:32:40.170Z</time>
      </trkpt>
      <trkpt lat="46.113805" lon="7.617257">
        <ele>2567.014653</ele>
        <time>2026-09-12T08:32:43.604Z</time>
      </trkpt>
      <trkpt lat="46.113608" lon="7.617401">
        <ele>2564.751015</ele>
        <time>2026-09-12T08:32:53.399Z</time>
      </trkpt>
      <trkpt lat="46.113408" lon="7.617658">
        <ele>2562.005670</ele>
        <time>2026-09-12T08:33:05.504Z</time>
      </trkpt>
      <trkpt lat="46.113325" lon="7.617694">
        <ele>2561.117318</ele>
        <time>2026-09-12T08:33:09.405Z</time>
      </trkpt>
      <trkpt lat="46.112988" lon="7.618044">
        <ele>2556.861029</ele>
        <time>2026-09-12T08:33:27.723Z</time>
      </trkpt>
      <trkpt lat="46.112938" lon="7.618040">
        <ele>2556.347754</ele>
        <time>2026-09-12T08:33:29.877Z</time>
      </trkpt>
      <trkpt lat="46.112745" lon="7.618279">
        <ele>2553.740605</ele>
        <time>2026-09-12T08:33:40.455Z</time>
      </trkpt>
      <trkpt lat="46.112736" lon="7.618346">
        <ele>2553.255679</ele>
        <time>2026-09-12T08:33:42.361Z</time>
      </trkpt>
      <trkpt lat="46.112390" lon="7.618898">
        <ele>2545.882665</ele>
        <time>2026-09-12T08:34:03.183Z</time>
      </trkpt>
      <trkpt lat="46.112325" lon="7.618959">
        <ele>2544.213158</ele>
        <time>2026-09-12T08:34:06.283Z</time>
      </trkpt>
      <trkpt lat="46.112159" lon="7.619355">
        <ele>2537.306247</ele>
        <time>2026-09-12T08:34:19.088Z</time>
      </trkpt>
      <trkpt lat="46.111711" lon="7.619762">
        <ele>2525.907542</ele>
        <time>2026-09-12T08:34:40.484Z</time>
      </trkpt>
      <trkpt lat="46.111659" lon="7.619876">
        <ele>2523.870772</ele>
        <time>2026-09-12T08:34:44.379Z</time>
      </trkpt>
      <trkpt lat="46.111357" lon="7.620250">
        <ele>2515.301376</ele>
        <time>2026-09-12T08:35:00.629Z</time>
      </trkpt>
      <trkpt lat="46.111255" lon="7.620414">
        <ele>2512.012902</ele>
        <time>2026-09-12T08:35:06.900Z</time>
      </trkpt>
      <trkpt lat="46.111110" lon="7.620545">
        <ele>2507.982011</ele>
        <time>2026-09-12T08:35:13.879Z</time>
      </trkpt>
      <trkpt lat="46.110665" lon="7.620790">
        <ele>2496.459383</ele>
        <time>2026-09-12T08:35:33.318Z</time>
      </trkpt>
      <trkpt lat="46.110470" lon="7.620848">
        <ele>2491.642835</ele>
        <time>2026-09-12T08:35:41.412Z</time>
      </trkpt>
      <trkpt lat="46.110342" lon="7.621029">
        <ele>2487.306600</ele>
        <time>2026-09-12T08:35:48.756Z</time>
      </trkpt>
      <trkpt lat="46.110083" lon="7.621143">
        <ele>2480.755837</ele>
        <time>2026-09-12T08:35:59.833Z</time>
      </trkpt>
      <trkpt lat="46.109525" lon="7.621200">
        <ele>2467.318533</ele>
        <time>2026-09-12T08:36:22.662Z</time>
      </trkpt>
      <trkpt lat="46.109028" lon="7.621096">
        <ele>2458.033585</ele>
        <time>2026-09-12T08:36:42.997Z</time>
      </trkpt>
      <trkpt lat="46.108677" lon="7.621135">
        <ele>2451.524915</ele>
        <time>2026-09-12T08:36:57.010Z</time>
      </trkpt>
      <trkpt lat="46.108534" lon="7.621084">
        <ele>2448.801448</ele>
        <time>2026-09-12T08:37:02.900Z</time>
      </trkpt>
      <trkpt lat="46.108395" lon="7.621080">
        <ele>2446.231043</ele>
        <time>2026-09-12T08:37:08.451Z</time>
      </trkpt>
      <trkpt lat="46.108359" lon="7.621039">
        <ele>2445.382992</ele>
        <time>2026-09-12T08:37:10.308Z</time>
      </trkpt>
      <trkpt lat="46.108224" lon="7.621060">
        <ele>2442.872579</ele>
        <time>2026-09-12T08:37:15.762Z</time>
      </trkpt>
      <trkpt lat="46.107937" lon="7.620975">
        <ele>2437.455692</ele>
        <time>2026-09-12T08:37:27.604Z</time>
      </trkpt>
      <trkpt lat="46.107539" lon="7.620977">
        <ele>2433.366511</ele>
        <time>2026-09-12T08:37:43.920Z</time>
      </trkpt>
      <trkpt lat="46.106875" lon="7.620570">
        <ele>2430.226115</ele>
        <time>2026-09-12T08:38:17.328Z</time>
      </trkpt>
      <trkpt lat="46.106485" lon="7.620392">
        <ele>2428.445570</ele>
        <time>2026-09-12T08:38:38.256Z</time>
      </trkpt>
      <trkpt lat="46.106194" lon="7.619946">
        <ele>2426.597313</ele>
        <time>2026-09-12T08:39:00.538Z</time>
      </trkpt>
      <trkpt lat="46.105691" lon="7.619774">
        <ele>2421.729880</ele>
        <time>2026-09-12T08:39:27.152Z</time>
      </trkpt>
      <trkpt lat="46.104976" lon="7.619309">
        <ele>2414.248692</ele>
        <time>2026-09-12T08:40:01.520Z</time>
      </trkpt>
      <trkpt lat="46.104825" lon="7.619274">
        <ele>2412.789918</ele>
        <time>2026-09-12T08:40:07.667Z</time>
      </trkpt>
      <trkpt lat="46.104538" lon="7.619896">
        <ele>2404.239222</ele>
        <time>2026-09-12T08:40:28.320Z</time>
      </trkpt>
      <trkpt lat="46.104414" lon="7.620371">
        <ele>2393.011187</ele>
        <time>2026-09-12T08:40:43.334Z</time>
      </trkpt>
      <trkpt lat="46.104436" lon="7.620572">
        <ele>2388.509617</ele>
        <time>2026-09-12T08:40:49.698Z</time>
      </trkpt>
      <trkpt lat="46.104526" lon="7.620755">
        <ele>2383.546296</ele>
        <time>2026-09-12T08:40:56.902Z</time>
      </trkpt>
      <trkpt lat="46.104509" lon="7.621631">
        <ele>2364.159933</ele>
        <time>2026-09-12T08:41:26.181Z</time>
      </trkpt>
      <trkpt lat="46.104538" lon="7.621874">
        <ele>2358.705264</ele>
        <time>2026-09-12T08:41:34.635Z</time>
      </trkpt>
      <trkpt lat="46.104501" lon="7.622158">
        <ele>2352.312698</ele>
        <time>2026-09-12T08:41:44.576Z</time>
      </trkpt>
      <trkpt lat="46.104268" lon="7.622547">
        <ele>2339.348840</ele>
        <time>2026-09-12T08:42:02.150Z</time>
      </trkpt>
      <trkpt lat="46.104119" lon="7.623340">
        <ele>2318.557045</ele>
        <time>2026-09-12T08:42:30.106Z</time>
      </trkpt>
      <trkpt lat="46.104119" lon="7.623549">
        <ele>2313.268002</ele>
        <time>2026-09-12T08:42:37.157Z</time>
      </trkpt>
      <trkpt lat="46.103924" lon="7.624178">
        <ele>2295.831521</ele>
        <time>2026-09-12T08:43:00.239Z</time>
      </trkpt>
      <trkpt lat="46.103941" lon="7.624443">
        <ele>2289.096652</ele>
        <time>2026-09-12T08:43:09.022Z</time>
      </trkpt>
      <trkpt lat="46.103902" lon="7.624704">
        <ele>2283.844925</ele>
        <time>2026-09-12T08:43:17.729Z</time>
      </trkpt>
      <trkpt lat="46.103806" lon="7.624966">
        <ele>2279.158584</ele>
        <time>2026-09-12T08:43:27.252Z</time>
      </trkpt>
      <trkpt lat="46.103803" lon="7.625227">
        <ele>2275.030473</ele>
        <time>2026-09-12T08:43:35.425Z</time>
      </trkpt>
      <trkpt lat="46.103868" lon="7.625483">
        <ele>2270.719085</ele>
        <time>2026-09-12T08:43:43.703Z</time>
      </trkpt>
      <trkpt lat="46.104009" lon="7.625625">
        <ele>2266.796653</ele>
        <time>2026-09-12T08:43:50.981Z</time>
      </trkpt>
      <trkpt lat="46.103781" lon="7.626233">
        <ele>2255.865335</ele>
        <time>2026-09-12T08:44:10.081Z</time>
      </trkpt>
      <trkpt lat="46.103674" lon="7.626252">
        <ele>2253.406402</ele>
        <time>2026-09-12T08:44:14.423Z</time>
      </trkpt>
      <trkpt lat="46.103521" lon="7.626259">
        <ele>2249.914950</ele>
        <time>2026-09-12T08:44:20.629Z</time>
      </trkpt>
      <trkpt lat="46.103499" lon="7.626223">
        <ele>2249.156060</ele>
        <time>2026-09-12T08:44:21.979Z</time>
      </trkpt>
      <trkpt lat="46.103417" lon="7.626196">
        <ele>2247.237644</ele>
        <time>2026-09-12T08:44:25.481Z</time>
      </trkpt>
      <trkpt lat="46.103253" lon="7.626276">
        <ele>2245.155345</ele>
        <time>2026-09-12T08:44:32.930Z</time>
      </trkpt>
      <trkpt lat="46.103090" lon="7.626220">
        <ele>2244.831977</ele>
        <time>2026-09-12T08:44:40.524Z</time>
      </trkpt>
      <trkpt lat="46.102870" lon="7.626330">
        <ele>2244.382618</ele>
        <time>2026-09-12T08:44:51.729Z</time>
      </trkpt>
      <trkpt lat="46.102765" lon="7.626413">
        <ele>2244.151543</ele>
        <time>2026-09-12T08:44:57.769Z</time>
      </trkpt>
      <trkpt lat="46.102672" lon="7.626417">
        <ele>2243.971987</ele>
        <time>2026-09-12T08:45:02.571Z</time>
      </trkpt>
      <trkpt lat="46.102605" lon="7.626560">
        <ele>2243.741048</ele>
        <time>2026-09-12T08:45:08.968Z</time>
      </trkpt>
      <trkpt lat="46.102448" lon="7.626663">
        <ele>2243.408186</ele>
        <time>2026-09-12T08:45:18.397Z</time>
      </trkpt>
      <trkpt lat="46.102328" lon="7.626847">
        <ele>2243.070176</ele>
        <time>2026-09-12T08:45:28.149Z</time>
      </trkpt>
      <trkpt lat="46.102242" lon="7.626904">
        <ele>2242.887521</ele>
        <time>2026-09-12T08:45:33.473Z</time>
      </trkpt>
      <trkpt lat="46.102185" lon="7.626901">
        <ele>2242.777446</ele>
        <time>2026-09-12T08:45:36.681Z</time>
      </trkpt>
      <trkpt lat="46.102138" lon="7.627028">
        <ele>2242.584815</ele>
        <time>2026-09-12T08:45:42.302Z</time>
      </trkpt>
      <trkpt lat="46.102060" lon="7.627130">
        <ele>2242.381621</ele>
        <time>2026-09-12T08:45:48.333Z</time>
      </trkpt>
      <trkpt lat="46.102059" lon="7.627312">
        <ele>2242.138077</ele>
        <time>2026-09-12T08:45:55.724Z</time>
      </trkpt>
      <trkpt lat="46.102086" lon="7.627417">
        <ele>2241.988224</ele>
        <time>2026-09-12T08:46:00.144Z</time>
      </trkpt>
      <trkpt lat="46.102047" lon="7.627778">
        <ele>2241.657501</ele>
        <time>2026-09-12T08:46:13.094Z</time>
      </trkpt>
      <trkpt lat="46.101943" lon="7.627916">
        <ele>2241.505464</ele>
        <time>2026-09-12T08:46:20.017Z</time>
      </trkpt>
      <trkpt lat="46.101855" lon="7.628117">
        <ele>2241.328139</ele>
        <time>2026-09-12T08:46:28.073Z</time>
      </trkpt>
      <trkpt lat="46.101586" lon="7.628195">
        <ele>2241.032950</ele>
        <time>2026-09-12T08:46:41.440Z</time>
      </trkpt>
      <trkpt lat="46.101409" lon="7.628187">
        <ele>2240.842435</ele>
        <time>2026-09-12T08:46:50.162Z</time>
      </trkpt>
      <trkpt lat="46.101380" lon="7.628213">
        <ele>2240.805699</ele>
        <time>2026-09-12T08:46:51.877Z</time>
      </trkpt>
      <trkpt lat="46.101297" lon="7.628344">
        <ele>2240.673326</ele>
        <time>2026-09-12T08:46:58.012Z</time>
      </trkpt>
      <trkpt lat="46.101282" lon="7.628598">
        <ele>2240.483165</ele>
        <time>2026-09-12T08:47:06.956Z</time>
      </trkpt>
      <trkpt lat="46.101073" lon="7.628695">
        <ele>2240.246961</ele>
        <time>2026-09-12T08:47:18.234Z</time>
      </trkpt>
      <trkpt lat="46.100556" lon="7.628682">
        <ele>2238.755512</ele>
        <time>2026-09-12T08:47:44.486Z</time>
      </trkpt>
      <trkpt lat="46.100465" lon="7.628718">
        <ele>2238.243095</ele>
        <time>2026-09-12T08:47:49.030Z</time>
      </trkpt>
      <trkpt lat="46.100357" lon="7.628865">
        <ele>2237.436663</ele>
        <time>2026-09-12T08:47:56.186Z</time>
      </trkpt>
      <trkpt lat="46.100302" lon="7.628867">
        <ele>2237.137899</ele>
        <time>2026-09-12T08:47:58.884Z</time>
      </trkpt>
      <trkpt lat="46.100271" lon="7.628904">
        <ele>2236.919384</ele>
        <time>2026-09-12T08:48:00.831Z</time>
      </trkpt>
      <trkpt lat="46.100060" lon="7.628917">
        <ele>2235.772534</ele>
        <time>2026-09-12T08:48:11.367Z</time>
      </trkpt>
      <trkpt lat="46.099949" lon="7.628880">
        <ele>2235.153873</ele>
        <time>2026-09-12T08:48:16.923Z</time>
      </trkpt>
      <trkpt lat="46.099927" lon="7.628904">
        <ele>2235.004075</ele>
        <time>2026-09-12T08:48:18.236Z</time>
      </trkpt>
      <trkpt lat="46.099808" lon="7.628884">
        <ele>2234.353489</ele>
        <time>2026-09-12T08:48:23.895Z</time>
      </trkpt>
      <trkpt lat="46.099634" lon="7.629168">
        <ele>2232.926470</ele>
        <time>2026-09-12T08:48:35.818Z</time>
      </trkpt>
      <trkpt lat="46.099439" lon="7.629276">
        <ele>2231.792147</ele>
        <time>2026-09-12T08:48:44.838Z</time>
      </trkpt>
      <trkpt lat="46.099283" lon="7.629406">
        <ele>2230.813751</ele>
        <time>2026-09-12T08:48:52.323Z</time>
      </trkpt>
      <trkpt lat="46.099194" lon="7.629402">
        <ele>2230.330214</ele>
        <time>2026-09-12T08:48:55.943Z</time>
      </trkpt>
      <trkpt lat="46.099082" lon="7.629553">
        <ele>2228.562095</ele>
        <time>2026-09-12T08:49:02.172Z</time>
      </trkpt>
      <trkpt lat="46.098904" lon="7.629658">
        <ele>2226.030247</ele>
        <time>2026-09-12T08:49:09.945Z</time>
      </trkpt>
      <trkpt lat="46.098546" lon="7.629978">
        <ele>2220.485240</ele>
        <time>2026-09-12T08:49:26.882Z</time>
      </trkpt>
      <trkpt lat="46.098451" lon="7.630004">
        <ele>2219.212232</ele>
        <time>2026-09-12T08:49:30.769Z</time>
      </trkpt>
      <trkpt lat="46.098111" lon="7.630320">
        <ele>2213.887043</ele>
        <time>2026-09-12T08:49:47.058Z</time>
      </trkpt>
      <trkpt lat="46.097994" lon="7.630351">
        <ele>2212.320944</ele>
        <time>2026-09-12T08:49:51.887Z</time>
      </trkpt>
      <trkpt lat="46.097905" lon="7.630420">
        <ele>2210.990663</ele>
        <time>2026-09-12T08:49:55.989Z</time>
      </trkpt>
      <trkpt lat="46.097478" lon="7.630383">
        <ele>2205.262733</ele>
        <time>2026-09-12T08:50:13.757Z</time>
      </trkpt>
      <trkpt lat="46.097362" lon="7.630518">
        <ele>2203.131004</ele>
        <time>2026-09-12T08:50:20.040Z</time>
      </trkpt>
      <trkpt lat="46.097319" lon="7.630429">
        <ele>2202.055308</ele>
        <time>2026-09-12T08:50:23.395Z</time>
      </trkpt>
      <trkpt lat="46.097270" lon="7.630421">
        <ele>2201.350085</ele>
        <time>2026-09-12T08:50:25.482Z</time>
      </trkpt>
      <trkpt lat="46.097267" lon="7.630390">
        <ele>2201.039685</ele>
        <time>2026-09-12T08:50:26.369Z</time>
      </trkpt>
      <trkpt lat="46.097212" lon="7.630348">
        <ele>2200.149662</ele>
        <time>2026-09-12T08:50:29.043Z</time>
      </trkpt>
      <trkpt lat="46.097096" lon="7.630332">
        <ele>2198.483182</ele>
        <time>2026-09-12T08:50:33.928Z</time>
      </trkpt>
      <trkpt lat="46.097056" lon="7.630297">
        <ele>2197.814080</ele>
        <time>2026-09-12T08:50:35.938Z</time>
      </trkpt>
      <trkpt lat="46.096958" lon="7.630323">
        <ele>2196.389067</ele>
        <time>2026-09-12T08:50:40.032Z</time>
      </trkpt>
      <trkpt lat="46.096850" lon="7.630265">
        <ele>2194.740943</ele>
        <time>2026-09-12T08:50:44.792Z</time>
      </trkpt>
      <trkpt lat="46.096719" lon="7.630269">
        <ele>2192.867099</ele>
        <time>2026-09-12T08:50:50.107Z</time>
      </trkpt>
      <trkpt lat="46.096542" lon="7.630380">
        <ele>2190.106842</ele>
        <time>2026-09-12T08:50:57.920Z</time>
      </trkpt>
      <trkpt lat="46.096466" lon="7.630373">
        <ele>2189.017756</ele>
        <time>2026-09-12T08:51:01.027Z</time>
      </trkpt>
      <trkpt lat="46.096348" lon="7.630504">
        <ele>2186.888106</ele>
        <time>2026-09-12T08:51:07.068Z</time>
      </trkpt>
      <trkpt lat="46.096266" lon="7.630483">
        <ele>2185.697081</ele>
        <time>2026-09-12T08:51:10.448Z</time>
      </trkpt>
      <trkpt lat="46.094935" lon="7.631641">
        <ele>2152.875246</ele>
        <time>2026-09-12T08:52:04.507Z</time>
      </trkpt>
      <trkpt lat="46.094617" lon="7.631714">
        <ele>2145.448818</ele>
        <time>2026-09-12T08:52:17.459Z</time>
      </trkpt>
      <trkpt lat="46.094555" lon="7.631763">
        <ele>2143.818230</ele>
        <time>2026-09-12T08:52:20.292Z</time>
      </trkpt>
      <trkpt lat="46.094500" lon="7.631911">
        <ele>2141.132719</ele>
        <time>2026-09-12T08:52:24.925Z</time>
      </trkpt>
      <trkpt lat="46.094391" lon="7.631943">
        <ele>2138.551650</ele>
        <time>2026-09-12T08:52:29.333Z</time>
      </trkpt>
      <trkpt lat="46.094326" lon="7.632035">
        <ele>2136.404431</ele>
        <time>2026-09-12T08:52:32.974Z</time>
      </trkpt>
      <trkpt lat="46.094188" lon="7.632114">
        <ele>2132.904038</ele>
        <time>2026-09-12T08:52:38.878Z</time>
      </trkpt>
      <trkpt lat="46.094164" lon="7.632268">
        <ele>2130.323510</ele>
        <time>2026-09-12T08:52:43.269Z</time>
      </trkpt>
      <trkpt lat="46.094182" lon="7.632344">
        <ele>2129.010524</ele>
        <time>2026-09-12T08:52:45.517Z</time>
      </trkpt>
      <trkpt lat="46.094169" lon="7.632427">
        <ele>2127.619384</ele>
        <time>2026-09-12T08:52:47.877Z</time>
      </trkpt>
      <trkpt lat="46.094112" lon="7.632514">
        <ele>2125.662629</ele>
        <time>2026-09-12T08:52:51.195Z</time>
      </trkpt>
      <trkpt lat="46.094022" lon="7.632778">
        <ele>2120.853170</ele>
        <time>2026-09-12T08:52:59.333Z</time>
      </trkpt>
      <trkpt lat="46.093667" lon="7.633454">
        <ele>2106.989916</ele>
        <time>2026-09-12T08:53:23.586Z</time>
      </trkpt>
      <trkpt lat="46.093613" lon="7.633490">
        <ele>2105.587377</ele>
        <time>2026-09-12T08:53:26.063Z</time>
      </trkpt>
      <trkpt lat="46.093546" lon="7.633512">
        <ele>2103.967394</ele>
        <time>2026-09-12T08:53:28.963Z</time>
      </trkpt>
      <trkpt lat="46.093613" lon="7.633490">
        <ele>2102.347410</ele>
        <time>2026-09-12T08:53:31.881Z</time>
      </trkpt>
      <trkpt lat="46.093568" lon="7.633547">
        <ele>2100.935346</ele>
        <time>2026-09-12T08:53:34.025Z</time>
      </trkpt>
      <trkpt lat="46.093559" lon="7.633692">
        <ele>2098.555249</ele>
        <time>2026-09-12T08:53:37.680Z</time>
      </trkpt>
      <trkpt lat="46.093648" lon="7.634018">
        <ele>2092.931430</ele>
        <time>2026-09-12T08:53:46.550Z</time>
      </trkpt>
      <trkpt lat="46.093805" lon="7.634028">
        <ele>2089.321988</ele>
        <time>2026-09-12T08:53:53.265Z</time>
      </trkpt>
      <trkpt lat="46.094099" lon="7.634151">
        <ele>2082.291035</ele>
        <time>2026-09-12T08:54:06.168Z</time>
      </trkpt>
      <trkpt lat="46.094149" lon="7.634132">
        <ele>2081.103446</ele>
        <time>2026-09-12T08:54:08.279Z</time>
      </trkpt>
      <trkpt lat="46.094175" lon="7.634167">
        <ele>2080.286522</ele>
        <time>2026-09-12T08:54:09.759Z</time>
      </trkpt>
      <trkpt lat="46.094220" lon="7.634148">
        <ele>2079.209583</ele>
        <time>2026-09-12T08:54:11.690Z</time>
      </trkpt>
      <trkpt lat="46.094665" lon="7.634249">
        <ele>2068.863139</ele>
        <time>2026-09-12T08:54:30.275Z</time>
      </trkpt>
      <trkpt lat="46.094746" lon="7.634238">
        <ele>2066.994525</ele>
        <time>2026-09-12T08:54:33.515Z</time>
      </trkpt>
      <trkpt lat="46.094918" lon="7.634309">
        <ele>2062.885414</ele>
        <time>2026-09-12T08:54:40.678Z</time>
      </trkpt>
      <trkpt lat="46.095012" lon="7.634189">
        <ele>2060.001997</ele>
        <time>2026-09-12T08:54:45.711Z</time>
      </trkpt>
      <trkpt lat="46.095244" lon="7.634222">
        <ele>2055.014066</ele>
        <time>2026-09-12T08:54:55.112Z</time>
      </trkpt>
      <trkpt lat="46.095659" lon="7.634430">
        <ele>2048.993233</ele>
        <time>2026-09-12T08:55:12.884Z</time>
      </trkpt>
      <trkpt lat="46.095855" lon="7.634470">
        <ele>2046.280505</ele>
        <time>2026-09-12T08:55:20.889Z</time>
      </trkpt>
      <trkpt lat="46.096111" lon="7.634604">
        <ele>2042.548347</ele>
        <time>2026-09-12T08:55:31.953Z</time>
      </trkpt>
      <trkpt lat="46.096331" lon="7.634638">
        <ele>2039.516226</ele>
        <time>2026-09-12T08:55:40.907Z</time>
      </trkpt>
      <trkpt lat="46.096480" lon="7.634781">
        <ele>2037.063486</ele>
        <time>2026-09-12T08:55:48.180Z</time>
      </trkpt>
      <trkpt lat="46.096510" lon="7.634680">
        <ele>2036.019349</ele>
        <time>2026-09-12T08:55:51.249Z</time>
      </trkpt>
      <trkpt lat="46.096602" lon="7.634725">
        <ele>2034.688041</ele>
        <time>2026-09-12T08:55:55.186Z</time>
      </trkpt>
      <trkpt lat="46.096791" lon="7.634918">
        <ele>2031.514392</ele>
        <time>2026-09-12T08:56:04.581Z</time>
      </trkpt>
      <trkpt lat="46.097022" lon="7.635045">
        <ele>2028.458322</ele>
        <time>2026-09-12T08:56:14.619Z</time>
      </trkpt>
      <trkpt lat="46.097167" lon="7.635271">
        <ele>2025.881489</ele>
        <time>2026-09-12T08:56:23.333Z</time>
      </trkpt>
      <trkpt lat="46.097335" lon="7.635459">
        <ele>2023.315019</ele>
        <time>2026-09-12T08:56:31.996Z</time>
      </trkpt>
      <trkpt lat="46.097396" lon="7.635361">
        <ele>2022.212887</ele>
        <time>2026-09-12T08:56:35.709Z</time>
      </trkpt>
      <trkpt lat="46.097440" lon="7.635177">
        <ele>2020.583977</ele>
        <time>2026-09-12T08:56:41.208Z</time>
      </trkpt>
      <trkpt lat="46.097526" lon="7.635204">
        <ele>2019.521723</ele>
        <time>2026-09-12T08:56:44.787Z</time>
      </trkpt>
      <trkpt lat="46.097630" lon="7.635301">
        <ele>2018.026896</ele>
        <time>2026-09-12T08:56:49.851Z</time>
      </trkpt>
      <trkpt lat="46.097716" lon="7.635294">
        <ele>2016.987303</ele>
        <time>2026-09-12T08:56:53.359Z</time>
      </trkpt>
      <trkpt lat="46.097792" lon="7.635234">
        <ele>2015.941599</ele>
        <time>2026-09-12T08:56:56.869Z</time>
      </trkpt>
      <trkpt lat="46.098003" lon="7.635207">
        <ele>2013.385018</ele>
        <time>2026-09-12T08:57:05.484Z</time>
      </trkpt>
      <trkpt lat="46.098039" lon="7.635098">
        <ele>2012.374607</ele>
        <time>2026-09-12T08:57:08.892Z</time>
      </trkpt>
      <trkpt lat="46.098099" lon="7.635023">
        <ele>2011.416294</ele>
        <time>2026-09-12T08:57:12.111Z</time>
      </trkpt>
      <trkpt lat="46.098245" lon="7.634963">
        <ele>2009.584057</ele>
        <time>2026-09-12T08:57:18.269Z</time>
      </trkpt>
      <trkpt lat="46.098295" lon="7.635005">
        <ele>2008.789928</ele>
        <time>2026-09-12T08:57:20.591Z</time>
      </trkpt>
      <trkpt lat="46.098412" lon="7.635008">
        <ele>2006.946926</ele>
        <time>2026-09-12T08:57:25.349Z</time>
      </trkpt>
      <trkpt lat="46.098519" lon="7.635053">
        <ele>2005.191514</ele>
        <time>2026-09-12T08:57:29.859Z</time>
      </trkpt>
      <trkpt lat="46.098740" lon="7.634937">
        <ele>2001.487461</ele>
        <time>2026-09-12T08:57:39.395Z</time>
      </trkpt>
      <trkpt lat="46.098722" lon="7.635050">
        <ele>2000.221233</ele>
        <time>2026-09-12T08:57:42.634Z</time>
      </trkpt>
      <trkpt lat="46.098829" lon="7.634952">
        <ele>1998.224882</ele>
        <time>2026-09-12T08:57:47.729Z</time>
      </trkpt>
      <trkpt lat="46.098821" lon="7.634997">
        <ele>1997.717539</ele>
        <time>2026-09-12T08:57:49.025Z</time>
      </trkpt>
      <trkpt lat="46.098863" lon="7.635027">
        <ele>1996.979361</ele>
        <time>2026-09-12T08:57:50.900Z</time>
      </trkpt>
      <trkpt lat="46.098983" lon="7.635031">
        <ele>1995.088897</ele>
        <time>2026-09-12T08:57:55.723Z</time>
      </trkpt>
      <trkpt lat="46.099545" lon="7.634779">
        <ele>1985.819608</ele>
        <time>2026-09-12T08:58:19.395Z</time>
      </trkpt>
      <trkpt lat="46.099668" lon="7.634772">
        <ele>1983.880892</ele>
        <time>2026-09-12T08:58:24.313Z</time>
      </trkpt>
      <trkpt lat="46.099843" lon="7.634644">
        <ele>1980.767958</ele>
        <time>2026-09-12T08:58:32.180Z</time>
      </trkpt>
      <trkpt lat="46.099952" lon="7.634640">
        <ele>1978.574533</ele>
        <time>2026-09-12T08:58:36.576Z</time>
      </trkpt>
      <trkpt lat="46.100189" lon="7.634546">
        <ele>1973.629870</ele>
        <time>2026-09-12T08:58:46.451Z</time>
      </trkpt>
      <trkpt lat="46.100324" lon="7.634531">
        <ele>1970.906074</ele>
        <time>2026-09-12T08:58:51.900Z</time>
      </trkpt>
      <trkpt lat="46.100687" lon="7.634212">
        <ele>1962.354831</ele>
        <time>2026-09-12T08:59:08.846Z</time>
      </trkpt>
      <trkpt lat="46.100681" lon="7.634385">
        <ele>1959.938680</ele>
        <time>2026-09-12T08:59:13.622Z</time>
      </trkpt>
      <trkpt lat="46.100702" lon="7.634430">
        <ele>1959.182068</ele>
        <time>2026-09-12T08:59:15.119Z</time>
      </trkpt>
      <trkpt lat="46.100747" lon="7.634415">
        <ele>1958.252953</ele>
        <time>2026-09-12T08:59:16.930Z</time>
      </trkpt>
      <trkpt lat="46.100835" lon="7.634291">
        <ele>1955.777978</ele>
        <time>2026-09-12T08:59:21.849Z</time>
      </trkpt>
      <trkpt lat="46.100973" lon="7.634317">
        <ele>1952.978292</ele>
        <time>2026-09-12T08:59:27.405Z</time>
      </trkpt>
      <trkpt lat="46.101152" lon="7.634288">
        <ele>1949.354761</ele>
        <time>2026-09-12T08:59:34.566Z</time>
      </trkpt>
      <trkpt lat="46.101281" lon="7.634303">
        <ele>1946.751292</ele>
        <time>2026-09-12T08:59:39.716Z</time>
      </trkpt>
      <trkpt lat="46.101466" lon="7.634411">
        <ele>1942.888676</ele>
        <time>2026-09-12T08:59:47.650Z</time>
      </trkpt>
      <trkpt lat="46.101593" lon="7.634411">
        <ele>1940.533125</ele>
        <time>2026-09-12T08:59:52.736Z</time>
      </trkpt>
      <trkpt lat="46.101643" lon="7.634467">
        <ele>1939.358938</ele>
        <time>2026-09-12T08:59:55.249Z</time>
      </trkpt>
      <trkpt lat="46.101877" lon="7.634524">
        <ele>1934.957319</ele>
        <time>2026-09-12T09:00:04.732Z</time>
      </trkpt>
      <trkpt lat="46.101966" lon="7.634512">
        <ele>1933.299381</ele>
        <time>2026-09-12T09:00:08.283Z</time>
      </trkpt>
      <trkpt lat="46.102375" lon="7.634343">
        <ele>1925.408188</ele>
        <time>2026-09-12T09:00:25.295Z</time>
      </trkpt>
      <trkpt lat="46.102438" lon="7.634403">
        <ele>1924.007902</ele>
        <time>2026-09-12T09:00:28.305Z</time>
      </trkpt>
      <trkpt lat="46.102565" lon="7.634283">
        <ele>1921.191837</ele>
        <time>2026-09-12T09:00:34.423Z</time>
      </trkpt>
      <trkpt lat="46.102630" lon="7.634144">
        <ele>1919.035696</ele>
        <time>2026-09-12T09:00:39.101Z</time>
      </trkpt>
      <trkpt lat="46.102649" lon="7.634238">
        <ele>1917.776504</ele>
        <time>2026-09-12T09:00:41.826Z</time>
      </trkpt>
      <trkpt lat="46.102787" lon="7.634125">
        <ele>1914.833162</ele>
        <time>2026-09-12T09:00:48.221Z</time>
      </trkpt>
      <trkpt lat="46.102992" lon="7.634152">
        <ele>1911.048568</ele>
        <time>2026-09-12T09:00:56.561Z</time>
      </trkpt>
      <trkpt lat="46.103247" lon="7.634111">
        <ele>1906.798279</ele>
        <time>2026-09-12T09:01:06.920Z</time>
      </trkpt>
      <trkpt lat="46.103476" lon="7.633991">
        <ele>1902.762226</ele>
        <time>2026-09-12T09:01:16.754Z</time>
      </trkpt>
      <trkpt lat="46.103762" lon="7.633973">
        <ele>1898.020075</ele>
        <time>2026-09-12T09:01:28.326Z</time>
      </trkpt>
      <trkpt lat="46.104335" lon="7.633671">
        <ele>1887.914311</ele>
        <time>2026-09-12T09:01:52.795Z</time>
      </trkpt>
      <trkpt lat="46.104411" lon="7.633698">
        <ele>1886.617727</ele>
        <time>2026-09-12T09:01:55.943Z</time>
      </trkpt>
      <trkpt lat="46.104543" lon="7.633691">
        <ele>1884.429645</ele>
        <time>2026-09-12T09:02:01.191Z</time>
      </trkpt>
      <trkpt lat="46.104686" lon="7.633458">
        <ele>1880.976221</ele>
        <time>2026-09-12T09:02:09.797Z</time>
      </trkpt>
      <trkpt lat="46.104755" lon="7.633441">
        <ele>1880.022758</ele>
        <time>2026-09-12T09:02:12.591Z</time>
      </trkpt>
      <trkpt lat="46.104960" lon="7.633498">
        <ele>1877.179041</ele>
        <time>2026-09-12T09:02:20.948Z</time>
      </trkpt>
      <trkpt lat="46.105052" lon="7.633606">
        <ele>1875.563296</ele>
        <time>2026-09-12T09:02:25.723Z</time>
      </trkpt>
      <trkpt lat="46.105194" lon="7.633575">
        <ele>1873.607085</ele>
        <time>2026-09-12T09:02:31.565Z</time>
      </trkpt>
      <trkpt lat="46.105371" lon="7.633701">
        <ele>1870.918507</ele>
        <time>2026-09-12T09:02:39.815Z</time>
      </trkpt>
      <trkpt lat="46.105456" lon="7.633797">
        <ele>1869.447992</ele>
        <time>2026-09-12T09:02:44.379Z</time>
      </trkpt>
      <trkpt lat="46.105700" lon="7.633686">
        <ele>1865.963073</ele>
        <time>2026-09-12T09:02:54.826Z</time>
      </trkpt>
      <trkpt lat="46.105730" lon="7.633447">
        <ele>1863.669304</ele>
        <time>2026-09-12T09:02:59.736Z</time>
      </trkpt>
      <trkpt lat="46.105716" lon="7.633400">
        <ele>1863.186214</ele>
        <time>2026-09-12T09:03:00.765Z</time>
      </trkpt>
      <trkpt lat="46.105435" lon="7.632932">
        <ele>1857.339528</ele>
        <time>2026-09-12T09:03:13.306Z</time>
      </trkpt>
      <trkpt lat="46.105409" lon="7.632720">
        <ele>1854.807747</ele>
        <time>2026-09-12T09:03:17.690Z</time>
      </trkpt>
      <trkpt lat="46.105437" lon="7.632607">
        <ele>1853.347483</ele>
        <time>2026-09-12T09:03:20.188Z</time>
      </trkpt>
      <trkpt lat="46.105492" lon="7.632571">
        <ele>1852.287409</ele>
        <time>2026-09-12T09:03:21.989Z</time>
      </trkpt>
      <trkpt lat="46.105722" lon="7.632584">
        <ele>1848.247513</ele>
        <time>2026-09-12T09:03:28.964Z</time>
      </trkpt>
      <trkpt lat="46.106184" lon="7.632543">
        <ele>1840.123483</ele>
        <time>2026-09-12T09:03:42.463Z</time>
      </trkpt>
      <trkpt lat="46.106405" lon="7.632395">
        <ele>1835.846936</ele>
        <time>2026-09-12T09:03:49.459Z</time>
      </trkpt>
      <trkpt lat="46.106529" lon="7.632064">
        <ele>1831.268732</ele>
        <time>2026-09-12T09:03:57.343Z</time>
      </trkpt>
      <trkpt lat="46.106636" lon="7.631971">
        <ele>1829.076120</ele>
        <time>2026-09-12T09:04:01.053Z</time>
      </trkpt>
      <trkpt lat="46.106891" lon="7.631900">
        <ele>1824.237450</ele>
        <time>2026-09-12T09:04:08.527Z</time>
      </trkpt>
      <trkpt lat="46.107255" lon="7.631912">
        <ele>1815.956288</ele>
        <time>2026-09-12T09:04:18.968Z</time>
      </trkpt>
      <trkpt lat="46.107505" lon="7.631794">
        <ele>1809.973448</ele>
        <time>2026-09-12T09:04:26.568Z</time>
      </trkpt>
      <trkpt lat="46.107792" lon="7.631707">
        <ele>1803.303171</ele>
        <time>2026-09-12T09:04:35.180Z</time>
      </trkpt>
      <trkpt lat="46.108024" lon="7.631733">
        <ele>1798.010543</ele>
        <time>2026-09-12T09:04:41.905Z</time>
      </trkpt>
      <trkpt lat="46.108073" lon="7.631730">
        <ele>1796.895059</ele>
        <time>2026-09-12T09:04:43.310Z</time>
      </trkpt>
      <trkpt lat="46.108456" lon="7.631726">
        <ele>1788.183686</ele>
        <time>2026-09-12T09:04:54.346Z</time>
      </trkpt>
      <trkpt lat="46.108939" lon="7.631813">
        <ele>1778.972270</ele>
        <time>2026-09-12T09:05:08.298Z</time>
      </trkpt>
      <trkpt lat="46.109187" lon="7.631818">
        <ele>1774.740289</ele>
        <time>2026-09-12T09:05:15.446Z</time>
      </trkpt>
      <trkpt lat="46.109500" lon="7.631943">
        <ele>1769.198721</ele>
        <time>2026-09-12T09:05:24.805Z</time>
      </trkpt>
      <trkpt lat="46.109874" lon="7.632001">
        <ele>1762.780468</ele>
        <time>2026-09-12T09:05:35.719Z</time>
      </trkpt>
      <trkpt lat="46.110089" lon="7.631947">
        <ele>1759.056773</ele>
        <time>2026-09-12T09:05:42.084Z</time>
      </trkpt>
      <trkpt lat="46.110360" lon="7.631810">
        <ele>1754.156997</ele>
        <time>2026-09-12T09:05:50.469Z</time>
      </trkpt>
      <trkpt lat="46.110509" lon="7.631802">
        <ele>1752.277942</ele>
        <time>2026-09-12T09:05:54.830Z</time>
      </trkpt>
      <trkpt lat="46.110703" lon="7.631701">
        <ele>1749.797201</ele>
        <time>2026-09-12T09:06:00.846Z</time>
      </trkpt>
      <trkpt lat="46.110792" lon="7.631685">
        <ele>1748.718438</ele>
        <time>2026-09-12T09:06:03.469Z</time>
      </trkpt>
      <trkpt lat="46.110885" lon="7.631719">
        <ele>1747.564477</ele>
        <time>2026-09-12T09:06:06.269Z</time>
      </trkpt>
      <trkpt lat="46.111007" lon="7.631741">
        <ele>1746.085655</ele>
        <time>2026-09-12T09:06:09.859Z</time>
      </trkpt>
      <trkpt lat="46.111350" lon="7.631685">
        <ele>1741.933752</ele>
        <time>2026-09-12T09:06:19.961Z</time>
      </trkpt>
      <trkpt lat="46.111514" lon="7.631688">
        <ele>1739.961023</ele>
        <time>2026-09-12T09:06:24.751Z</time>
      </trkpt>
      <trkpt lat="46.111923" lon="7.631604">
        <ele>1734.992010</ele>
        <time>2026-09-12T09:06:36.844Z</time>
      </trkpt>
      <trkpt lat="46.112042" lon="7.631596">
        <ele>1733.559140</ele>
        <time>2026-09-12T09:06:40.341Z</time>
      </trkpt>
      <trkpt lat="46.112122" lon="7.631653">
        <ele>1732.485929</ele>
        <time>2026-09-12T09:06:42.963Z</time>
      </trkpt>
      <trkpt lat="46.113178" lon="7.631405">
        <ele>1724.298612</ele>
        <time>2026-09-12T09:07:15.691Z</time>
      </trkpt>
      <trkpt lat="46.113940" lon="7.631483">
        <ele>1718.572226</ele>
        <time>2026-09-12T09:07:40.897Z</time>
      </trkpt>
      <trkpt lat="46.114454" lon="7.631487">
        <ele>1716.587238</ele>
        <time>2026-09-12T09:07:58.221Z</time>
      </trkpt>
      <trkpt lat="46.114616" lon="7.631425">
        <ele>1715.939986</ele>
        <time>2026-09-12T09:08:03.928Z</time>
      </trkpt>
      <trkpt lat="46.114703" lon="7.631304">
        <ele>1715.473288</ele>
        <time>2026-09-12T09:08:08.071Z</time>
      </trkpt>
      <trkpt lat="46.114903" lon="7.631125">
        <ele>1714.564354</ele>
        <time>2026-09-12T09:08:16.132Z</time>
      </trkpt>
      <trkpt lat="46.115193" lon="7.630996">
        <ele>1713.392400</ele>
        <time>2026-09-12T09:08:26.533Z</time>
      </trkpt>
      <trkpt lat="46.115427" lon="7.631016">
        <ele>1712.487157</ele>
        <time>2026-09-12T09:08:34.596Z</time>
      </trkpt>
      <trkpt lat="46.115765" lon="7.631295">
        <ele>1711.070221</ele>
        <time>2026-09-12T09:08:48.017Z</time>
      </trkpt>
      <trkpt lat="46.116703" lon="7.631659">
        <ele>1707.786557</ele>
        <time>2026-09-12T09:09:21.468Z</time>
      </trkpt>
      <trkpt lat="46.116855" lon="7.631702">
        <ele>1707.262929</ele>
        <time>2026-09-12T09:09:26.765Z</time>
      </trkpt>
      <trkpt lat="46.117607" lon="7.631669">
        <ele>1704.632551</ele>
        <time>2026-09-12T09:09:52.578Z</time>
      </trkpt>
      <trkpt lat="46.118143" lon="7.631607">
        <ele>1702.635151</ele>
        <time>2026-09-12T09:10:11.009Z</time>
      </trkpt>
      <trkpt lat="46.118498" lon="7.631642">
        <ele>1701.313401</ele>
        <time>2026-09-12T09:10:23.178Z</time>
      </trkpt>
      <trkpt lat="46.118764" lon="7.631577">
        <ele>1700.311251</ele>
        <time>2026-09-12T09:10:32.321Z</time>
      </trkpt>
      <trkpt lat="46.120116" lon="7.631176">
        <ele>1694.938616</ele>
        <time>2026-09-12T09:11:19.025Z</time>
      </trkpt>
      <trkpt lat="46.122926" lon="7.630269">
        <ele>1684.420722</ele>
        <time>2026-09-12T09:12:57.116Z</time>
      </trkpt>
      <trkpt lat="46.123744" lon="7.630119">
        <ele>1682.422262</ele>
        <time>2026-09-12T09:13:25.966Z</time>
      </trkpt>
      <trkpt lat="46.123990" lon="7.629956">
        <ele>1681.766186</ele>
        <time>2026-09-12T09:13:35.594Z</time>
      </trkpt>
      <trkpt lat="46.124294" lon="7.629843">
        <ele>1681.005350</ele>
        <time>2026-09-12T09:13:46.900Z</time>
      </trkpt>
      <trkpt lat="46.124662" lon="7.629777">
        <ele>1680.303928</ele>
        <time>2026-09-12T09:14:00.282Z</time>
      </trkpt>
      <trkpt lat="46.125075" lon="7.629523">
        <ele>1679.545028</ele>
        <time>2026-09-12T09:14:16.446Z</time>
      </trkpt>
      <trkpt lat="46.125270" lon="7.629443">
        <ele>1679.202339</ele>
        <time>2026-09-12T09:14:23.764Z</time>
      </trkpt>
      <trkpt lat="46.125329" lon="7.629436">
        <ele>1679.102271</ele>
        <time>2026-09-12T09:14:25.867Z</time>
      </trkpt>
      <trkpt lat="46.125549" lon="7.629532">
        <ele>1678.713754</ele>
        <time>2026-09-12T09:14:34.142Z</time>
      </trkpt>
      <trkpt lat="46.125816" lon="7.629518">
        <ele>1678.262127</ele>
        <time>2026-09-12T09:14:43.716Z</time>
      </trkpt>
      <trkpt lat="46.126175" lon="7.629600">
        <ele>1677.650933</ele>
        <time>2026-09-12T09:14:56.568Z</time>
      </trkpt>
      <trkpt lat="46.126461" lon="7.629539">
        <ele>1677.184375</ele>
        <time>2026-09-12T09:15:06.634Z</time>
      </trkpt>
      <trkpt lat="46.126738" lon="7.629527">
        <ele>1676.737156</ele>
        <time>2026-09-12T09:15:16.292Z</time>
      </trkpt>
      <trkpt lat="46.126941" lon="7.629579">
        <ele>1676.404435</ele>
        <time>2026-09-12T09:15:23.510Z</time>
      </trkpt>
      <trkpt lat="46.127019" lon="7.629666">
        <ele>1676.245335</ele>
        <time>2026-09-12T09:15:26.978Z</time>
      </trkpt>
      <trkpt lat="46.127064" lon="7.629836">
        <ele>1676.041802</ele>
        <time>2026-09-12T09:15:31.448Z</time>
      </trkpt>
      <trkpt lat="46.127090" lon="7.629977">
        <ele>1675.878614</ele>
        <time>2026-09-12T09:15:35.035Z</time>
      </trkpt>
      <trkpt lat="46.127140" lon="7.630062">
        <ele>1675.753920</ele>
        <time>2026-09-12T09:15:37.757Z</time>
      </trkpt>
      <trkpt lat="46.127195" lon="7.630109">
        <ele>1675.650763</ele>
        <time>2026-09-12T09:15:40.045Z</time>
      </trkpt>
      <trkpt lat="46.127252" lon="7.630150">
        <ele>1675.547981</ele>
        <time>2026-09-12T09:15:42.308Z</time>
      </trkpt>
      <trkpt lat="46.127554" lon="7.630175">
        <ele>1675.059817</ele>
        <time>2026-09-12T09:15:53.214Z</time>
      </trkpt>
      <trkpt lat="46.127787" lon="7.629974">
        <ele>1675.090310</ele>
        <time>2026-09-12T09:16:03.315Z</time>
      </trkpt>
      <trkpt lat="46.127908" lon="7.630057">
        <ele>1675.396004</ele>
        <time>2026-09-12T09:16:08.545Z</time>
      </trkpt>
      <trkpt lat="46.127983" lon="7.630066">
        <ele>1675.567721</ele>
        <time>2026-09-12T09:16:11.553Z</time>
      </trkpt>
      <trkpt lat="46.128209" lon="7.629953">
        <ele>1676.113464</ele>
        <time>2026-09-12T09:16:21.451Z</time>
      </trkpt>
      <trkpt lat="46.128444" lon="7.629906">
        <ele>1676.654786</ele>
        <time>2026-09-12T09:16:31.300Z</time>
      </trkpt>
      <trkpt lat="46.128550" lon="7.629921">
        <ele>1676.897805</ele>
        <time>2026-09-12T09:16:35.780Z</time>
      </trkpt>
      <trkpt lat="46.129103" lon="7.630100">
        <ele>1678.190935</ele>
        <time>2026-09-12T09:16:59.861Z</time>
      </trkpt>
      <trkpt lat="46.129256" lon="7.630111">
        <ele>1678.540466</ele>
        <time>2026-09-12T09:17:06.405Z</time>
      </trkpt>
      <trkpt lat="46.129306" lon="7.630096">
        <ele>1678.656990</ele>
        <time>2026-09-12T09:17:08.532Z</time>
      </trkpt>
      <trkpt lat="46.129413" lon="7.630054">
        <ele>1678.910002</ele>
        <time>2026-09-12T09:17:13.259Z</time>
      </trkpt>
      <trkpt lat="46.129888" lon="7.629816">
        <ele>1679.085363</ele>
        <time>2026-09-12T09:17:34.180Z</time>
      </trkpt>
      <trkpt lat="46.130342" lon="7.629570">
        <ele>1679.246432</ele>
        <time>2026-09-12T09:17:52.818Z</time>
      </trkpt>
      <trkpt lat="46.130914" lon="7.629108">
        <ele>1679.464148</ele>
        <time>2026-09-12T09:18:16.591Z</time>
      </trkpt>
      <trkpt lat="46.131124" lon="7.628859">
        <ele>1679.185934</ele>
        <time>2026-09-12T09:18:26.122Z</time>
      </trkpt>
      <trkpt lat="46.131257" lon="7.628714">
        <ele>1678.693654</ele>
        <time>2026-09-12T09:18:31.955Z</time>
      </trkpt>
      <trkpt lat="46.132020" lon="7.628062">
        <ele>1676.074885</ele>
        <time>2026-09-12T09:19:02.683Z</time>
      </trkpt>
      <trkpt lat="46.132547" lon="7.627734">
        <ele>1674.379945</ele>
        <time>2026-09-12T09:19:22.076Z</time>
      </trkpt>
      <trkpt lat="46.132792" lon="7.627573">
        <ele>1673.749550</ele>
        <time>2026-09-12T09:19:31.464Z</time>
      </trkpt>
      <trkpt lat="46.132800" lon="7.627568">
        <ele>1673.730635</ele>
        <time>2026-09-12T09:19:31.757Z</time>
      </trkpt>
      <trkpt lat="46.133061" lon="7.627428">
        <ele>1673.126512</ele>
        <time>2026-09-12T09:19:41.652Z</time>
      </trkpt>
      <trkpt lat="46.133386" lon="7.627262">
        <ele>1672.378522</ele>
        <time>2026-09-12T09:19:53.871Z</time>
      </trkpt>
      <trkpt lat="46.133674" lon="7.627112">
        <ele>1671.714223</ele>
        <time>2026-09-12T09:20:04.532Z</time>
      </trkpt>
      <trkpt lat="46.134135" lon="7.626824">
        <ele>1670.624329</ele>
        <time>2026-09-12T09:20:22.260Z</time>
      </trkpt>
      <trkpt lat="46.134530" lon="7.626519">
        <ele>1670.303037</ele>
        <time>2026-09-12T09:20:38.683Z</time>
      </trkpt>
      <trkpt lat="46.134787" lon="7.626396">
        <ele>1670.303037</ele>
        <time>2026-09-12T09:20:48.818Z</time>
      </trkpt>
      <trkpt lat="46.134839" lon="7.626373">
        <ele>1670.303037</ele>
        <time>2026-09-12T09:20:50.871Z</time>
      </trkpt>
      <trkpt lat="46.134879" lon="7.626359">
        <ele>1670.303037</ele>
        <time>2026-09-12T09:20:52.501Z</time>
      </trkpt>
      <trkpt lat="46.135079" lon="7.626270">
        <ele>1670.303037</ele>
        <time>2026-09-12T09:21:00.780Z</time>
      </trkpt>
      <trkpt lat="46.135215" lon="7.626208">
        <ele>1670.303037</ele>
        <time>2026-09-12T09:21:06.491Z</time>
      </trkpt>
      <trkpt lat="46.135594" lon="7.626211">
        <ele>1670.303037</ele>
        <time>2026-09-12T09:21:21.820Z</time>
      </trkpt>
      <trkpt lat="46.135735" lon="7.626179">
        <ele>1670.303037</ele>
        <time>2026-09-12T09:21:27.716Z</time>
      </trkpt>
      <trkpt lat="46.135963" lon="7.626537">
        <ele>1670.303037</ele>
        <time>2026-09-12T09:21:41.943Z</time>
      </trkpt>
      <trkpt lat="46.136296" lon="7.626463">
        <ele>1670.303037</ele>
        <time>2026-09-12T09:21:56.068Z</time>
      </trkpt>
      <trkpt lat="46.136413" lon="7.626396">
        <ele>1670.303037</ele>
        <time>2026-09-12T09:22:01.297Z</time>
      </trkpt>
    </trkseg>
  </trk>
</gpx>