<?xml version='1.0' encoding='UTF-8'?>
<gpx version="1.1" creator="https://www.komoot.de" xmlns="http://www.topografix.com/GPX/1/1" xmlns:xsi="http://www.w3.org/2001/XMLSchema-instance" xsi:schemaLocation="http://www.topografix.com/GPX/1/1 http://www.topografix.com/GPX/1/1/gpx.xsd">
  <metadata>
    <name>Espace Weisshorn > Corne de Sorebois > Lac de Chateaupré</name>
    <author>
      <link href="https://www.komoot.de">
        <text>komoot</text>
        <type>text/html</type>
      </link>
    </author>
  </metadata>
  <wpt lat="46.105992" lon="7.580325">
    <name>Lake Châteaupré</name>
    <sym>Flag, Blue</sym>
  </wpt>
  <trk>
    <name>Espace Weisshorn > Corne de Sorebois > Lac de Chateaupré</name>
    <type>jogging</type>
    <trkseg>
      <trkpt lat="46.149750" lon="7.595639">
        <ele>2675.948394</ele>
        <time>2026-09-12T07:19:16.069Z</time>
      </trkpt>
      <trkpt lat="46.149808" lon="7.595712">
        <ele>2675.948394</ele>
        <time>2026-09-12T07:19:21.037Z</time>
      </trkpt>
      <trkpt lat="46.149875" lon="7.595786">
        <ele>2675.948394</ele>
        <time>2026-09-12T07:19:26.524Z</time>
      </trkpt>
      <trkpt lat="46.149986" lon="7.595614">
        <ele>2675.948394</ele>
        <time>2026-09-12T07:19:38.042Z</time>
      </trkpt>
      <trkpt lat="46.150080" lon="7.595242">
        <ele>2675.948394</ele>
        <time>2026-09-12T07:19:59.460Z</time>
      </trkpt>
      <trkpt lat="46.150143" lon="7.594995">
        <ele>2675.948394</ele>
        <time>2026-09-12T07:20:15.567Z</time>
      </trkpt>
      <trkpt lat="46.150200" lon="7.594886">
        <ele>2675.948394</ele>
        <time>2026-09-12T07:20:24.626Z</time>
      </trkpt>
      <trkpt lat="46.150314" lon="7.594787">
        <ele>2678.662878</ele>
        <time>2026-09-12T07:20:38.126Z</time>
      </trkpt>
      <trkpt lat="46.150317" lon="7.594739">
        <ele>2679.493177</ele>
        <time>2026-09-12T07:20:41.498Z</time>
      </trkpt>
      <trkpt lat="46.150360" lon="7.594442">
        <ele>2684.720414</ele>
        <time>2026-09-12T07:21:04.151Z</time>
      </trkpt>
      <trkpt lat="46.150376" lon="7.594141">
        <ele>2689.921258</ele>
        <time>2026-09-12T07:21:27.363Z</time>
      </trkpt>
      <trkpt lat="46.150297" lon="7.593308">
        <ele>2704.405964</ele>
        <time>2026-09-12T07:22:33.470Z</time>
      </trkpt>
      <trkpt lat="46.150295" lon="7.593056">
        <ele>2708.747688</ele>
        <time>2026-09-12T07:22:53.545Z</time>
      </trkpt>
      <trkpt lat="46.150339" lon="7.592808">
        <ele>2713.158103</ele>
        <time>2026-09-12T07:23:13.749Z</time>
      </trkpt>
      <trkpt lat="46.150448" lon="7.592409">
        <ele>2720.547183</ele>
        <time>2026-09-12T07:23:46.271Z</time>
      </trkpt>
      <trkpt lat="46.150498" lon="7.592181">
        <ele>2724.265366</ele>
        <time>2026-09-12T07:24:03.692Z</time>
      </trkpt>
      <trkpt lat="46.150499" lon="7.591890">
        <ele>2728.773758</ele>
        <time>2026-09-12T07:24:24.657Z</time>
      </trkpt>
      <trkpt lat="46.150418" lon="7.591497">
        <ele>2735.126089</ele>
        <time>2026-09-12T07:24:53.804Z</time>
      </trkpt>
      <trkpt lat="46.150236" lon="7.591027">
        <ele>2743.467946</ele>
        <time>2026-09-12T07:25:32.281Z</time>
      </trkpt>
      <trkpt lat="46.150087" lon="7.590530">
        <ele>2751.857871</ele>
        <time>2026-09-12T07:26:09.646Z</time>
      </trkpt>
      <trkpt lat="46.150104" lon="7.590488">
        <ele>2752.611486</ele>
        <time>2026-09-12T07:26:13.156Z</time>
      </trkpt>
      <trkpt lat="46.150141" lon="7.590483">
        <ele>2753.442547</ele>
        <time>2026-09-12T07:26:16.873Z</time>
      </trkpt>
      <trkpt lat="46.150407" lon="7.590582">
        <ele>2759.585741</ele>
        <time>2026-09-12T07:26:41.343Z</time>
      </trkpt>
      <trkpt lat="46.150579" lon="7.590608">
        <ele>2762.663903</ele>
        <time>2026-09-12T07:26:56.011Z</time>
      </trkpt>
      <trkpt lat="46.150758" lon="7.590563">
        <ele>2765.470452</ele>
        <time>2026-09-12T07:27:10.470Z</time>
      </trkpt>
      <trkpt lat="46.150796" lon="7.590519">
        <ele>2766.222926</ele>
        <time>2026-09-12T07:27:13.967Z</time>
      </trkpt>
      <trkpt lat="46.150802" lon="7.590453">
        <ele>2766.935233</ele>
        <time>2026-09-12T07:27:17.659Z</time>
      </trkpt>
      <trkpt lat="46.150768" lon="7.590371">
        <ele>2767.957858</ele>
        <time>2026-09-12T07:27:22.794Z</time>
      </trkpt>
      <trkpt lat="46.150478" lon="7.589928">
        <ele>2774.479965</ele>
        <time>2026-09-12T07:27:53.598Z</time>
      </trkpt>
      <trkpt lat="46.150408" lon="7.589773">
        <ele>2776.459909</ele>
        <time>2026-09-12T07:28:02.281Z</time>
      </trkpt>
      <trkpt lat="46.150306" lon="7.589655">
        <ele>2778.479010</ele>
        <time>2026-09-12T07:28:14.884Z</time>
      </trkpt>
      <trkpt lat="46.149931" lon="7.589056">
        <ele>2787.118377</ele>
        <time>2026-09-12T07:29:08.526Z</time>
      </trkpt>
      <trkpt lat="46.149918" lon="7.588965">
        <ele>2788.112653</ele>
        <time>2026-09-12T07:29:14.804Z</time>
      </trkpt>
      <trkpt lat="46.149845" lon="7.588843">
        <ele>2789.337576</ele>
        <time>2026-09-12T07:29:25.616Z</time>
      </trkpt>
      <trkpt lat="46.149760" lon="7.588474">
        <ele>2791.695031</ele>
        <time>2026-09-12T07:29:51.919Z</time>
      </trkpt>
      <trkpt lat="46.149746" lon="7.588339">
        <ele>2792.522577</ele>
        <time>2026-09-12T07:30:01.596Z</time>
      </trkpt>
      <trkpt lat="46.149557" lon="7.587895">
        <ele>2795.681820</ele>
        <time>2026-09-12T07:30:37.991Z</time>
      </trkpt>
      <trkpt lat="46.149497" lon="7.587663">
        <ele>2797.183116</ele>
        <time>2026-09-12T07:30:54.554Z</time>
      </trkpt>
      <trkpt lat="46.149396" lon="7.587590">
        <ele>2798.171568</ele>
        <time>2026-09-12T07:31:04.863Z</time>
      </trkpt>
      <trkpt lat="46.149328" lon="7.587395">
        <ele>2799.495067</ele>
        <time>2026-09-12T07:31:17.159Z</time>
      </trkpt>
      <trkpt lat="46.149073" lon="7.587056">
        <ele>2802.528759</ele>
        <time>2026-09-12T07:31:39.700Z</time>
      </trkpt>
      <trkpt lat="46.149012" lon="7.586857">
        <ele>2803.848017</ele>
        <time>2026-09-12T07:31:47.590Z</time>
      </trkpt>
      <trkpt lat="46.148822" lon="7.586651">
        <ele>2801.466151</ele>
        <time>2026-09-12T07:31:58.855Z</time>
      </trkpt>
      <trkpt lat="46.148762" lon="7.586449">
        <ele>2798.845629</ele>
        <time>2026-09-12T07:32:05.427Z</time>
      </trkpt>
      <trkpt lat="46.148689" lon="7.586397">
        <ele>2797.444608</ele>
        <time>2026-09-12T07:32:08.840Z</time>
      </trkpt>
      <trkpt lat="46.148719" lon="7.586217">
        <ele>2795.237195</ele>
        <time>2026-09-12T07:32:16.350Z</time>
      </trkpt>
      <trkpt lat="46.148380" lon="7.586170">
        <ele>2789.375994</ele>
        <time>2026-09-12T07:32:36.062Z</time>
      </trkpt>
      <trkpt lat="46.148247" lon="7.586055">
        <ele>2786.707732</ele>
        <time>2026-09-12T07:32:44.967Z</time>
      </trkpt>
      <trkpt lat="46.148172" lon="7.585940">
        <ele>2784.824578</ele>
        <time>2026-09-12T07:32:51.414Z</time>
      </trkpt>
      <trkpt lat="46.148099" lon="7.585908">
        <ele>2783.511555</ele>
        <time>2026-09-12T07:32:55.971Z</time>
      </trkpt>
      <trkpt lat="46.148245" lon="7.585787">
        <ele>2780.614097</ele>
        <time>2026-09-12T07:33:06.215Z</time>
      </trkpt>
      <trkpt lat="46.148443" lon="7.585506">
        <ele>2775.835212</ele>
        <time>2026-09-12T07:33:23.233Z</time>
      </trkpt>
      <trkpt lat="46.148550" lon="7.585407">
        <ele>2773.647851</ele>
        <time>2026-09-12T07:33:31.037Z</time>
      </trkpt>
      <trkpt lat="46.148667" lon="7.585212">
        <ele>2768.891511</ele>
        <time>2026-09-12T07:33:41.909Z</time>
      </trkpt>
      <trkpt lat="46.148743" lon="7.585160">
        <ele>2766.604057</ele>
        <time>2026-09-12T07:33:47.062Z</time>
      </trkpt>
      <trkpt lat="46.148815" lon="7.585008">
        <ele>2763.134626</ele>
        <time>2026-09-12T07:33:54.835Z</time>
      </trkpt>
      <trkpt lat="46.148905" lon="7.584895">
        <ele>2759.890438</ele>
        <time>2026-09-12T07:34:02.069Z</time>
      </trkpt>
      <trkpt lat="46.148776" lon="7.584871">
        <ele>2756.352963</ele>
        <time>2026-09-12T07:34:09.971Z</time>
      </trkpt>
      <trkpt lat="46.148666" lon="7.584902">
        <ele>2753.304772</ele>
        <time>2026-09-12T07:34:16.769Z</time>
      </trkpt>
      <trkpt lat="46.148954" lon="7.584512">
        <ele>2742.564585</ele>
        <time>2026-09-12T07:34:40.920Z</time>
      </trkpt>
      <trkpt lat="46.149251" lon="7.583871">
        <ele>2728.034724</ele>
        <time>2026-09-12T07:35:12.960Z</time>
      </trkpt>
      <trkpt lat="46.149066" lon="7.583962">
        <ele>2722.521782</ele>
        <time>2026-09-12T07:35:25.248Z</time>
      </trkpt>
      <trkpt lat="46.149125" lon="7.583795">
        <ele>2718.608987</ele>
        <time>2026-09-12T07:35:33.447Z</time>
      </trkpt>
      <trkpt lat="46.149010" lon="7.583863">
        <ele>2714.864771</ele>
        <time>2026-09-12T07:35:41.330Z</time>
      </trkpt>
      <trkpt lat="46.149066" lon="7.583656">
        <ele>2710.226416</ele>
        <time>2026-09-12T07:35:51.044Z</time>
      </trkpt>
      <trkpt lat="46.149163" lon="7.583549">
        <ele>2706.548282</ele>
        <time>2026-09-12T07:35:58.789Z</time>
      </trkpt>
      <trkpt lat="46.149238" lon="7.583403">
        <ele>2702.754540</ele>
        <time>2026-09-12T07:36:06.810Z</time>
      </trkpt>
      <trkpt lat="46.149021" lon="7.583392">
        <ele>2696.212634</ele>
        <time>2026-09-12T07:36:20.773Z</time>
      </trkpt>
      <trkpt lat="46.149004" lon="7.583338">
        <ele>2694.974601</ele>
        <time>2026-09-12T07:36:23.414Z</time>
      </trkpt>
      <trkpt lat="46.149009" lon="7.583201">
        <ele>2692.111096</ele>
        <time>2026-09-12T07:36:29.608Z</time>
      </trkpt>
      <trkpt lat="46.149288" lon="7.582795">
        <ele>2680.174984</ele>
        <time>2026-09-12T07:36:55.218Z</time>
      </trkpt>
      <trkpt lat="46.149356" lon="7.582631">
        <ele>2676.185650</ele>
        <time>2026-09-12T07:37:03.881Z</time>
      </trkpt>
      <trkpt lat="46.149414" lon="7.582573">
        <ele>2674.059825</ele>
        <time>2026-09-12T07:37:08.544Z</time>
      </trkpt>
      <trkpt lat="46.149494" lon="7.582549">
        <ele>2671.598043</ele>
        <time>2026-09-12T07:37:13.879Z</time>
      </trkpt>
      <trkpt lat="46.149596" lon="7.582429">
        <ele>2667.922538</ele>
        <time>2026-09-12T07:37:22.522Z</time>
      </trkpt>
      <trkpt lat="46.149636" lon="7.582323">
        <ele>2665.670242</ele>
        <time>2026-09-12T07:37:28.029Z</time>
      </trkpt>
      <trkpt lat="46.149748" lon="7.582248">
        <ele>2662.344792</ele>
        <time>2026-09-12T07:37:35.840Z</time>
      </trkpt>
      <trkpt lat="46.149844" lon="7.582140">
        <ele>2659.066545</ele>
        <time>2026-09-12T07:37:43.320Z</time>
      </trkpt>
      <trkpt lat="46.149883" lon="7.582040">
        <ele>2656.925248</ele>
        <time>2026-09-12T07:37:48.098Z</time>
      </trkpt>
      <trkpt lat="46.149439" lon="7.581960">
        <ele>2644.873612</ele>
        <time>2026-09-12T07:38:14.901Z</time>
      </trkpt>
      <trkpt lat="46.149337" lon="7.581954">
        <ele>2642.124033</ele>
        <time>2026-09-12T07:38:21.006Z</time>
      </trkpt>
      <trkpt lat="46.149284" lon="7.581986">
        <ele>2640.576667</ele>
        <time>2026-09-12T07:38:24.476Z</time>
      </trkpt>
      <trkpt lat="46.149026" lon="7.581967">
        <ele>2633.618579</ele>
        <time>2026-09-12T07:38:39.878Z</time>
      </trkpt>
      <trkpt lat="46.149222" lon="7.581639">
        <ele>2625.536005</ele>
        <time>2026-09-12T07:38:57.850Z</time>
      </trkpt>
      <trkpt lat="46.148960" lon="7.581618">
        <ele>2618.791586</ele>
        <time>2026-09-12T07:39:13.516Z</time>
      </trkpt>
      <trkpt lat="46.148907" lon="7.581658">
        <ele>2617.331815</ele>
        <time>2026-09-12T07:39:17.039Z</time>
      </trkpt>
      <trkpt lat="46.148878" lon="7.581644">
        <ele>2616.585449</ele>
        <time>2026-09-12T07:39:18.822Z</time>
      </trkpt>
      <trkpt lat="46.149005" lon="7.581300">
        <ele>2609.994211</ele>
        <time>2026-09-12T07:39:34.623Z</time>
      </trkpt>
      <trkpt lat="46.149069" lon="7.581228">
        <ele>2608.013701</ele>
        <time>2026-09-12T07:39:39.399Z</time>
      </trkpt>
      <trkpt lat="46.148961" lon="7.581177">
        <ele>2605.240174</ele>
        <time>2026-09-12T07:39:46.052Z</time>
      </trkpt>
      <trkpt lat="46.148981" lon="7.581079">
        <ele>2603.512645</ele>
        <time>2026-09-12T07:39:50.241Z</time>
      </trkpt>
      <trkpt lat="46.149023" lon="7.581014">
        <ele>2602.009669</ele>
        <time>2026-09-12T07:39:53.866Z</time>
      </trkpt>
      <trkpt lat="46.149005" lon="7.580934">
        <ele>2600.587361</ele>
        <time>2026-09-12T07:39:57.299Z</time>
      </trkpt>
      <trkpt lat="46.149030" lon="7.580894">
        <ele>2599.676413</ele>
        <time>2026-09-12T07:39:59.476Z</time>
      </trkpt>
      <trkpt lat="46.148992" lon="7.580841">
        <ele>2598.386675</ele>
        <time>2026-09-12T07:40:02.580Z</time>
      </trkpt>
      <trkpt lat="46.149069" lon="7.580585">
        <ele>2593.667487</ele>
        <time>2026-09-12T07:40:14.119Z</time>
      </trkpt>
      <trkpt lat="46.148981" lon="7.580550">
        <ele>2591.439550</ele>
        <time>2026-09-12T07:40:19.595Z</time>
      </trkpt>
      <trkpt lat="46.148857" lon="7.580692">
        <ele>2587.576180</ele>
        <time>2026-09-12T07:40:28.865Z</time>
      </trkpt>
      <trkpt lat="46.148625" lon="7.580852">
        <ele>2581.300421</ele>
        <time>2026-09-12T07:40:43.888Z</time>
      </trkpt>
      <trkpt lat="46.148575" lon="7.580842">
        <ele>2580.068369</ele>
        <time>2026-09-12T07:40:46.817Z</time>
      </trkpt>
      <trkpt lat="46.148576" lon="7.580753">
        <ele>2578.563222</ele>
        <time>2026-09-12T07:40:50.488Z</time>
      </trkpt>
      <trkpt lat="46.148639" lon="7.580510">
        <ele>2574.380216</ele>
        <time>2026-09-12T07:41:00.899Z</time>
      </trkpt>
      <trkpt lat="46.148635" lon="7.580372">
        <ele>2572.169007</ele>
        <time>2026-09-12T07:41:06.404Z</time>
      </trkpt>
      <trkpt lat="46.148483" lon="7.580030">
        <ele>2565.664013</ele>
        <time>2026-09-12T07:41:22.583Z</time>
      </trkpt>
      <trkpt lat="46.148437" lon="7.580041">
        <ele>2564.586539</ele>
        <time>2026-09-12T07:41:25.373Z</time>
      </trkpt>
      <trkpt lat="46.148361" lon="7.580153">
        <ele>2562.076685</ele>
        <time>2026-09-12T07:41:31.593Z</time>
      </trkpt>
      <trkpt lat="46.148237" lon="7.579916">
        <ele>2557.322023</ele>
        <time>2026-09-12T07:41:39.878Z</time>
      </trkpt>
      <trkpt lat="46.148172" lon="7.579949">
        <ele>2555.729777</ele>
        <time>2026-09-12T07:41:42.603Z</time>
      </trkpt>
      <trkpt lat="46.148117" lon="7.580037">
        <ele>2553.832376</ele>
        <time>2026-09-12T07:41:45.942Z</time>
      </trkpt>
      <trkpt lat="46.148043" lon="7.579931">
        <ele>2551.423234</ele>
        <time>2026-09-12T07:41:50.080Z</time>
      </trkpt>
      <trkpt lat="46.147751" lon="7.579855">
        <ele>2544.566769</ele>
        <time>2026-09-12T07:42:01.978Z</time>
      </trkpt>
      <trkpt lat="46.147458" lon="7.579681">
        <ele>2537.245361</ele>
        <time>2026-09-12T07:42:14.583Z</time>
      </trkpt>
      <trkpt lat="46.147361" lon="7.579680">
        <ele>2534.731172</ele>
        <time>2026-09-12T07:42:18.537Z</time>
      </trkpt>
      <trkpt lat="46.147174" lon="7.579613">
        <ele>2529.439247</ele>
        <time>2026-09-12T07:42:26.365Z</time>
      </trkpt>
      <trkpt lat="46.146941" lon="7.579492">
        <ele>2522.638180</ele>
        <time>2026-09-12T07:42:36.565Z</time>
      </trkpt>
      <trkpt lat="46.146833" lon="7.579540">
        <ele>2519.534464</ele>
        <time>2026-09-12T07:42:41.249Z</time>
      </trkpt>
      <trkpt lat="46.146752" lon="7.579393">
        <ele>2515.960446</ele>
        <time>2026-09-12T07:42:46.687Z</time>
      </trkpt>
      <trkpt lat="46.146636" lon="7.579288">
        <ele>2512.199779</ele>
        <time>2026-09-12T07:42:52.478Z</time>
      </trkpt>
      <trkpt lat="46.146599" lon="7.579156">
        <ele>2509.490221</ele>
        <time>2026-09-12T07:42:56.728Z</time>
      </trkpt>
      <trkpt lat="46.146440" lon="7.578911">
        <ele>2503.102327</ele>
        <time>2026-09-12T07:43:06.970Z</time>
      </trkpt>
      <trkpt lat="46.146375" lon="7.578875">
        <ele>2501.190149</ele>
        <time>2026-09-12T07:43:10.090Z</time>
      </trkpt>
      <trkpt lat="46.146315" lon="7.578753">
        <ele>2498.343216</ele>
        <time>2026-09-12T07:43:14.828Z</time>
      </trkpt>
      <trkpt lat="46.146185" lon="7.578583">
        <ele>2493.525223</ele>
        <time>2026-09-12T07:43:22.764Z</time>
      </trkpt>
      <trkpt lat="46.146038" lon="7.578191">
        <ele>2485.248034</ele>
        <time>2026-09-12T07:43:36.503Z</time>
      </trkpt>
      <trkpt lat="46.145871" lon="7.578058">
        <ele>2480.543953</ele>
        <time>2026-09-12T07:43:44.878Z</time>
      </trkpt>
      <trkpt lat="46.145766" lon="7.578048">
        <ele>2477.948715</ele>
        <time>2026-09-12T07:43:49.452Z</time>
      </trkpt>
      <trkpt lat="46.145536" lon="7.577835">
        <ele>2471.209030</ele>
        <time>2026-09-12T07:44:01.169Z</time>
      </trkpt>
      <trkpt lat="46.145433" lon="7.577599">
        <ele>2466.443033</ele>
        <time>2026-09-12T07:44:06.973Z</time>
      </trkpt>
      <trkpt lat="46.145372" lon="7.577569">
        <ele>2464.853659</ele>
        <time>2026-09-12T07:44:08.876Z</time>
      </trkpt>
      <trkpt lat="46.145292" lon="7.577517">
        <ele>2462.689782</ele>
        <time>2026-09-12T07:44:12.463Z</time>
      </trkpt>
      <trkpt lat="46.145161" lon="7.577598">
        <ele>2459.174957</ele>
        <time>2026-09-12T07:44:18.197Z</time>
      </trkpt>
      <trkpt lat="46.144694" lon="7.577606">
        <ele>2447.656561</ele>
        <time>2026-09-12T07:44:36.774Z</time>
      </trkpt>
      <trkpt lat="46.144107" lon="7.577458">
        <ele>2434.318033</ele>
        <time>2026-09-12T07:45:00.703Z</time>
      </trkpt>
      <trkpt lat="46.143747" lon="7.577132">
        <ele>2425.299404</ele>
        <time>2026-09-12T07:45:17.710Z</time>
      </trkpt>
      <trkpt lat="46.143572" lon="7.576800">
        <ele>2419.165992</ele>
        <time>2026-09-12T07:45:29.233Z</time>
      </trkpt>
      <trkpt lat="46.143523" lon="7.576795">
        <ele>2418.123578</ele>
        <time>2026-09-12T07:45:31.172Z</time>
      </trkpt>
      <trkpt lat="46.143372" lon="7.576950">
        <ele>2414.191476</ele>
        <time>2026-09-12T07:45:38.651Z</time>
      </trkpt>
      <trkpt lat="46.143234" lon="7.576978">
        <ele>2411.234212</ele>
        <time>2026-09-12T07:45:44.353Z</time>
      </trkpt>
      <trkpt lat="46.142931" lon="7.576825">
        <ele>2404.432153</ele>
        <time>2026-09-12T07:45:57.236Z</time>
      </trkpt>
      <trkpt lat="46.142839" lon="7.576816">
        <ele>2402.674387</ele>
        <time>2026-09-12T07:46:01.026Z</time>
      </trkpt>
      <trkpt lat="46.142699" lon="7.576698">
        <ele>2399.583903</ele>
        <time>2026-09-12T07:46:07.789Z</time>
      </trkpt>
      <trkpt lat="46.142585" lon="7.576695">
        <ele>2397.410427</ele>
        <time>2026-09-12T07:46:12.598Z</time>
      </trkpt>
      <trkpt lat="46.142417" lon="7.576547">
        <ele>2393.658504</ele>
        <time>2026-09-12T07:46:21.011Z</time>
      </trkpt>
      <trkpt lat="46.142245" lon="7.576469">
        <ele>2390.221729</ele>
        <time>2026-09-12T07:46:28.557Z</time>
      </trkpt>
      <trkpt lat="46.142184" lon="7.576550">
        <ele>2388.641647</ele>
        <time>2026-09-12T07:46:31.947Z</time>
      </trkpt>
      <trkpt lat="46.142165" lon="7.576625">
        <ele>2387.586926</ele>
        <time>2026-09-12T07:46:34.205Z</time>
      </trkpt>
      <trkpt lat="46.142100" lon="7.576647">
        <ele>2386.314254</ele>
        <time>2026-09-12T07:46:36.876Z</time>
      </trkpt>
      <trkpt lat="46.141582" lon="7.576590">
        <ele>2376.411267</ele>
        <time>2026-09-12T07:46:57.700Z</time>
      </trkpt>
      <trkpt lat="46.141479" lon="7.576670">
        <ele>2374.181574</ele>
        <time>2026-09-12T07:47:02.460Z</time>
      </trkpt>
      <trkpt lat="46.141394" lon="7.576683">
        <ele>2372.552196</ele>
        <time>2026-09-12T07:47:04.963Z</time>
      </trkpt>
      <trkpt lat="46.141320" lon="7.576747">
        <ele>2370.907692</ele>
        <time>2026-09-12T07:47:07.600Z</time>
      </trkpt>
      <trkpt lat="46.141230" lon="7.576939">
        <ele>2370.834513</ele>
        <time>2026-09-12T07:47:12.657Z</time>
      </trkpt>
      <trkpt lat="46.141211" lon="7.577219">
        <ele>2371.768957</ele>
        <time>2026-09-12T07:47:19.026Z</time>
      </trkpt>
      <trkpt lat="46.141179" lon="7.577328">
        <ele>2372.162147</ele>
        <time>2026-09-12T07:47:21.802Z</time>
      </trkpt>
      <trkpt lat="46.141138" lon="7.577368">
        <ele>2372.399377</ele>
        <time>2026-09-12T07:47:23.577Z</time>
      </trkpt>
      <trkpt lat="46.141088" lon="7.577440">
        <ele>2372.737956</ele>
        <time>2026-09-12T07:47:28.776Z</time>
      </trkpt>
      <trkpt lat="46.140931" lon="7.577822">
        <ele>2374.213155</ele>
        <time>2026-09-12T07:47:56.682Z</time>
      </trkpt>
      <trkpt lat="46.140743" lon="7.578063">
        <ele>2375.418519</ele>
        <time>2026-09-12T07:48:28.322Z</time>
      </trkpt>
      <trkpt lat="46.140204" lon="7.578721">
        <ele>2378.802639</ele>
        <time>2026-09-12T07:50:00.263Z</time>
      </trkpt>
      <trkpt lat="46.139742" lon="7.579090">
        <ele>2386.189282</ele>
        <time>2026-09-12T07:51:15.662Z</time>
      </trkpt>
      <trkpt lat="46.139541" lon="7.579222">
        <ele>2389.322217</ele>
        <time>2026-09-12T07:51:47.340Z</time>
      </trkpt>
      <trkpt lat="46.139314" lon="7.579461">
        <ele>2393.308584</ele>
        <time>2026-09-12T07:52:27.118Z</time>
      </trkpt>
      <trkpt lat="46.139220" lon="7.579496">
        <ele>2394.685830</ele>
        <time>2026-09-12T07:52:40.720Z</time>
      </trkpt>
      <trkpt lat="46.138981" lon="7.579461">
        <ele>2398.093934</ele>
        <time>2026-09-12T07:53:14.846Z</time>
      </trkpt>
      <trkpt lat="46.138803" lon="7.579513">
        <ele>2400.670438</ele>
        <time>2026-09-12T07:53:40.786Z</time>
      </trkpt>
      <trkpt lat="46.138698" lon="7.579571">
        <ele>2402.265461</ele>
        <time>2026-09-12T07:53:57.297Z</time>
      </trkpt>
      <trkpt lat="46.138537" lon="7.579721">
        <ele>2405.050035</ele>
        <time>2026-09-12T07:54:25.055Z</time>
      </trkpt>
      <trkpt lat="46.138359" lon="7.579753">
        <ele>2407.869159</ele>
        <time>2026-09-12T07:54:50.810Z</time>
      </trkpt>
      <trkpt lat="46.138082" lon="7.579961">
        <ele>2412.776618</ele>
        <time>2026-09-12T07:55:35.259Z</time>
      </trkpt>
      <trkpt lat="46.137850" lon="7.580035">
        <ele>2416.510795</ele>
        <time>2026-09-12T07:56:10.564Z</time>
      </trkpt>
      <trkpt lat="46.137398" lon="7.580084">
        <ele>2423.634580</ele>
        <time>2026-09-12T07:57:21.368Z</time>
      </trkpt>
      <trkpt lat="46.137125" lon="7.580284">
        <ele>2428.446317</ele>
        <time>2026-09-12T07:58:09.550Z</time>
      </trkpt>
      <trkpt lat="46.137114" lon="7.580344">
        <ele>2429.122222</ele>
        <time>2026-09-12T07:58:16.208Z</time>
      </trkpt>
      <trkpt lat="46.137064" lon="7.580378">
        <ele>2429.990904</ele>
        <time>2026-09-12T07:58:24.924Z</time>
      </trkpt>
      <trkpt lat="46.136964" lon="7.580398">
        <ele>2431.577555</ele>
        <time>2026-09-12T07:58:40.695Z</time>
      </trkpt>
      <trkpt lat="46.136917" lon="7.580355">
        <ele>2432.452153</ele>
        <time>2026-09-12T07:58:49.323Z</time>
      </trkpt>
      <trkpt lat="46.136765" lon="7.580341">
        <ele>2434.005280</ele>
        <time>2026-09-12T07:59:12.603Z</time>
      </trkpt>
      <trkpt lat="46.136407" lon="7.580429">
        <ele>2437.536436</ele>
        <time>2026-09-12T08:00:04.309Z</time>
      </trkpt>
      <trkpt lat="46.136375" lon="7.580450">
        <ele>2437.878250</ele>
        <time>2026-09-12T08:00:08.952Z</time>
      </trkpt>
      <trkpt lat="46.136300" lon="7.580597">
        <ele>2439.108228</ele>
        <time>2026-09-12T08:00:25.615Z</time>
      </trkpt>
      <trkpt lat="46.136171" lon="7.580620">
        <ele>2440.372099</ele>
        <time>2026-09-12T08:00:42.299Z</time>
      </trkpt>
      <trkpt lat="46.136105" lon="7.580737">
        <ele>2441.388620</ele>
        <time>2026-09-12T08:00:55.338Z</time>
      </trkpt>
      <trkpt lat="46.135981" lon="7.580852">
        <ele>2442.821853</ele>
        <time>2026-09-12T08:01:12.437Z</time>
      </trkpt>
      <trkpt lat="46.135764" lon="7.580737">
        <ele>2445.069635</ele>
        <time>2026-09-12T08:01:36.605Z</time>
      </trkpt>
      <trkpt lat="46.135715" lon="7.580796">
        <ele>2445.690153</ele>
        <time>2026-09-12T08:01:42.777Z</time>
      </trkpt>
      <trkpt lat="46.135608" lon="7.580851">
        <ele>2446.794599</ele>
        <time>2026-09-12T08:01:53.626Z</time>
      </trkpt>
      <trkpt lat="46.135475" lon="7.580840">
        <ele>2448.089950</ele>
        <time>2026-09-12T08:02:05.707Z</time>
      </trkpt>
      <trkpt lat="46.135331" lon="7.580733">
        <ele>2449.664850</ele>
        <time>2026-09-12T08:02:19.636Z</time>
      </trkpt>
      <trkpt lat="46.135283" lon="7.580726">
        <ele>2450.132695</ele>
        <time>2026-09-12T08:02:23.575Z</time>
      </trkpt>
      <trkpt lat="46.135195" lon="7.580795">
        <ele>2450.751760</ele>
        <time>2026-09-12T08:02:31.802Z</time>
      </trkpt>
      <trkpt lat="46.135145" lon="7.580873">
        <ele>2451.206895</ele>
        <time>2026-09-12T08:02:37.588Z</time>
      </trkpt>
      <trkpt lat="46.135084" lon="7.580863">
        <ele>2451.586381</ele>
        <time>2026-09-12T08:02:42.465Z</time>
      </trkpt>
      <trkpt lat="46.134993" lon="7.580717">
        <ele>2452.427514</ele>
        <time>2026-09-12T08:02:53.003Z</time>
      </trkpt>
      <trkpt lat="46.134911" lon="7.580670">
        <ele>2452.972899</ele>
        <time>2026-09-12T08:02:59.661Z</time>
      </trkpt>
      <trkpt lat="46.134657" lon="7.580738">
        <ele>2454.569745</ele>
        <time>2026-09-12T08:03:20.018Z</time>
      </trkpt>
      <trkpt lat="46.134550" lon="7.580724">
        <ele>2455.233859</ele>
        <time>2026-09-12T08:03:28.861Z</time>
      </trkpt>
      <trkpt lat="46.134401" lon="7.580801">
        <ele>2456.212152</ele>
        <time>2026-09-12T08:03:42.244Z</time>
      </trkpt>
      <trkpt lat="46.134368" lon="7.580872">
        <ele>2456.578351</ele>
        <time>2026-09-12T08:03:47.358Z</time>
      </trkpt>
      <trkpt lat="46.134217" lon="7.581020">
        <ele>2457.706666</ele>
        <time>2026-09-12T08:04:04.085Z</time>
      </trkpt>
      <trkpt lat="46.134103" lon="7.581050">
        <ele>2458.422958</ele>
        <time>2026-09-12T08:04:15.549Z</time>
      </trkpt>
      <trkpt lat="46.133908" lon="7.580879">
        <ele>2459.833422</ele>
        <time>2026-09-12T08:04:41.346Z</time>
      </trkpt>
      <trkpt lat="46.133834" lon="7.580909">
        <ele>2460.308548</ele>
        <time>2026-09-12T08:04:51.346Z</time>
      </trkpt>
      <trkpt lat="46.133844" lon="7.580806">
        <ele>2460.754058</ele>
        <time>2026-09-12T08:05:00.958Z</time>
      </trkpt>
      <trkpt lat="46.133813" lon="7.580767">
        <ele>2461.008276</ele>
        <time>2026-09-12T08:05:06.669Z</time>
      </trkpt>
      <trkpt lat="46.133679" lon="7.580777">
        <ele>2463.188079</ele>
        <time>2026-09-12T08:05:25.565Z</time>
      </trkpt>
      <trkpt lat="46.133578" lon="7.580886">
        <ele>2465.754456</ele>
        <time>2026-09-12T08:05:44.235Z</time>
      </trkpt>
      <trkpt lat="46.133423" lon="7.580935">
        <ele>2468.983278</ele>
        <time>2026-09-12T08:06:09.279Z</time>
      </trkpt>
      <trkpt lat="46.133276" lon="7.581134">
        <ele>2473.084726</ele>
        <time>2026-09-12T08:06:44.360Z</time>
      </trkpt>
      <trkpt lat="46.133045" lon="7.581042">
        <ele>2477.960980</ele>
        <time>2026-09-12T08:07:30.491Z</time>
      </trkpt>
      <trkpt lat="46.132828" lon="7.580894">
        <ele>2482.844969</ele>
        <time>2026-09-12T08:08:19.662Z</time>
      </trkpt>
      <trkpt lat="46.132989" lon="7.581156">
        <ele>2487.782837</ele>
        <time>2026-09-12T08:09:10.090Z</time>
      </trkpt>
      <trkpt lat="46.132796" lon="7.581038">
        <ele>2492.048066</ele>
        <time>2026-09-12T08:09:54.593Z</time>
      </trkpt>
      <trkpt lat="46.132612" lon="7.580970">
        <ele>2495.913036</ele>
        <time>2026-09-12T08:10:34.840Z</time>
      </trkpt>
      <trkpt lat="46.132526" lon="7.580863">
        <ele>2498.184132</ele>
        <time>2026-09-12T08:10:58.705Z</time>
      </trkpt>
      <trkpt lat="46.132374" lon="7.580894">
        <ele>2500.978867</ele>
        <time>2026-09-12T08:11:30.679Z</time>
      </trkpt>
      <trkpt lat="46.132024" lon="7.580563">
        <ele>2508.597289</ele>
        <time>2026-09-12T08:12:55.501Z</time>
      </trkpt>
      <trkpt lat="46.131924" lon="7.580513">
        <ele>2510.524029</ele>
        <time>2026-09-12T08:13:16.279Z</time>
      </trkpt>
      <trkpt lat="46.131861" lon="7.580514">
        <ele>2511.671044</ele>
        <time>2026-09-12T08:13:28.605Z</time>
      </trkpt>
      <trkpt lat="46.131768" lon="7.580595">
        <ele>2513.648659</ele>
        <time>2026-09-12T08:13:49.263Z</time>
      </trkpt>
      <trkpt lat="46.131627" lon="7.580568">
        <ele>2516.238135</ele>
        <time>2026-09-12T08:14:15.060Z</time>
      </trkpt>
      <trkpt lat="46.131522" lon="7.580618">
        <ele>2518.251107</ele>
        <time>2026-09-12T08:14:33.743Z</time>
      </trkpt>
      <trkpt lat="46.131434" lon="7.580545">
        <ele>2520.099057</ele>
        <time>2026-09-12T08:14:49.848Z</time>
      </trkpt>
      <trkpt lat="46.131233" lon="7.580611">
        <ele>2523.851903</ele>
        <time>2026-09-12T08:15:20.628Z</time>
      </trkpt>
      <trkpt lat="46.130768" lon="7.580424">
        <ele>2530.853931</ele>
        <time>2026-09-12T08:16:22.514Z</time>
      </trkpt>
      <trkpt lat="46.130662" lon="7.580414">
        <ele>2531.100099</ele>
        <time>2026-09-12T08:16:33.863Z</time>
      </trkpt>
      <trkpt lat="46.130589" lon="7.580343">
        <ele>2531.304109</ele>
        <time>2026-09-12T08:16:42.698Z</time>
      </trkpt>
      <trkpt lat="46.130268" lon="7.580310">
        <ele>2532.049878</ele>
        <time>2026-09-12T08:17:12.310Z</time>
      </trkpt>
      <trkpt lat="46.130158" lon="7.580220">
        <ele>2532.342918</ele>
        <time>2026-09-12T08:17:22.858Z</time>
      </trkpt>
      <trkpt lat="46.130047" lon="7.580067">
        <ele>2532.698651</ele>
        <time>2026-09-12T08:17:34.947Z</time>
      </trkpt>
      <trkpt lat="46.129984" lon="7.579901">
        <ele>2533.002606</ele>
        <time>2026-09-12T08:17:44.891Z</time>
      </trkpt>
      <trkpt lat="46.129872" lon="7.579710">
        <ele>2533.404427</ele>
        <time>2026-09-12T08:17:57.501Z</time>
      </trkpt>
      <trkpt lat="46.129667" lon="7.579560">
        <ele>2533.937082</ele>
        <time>2026-09-12T08:18:13.417Z</time>
      </trkpt>
      <trkpt lat="46.129123" lon="7.579364">
        <ele>2533.990179</ele>
        <time>2026-09-12T08:18:51.896Z</time>
      </trkpt>
      <trkpt lat="46.128928" lon="7.579179">
        <ele>2533.111668</ele>
        <time>2026-09-12T08:19:07.853Z</time>
      </trkpt>
      <trkpt lat="46.128835" lon="7.579182">
        <ele>2532.761491</ele>
        <time>2026-09-12T08:19:14.111Z</time>
      </trkpt>
      <trkpt lat="46.128690" lon="7.579077">
        <ele>2532.150772</ele>
        <time>2026-09-12T08:19:25.131Z</time>
      </trkpt>
      <trkpt lat="46.127890" lon="7.579002">
        <ele>2529.132902</ele>
        <time>2026-09-12T08:20:18.871Z</time>
      </trkpt>
      <trkpt lat="46.127567" lon="7.578895">
        <ele>2527.939646</ele>
        <time>2026-09-12T08:20:41.332Z</time>
      </trkpt>
      <trkpt lat="46.127028" lon="7.578662">
        <ele>2526.912387</ele>
        <time>2026-09-12T08:21:21.200Z</time>
      </trkpt>
      <trkpt lat="46.126749" lon="7.578632">
        <ele>2526.401608</ele>
        <time>2026-09-12T08:21:41.925Z</time>
      </trkpt>
      <trkpt lat="46.126518" lon="7.578659">
        <ele>2525.978493</ele>
        <time>2026-09-12T08:21:59.146Z</time>
      </trkpt>
      <trkpt lat="46.126169" lon="7.578787">
        <ele>2525.321066</ele>
        <time>2026-09-12T08:22:25.769Z</time>
      </trkpt>
      <trkpt lat="46.125660" lon="7.578866">
        <ele>2524.564060</ele>
        <time>2026-09-12T08:23:02.009Z</time>
      </trkpt>
      <trkpt lat="46.125199" lon="7.578621">
        <ele>2524.164123</ele>
        <time>2026-09-12T08:23:34.682Z</time>
      </trkpt>
      <trkpt lat="46.124927" lon="7.578643">
        <ele>2523.942348</ele>
        <time>2026-09-12T08:23:52.610Z</time>
      </trkpt>
      <trkpt lat="46.124513" lon="7.578587">
        <ele>2523.603844</ele>
        <time>2026-09-12T08:24:21.077Z</time>
      </trkpt>
      <trkpt lat="46.124358" lon="7.578485">
        <ele>2523.465157</ele>
        <time>2026-09-12T08:24:33.945Z</time>
      </trkpt>
      <trkpt lat="46.124215" lon="7.578454">
        <ele>2523.347438</ele>
        <time>2026-09-12T08:24:46.236Z</time>
      </trkpt>
      <trkpt lat="46.123989" lon="7.578467">
        <ele>2524.220272</ele>
        <time>2026-09-12T08:25:09.039Z</time>
      </trkpt>
      <trkpt lat="46.123893" lon="7.578373">
        <ele>2525.382092</ele>
        <time>2026-09-12T08:25:22.935Z</time>
      </trkpt>
      <trkpt lat="46.123797" lon="7.578380">
        <ele>2526.344658</ele>
        <time>2026-09-12T08:25:35.307Z</time>
      </trkpt>
      <trkpt lat="46.123624" lon="7.578501">
        <ele>2528.269900</ele>
        <time>2026-09-12T08:26:01.774Z</time>
      </trkpt>
      <trkpt lat="46.123655" lon="7.578568">
        <ele>2528.829023</ele>
        <time>2026-09-12T08:26:09.914Z</time>
      </trkpt>
      <trkpt lat="46.123410" lon="7.578782">
        <ele>2531.697020</ele>
        <time>2026-09-12T08:26:53.462Z</time>
      </trkpt>
      <trkpt lat="46.123359" lon="7.578919">
        <ele>2532.776373</ele>
        <time>2026-09-12T08:27:10.098Z</time>
      </trkpt>
      <trkpt lat="46.123235" lon="7.579034">
        <ele>2534.252514</ele>
        <time>2026-09-12T08:27:32.092Z</time>
      </trkpt>
      <trkpt lat="46.123109" lon="7.579250">
        <ele>2536.212016</ele>
        <time>2026-09-12T08:27:59.547Z</time>
      </trkpt>
      <trkpt lat="46.122968" lon="7.579370">
        <ele>2537.851333</ele>
        <time>2026-09-12T08:28:20.712Z</time>
      </trkpt>
      <trkpt lat="46.122805" lon="7.579579">
        <ele>2540.035053</ele>
        <time>2026-09-12T08:28:45.539Z</time>
      </trkpt>
      <trkpt lat="46.122716" lon="7.579596">
        <ele>2540.934071</ele>
        <time>2026-09-12T08:28:54.570Z</time>
      </trkpt>
      <trkpt lat="46.122686" lon="7.579542">
        <ele>2541.146307</ele>
        <time>2026-09-12T08:28:59.220Z</time>
      </trkpt>
      <trkpt lat="46.122675" lon="7.579311">
        <ele>2540.062583</ele>
        <time>2026-09-12T08:29:13.274Z</time>
      </trkpt>
      <trkpt lat="46.122633" lon="7.579152">
        <ele>2539.266185</ele>
        <time>2026-09-12T08:29:22.529Z</time>
      </trkpt>
      <trkpt lat="46.122202" lon="7.578791">
        <ele>2535.900863</ele>
        <time>2026-09-12T08:29:55.371Z</time>
      </trkpt>
      <trkpt lat="46.122135" lon="7.578723">
        <ele>2535.347699</ele>
        <time>2026-09-12T08:30:00.238Z</time>
      </trkpt>
      <trkpt lat="46.122059" lon="7.578580">
        <ele>2534.504283</ele>
        <time>2026-09-12T08:30:07.552Z</time>
      </trkpt>
      <trkpt lat="46.121737" lon="7.578412">
        <ele>2532.192100</ele>
        <time>2026-09-12T08:30:27.529Z</time>
      </trkpt>
      <trkpt lat="46.121492" lon="7.578417">
        <ele>2530.537521</ele>
        <time>2026-09-12T08:30:41.819Z</time>
      </trkpt>
      <trkpt lat="46.121321" lon="7.578313">
        <ele>2529.284401</ele>
        <time>2026-09-12T08:30:52.613Z</time>
      </trkpt>
      <trkpt lat="46.120695" lon="7.577831">
        <ele>2522.185229</ele>
        <time>2026-09-12T08:31:34.138Z</time>
      </trkpt>
      <trkpt lat="46.120603" lon="7.577679">
        <ele>2520.768501</ele>
        <time>2026-09-12T08:31:42.338Z</time>
      </trkpt>
      <trkpt lat="46.120544" lon="7.577647">
        <ele>2520.130071</ele>
        <time>2026-09-12T08:31:46.018Z</time>
      </trkpt>
      <trkpt lat="46.120444" lon="7.577460">
        <ele>2518.471901</ele>
        <time>2026-09-12T08:31:55.644Z</time>
      </trkpt>
      <trkpt lat="46.120142" lon="7.577165">
        <ele>2514.777823</ele>
        <time>2026-09-12T08:32:17.618Z</time>
      </trkpt>
      <trkpt lat="46.119926" lon="7.577135">
        <ele>2512.579901</ele>
        <time>2026-09-12T08:32:31.225Z</time>
      </trkpt>
      <trkpt lat="46.119742" lon="7.577046">
        <ele>2510.750255</ele>
        <time>2026-09-12T08:32:43.771Z</time>
      </trkpt>
      <trkpt lat="46.119620" lon="7.576973">
        <ele>2510.070853</ele>
        <time>2026-09-12T08:32:52.511Z</time>
      </trkpt>
      <trkpt lat="46.119551" lon="7.576926">
        <ele>2509.678345</ele>
        <time>2026-09-12T08:32:57.644Z</time>
      </trkpt>
      <trkpt lat="46.119264" lon="7.576878">
        <ele>2508.192135</ele>
        <time>2026-09-12T08:33:17.440Z</time>
      </trkpt>
      <trkpt lat="46.118394" lon="7.577049">
        <ele>2503.675529</ele>
        <time>2026-09-12T08:34:17.143Z</time>
      </trkpt>
      <trkpt lat="46.117985" lon="7.576867">
        <ele>2501.451581</ele>
        <time>2026-09-12T08:34:45.052Z</time>
      </trkpt>
      <trkpt lat="46.117390" lon="7.576781">
        <ele>2497.959790</ele>
        <time>2026-09-12T08:35:22.555Z</time>
      </trkpt>
      <trkpt lat="46.117212" lon="7.576682">
        <ele>2496.845818</ele>
        <time>2026-09-12T08:35:34.284Z</time>
      </trkpt>
      <trkpt lat="46.117122" lon="7.576685">
        <ele>2496.320139</ele>
        <time>2026-09-12T08:35:39.822Z</time>
      </trkpt>
      <trkpt lat="46.117003" lon="7.576620">
        <ele>2495.577118</ele>
        <time>2026-09-12T08:35:47.697Z</time>
      </trkpt>
      <trkpt lat="46.116914" lon="7.576701">
        <ele>2494.962638</ele>
        <time>2026-09-12T08:35:54.246Z</time>
      </trkpt>
      <trkpt lat="46.116806" lon="7.576711">
        <ele>2494.330694</ele>
        <time>2026-09-12T08:36:01.001Z</time>
      </trkpt>
      <trkpt lat="46.116475" lon="7.576915">
        <ele>2492.228877</ele>
        <time>2026-09-12T08:36:24.506Z</time>
      </trkpt>
      <trkpt lat="46.116278" lon="7.577082">
        <ele>2491.266996</ele>
        <time>2026-09-12T08:36:40.564Z</time>
      </trkpt>
      <trkpt lat="46.115795" lon="7.577199">
        <ele>2492.827138</ele>
        <time>2026-09-12T08:37:18.924Z</time>
      </trkpt>
      <trkpt lat="46.115616" lon="7.577291">
        <ele>2493.432454</ele>
        <time>2026-09-12T08:37:35.386Z</time>
      </trkpt>
      <trkpt lat="46.115416" lon="7.577446">
        <ele>2494.155676</ele>
        <time>2026-09-12T08:37:55.986Z</time>
      </trkpt>
      <trkpt lat="46.115386" lon="7.577548">
        <ele>2494.400350</ele>
        <time>2026-09-12T08:38:03.075Z</time>
      </trkpt>
      <trkpt lat="46.115241" lon="7.577682">
        <ele>2494.948902</ele>
        <time>2026-09-12T08:38:19.217Z</time>
      </trkpt>
      <trkpt lat="46.115170" lon="7.577784">
        <ele>2495.268098</ele>
        <time>2026-09-12T08:38:28.695Z</time>
      </trkpt>
      <trkpt lat="46.115036" lon="7.578181">
        <ele>2496.243165</ele>
        <time>2026-09-12T08:38:58.376Z</time>
      </trkpt>
      <trkpt lat="46.114869" lon="7.578364">
        <ele>2496.914414</ele>
        <time>2026-09-12T08:39:18.860Z</time>
      </trkpt>
      <trkpt lat="46.114724" lon="7.578396">
        <ele>2497.414013</ele>
        <time>2026-09-12T08:39:32.884Z</time>
      </trkpt>
      <trkpt lat="46.114601" lon="7.578498">
        <ele>2497.897224</ele>
        <time>2026-09-12T08:39:45.950Z</time>
      </trkpt>
      <trkpt lat="46.114482" lon="7.578734">
        <ele>2498.586238</ele>
        <time>2026-09-12T08:40:03.843Z</time>
      </trkpt>
      <trkpt lat="46.114345" lon="7.578839">
        <ele>2499.114612</ele>
        <time>2026-09-12T08:40:17.113Z</time>
      </trkpt>
      <trkpt lat="46.114144" lon="7.579056">
        <ele>2499.969685</ele>
        <time>2026-09-12T08:40:37.812Z</time>
      </trkpt>
      <trkpt lat="46.113802" lon="7.579345">
        <ele>2501.319639</ele>
        <time>2026-09-12T08:41:08.945Z</time>
      </trkpt>
      <trkpt lat="46.113623" lon="7.579426">
        <ele>2501.958584</ele>
        <time>2026-09-12T08:41:23.712Z</time>
      </trkpt>
      <trkpt lat="46.113478" lon="7.579560">
        <ele>2502.545089</ele>
        <time>2026-09-12T08:41:37.754Z</time>
      </trkpt>
      <trkpt lat="46.113222" lon="7.579721">
        <ele>2503.495876</ele>
        <time>2026-09-12T08:42:01.404Z</time>
      </trkpt>
      <trkpt lat="46.113151" lon="7.579887">
        <ele>2503.956062</ele>
        <time>2026-09-12T08:42:13.098Z</time>
      </trkpt>
      <trkpt lat="46.113065" lon="7.580011">
        <ele>2504.369888</ele>
        <time>2026-09-12T08:42:23.730Z</time>
      </trkpt>
      <trkpt lat="46.112779" lon="7.580204">
        <ele>2505.444478</ele>
        <time>2026-09-12T08:42:51.993Z</time>
      </trkpt>
      <trkpt lat="46.112419" lon="7.580545">
        <ele>2506.910207</ele>
        <time>2026-09-12T08:43:31.562Z</time>
      </trkpt>
      <trkpt lat="46.112273" lon="7.580649">
        <ele>2507.464373</ele>
        <time>2026-09-12T08:43:46.412Z</time>
      </trkpt>
      <trkpt lat="46.112233" lon="7.580722">
        <ele>2507.683908</ele>
        <time>2026-09-12T08:43:52.221Z</time>
      </trkpt>
      <trkpt lat="46.112150" lon="7.580751">
        <ele>2507.974551</ele>
        <time>2026-09-12T08:43:59.585Z</time>
      </trkpt>
      <trkpt lat="46.111983" lon="7.581191">
        <ele>2509.062204</ele>
        <time>2026-09-12T08:44:28.233Z</time>
      </trkpt>
      <trkpt lat="46.111850" lon="7.581301">
        <ele>2508.487233</ele>
        <time>2026-09-12T08:44:40.151Z</time>
      </trkpt>
      <trkpt lat="46.111522" lon="7.581368">
        <ele>2507.244844</ele>
        <time>2026-09-12T08:45:04.327Z</time>
      </trkpt>
      <trkpt lat="46.111477" lon="7.581395">
        <ele>2507.062060</ele>
        <time>2026-09-12T08:45:07.754Z</time>
      </trkpt>
      <trkpt lat="46.111415" lon="7.581494">
        <ele>2506.715190</ele>
        <time>2026-09-12T08:45:14.332Z</time>
      </trkpt>
      <trkpt lat="46.111136" lon="7.581623">
        <ele>2505.616401</ele>
        <time>2026-09-12T08:45:34.690Z</time>
      </trkpt>
      <trkpt lat="46.110789" lon="7.581609">
        <ele>2504.314518</ele>
        <time>2026-09-12T08:45:58.994Z</time>
      </trkpt>
      <trkpt lat="46.110518" lon="7.581791">
        <ele>2503.193413</ele>
        <time>2026-09-12T08:46:18.590Z</time>
      </trkpt>
      <trkpt lat="46.110306" lon="7.582403">
        <ele>2497.628459</ele>
        <time>2026-09-12T08:46:46.384Z</time>
      </trkpt>
      <trkpt lat="46.110292" lon="7.582562">
        <ele>2495.554891</ele>
        <time>2026-09-12T08:46:52.858Z</time>
      </trkpt>
      <trkpt lat="46.110220" lon="7.582634">
        <ele>2493.919965</ele>
        <time>2026-09-12T08:46:57.916Z</time>
      </trkpt>
      <trkpt lat="46.109945" lon="7.582575">
        <ele>2488.731643</ele>
        <time>2026-09-12T08:47:14.026Z</time>
      </trkpt>
      <trkpt lat="46.109822" lon="7.582484">
        <ele>2486.151979</ele>
        <time>2026-09-12T08:47:21.986Z</time>
      </trkpt>
      <trkpt lat="46.109719" lon="7.582530">
        <ele>2484.139839</ele>
        <time>2026-09-12T08:47:28.228Z</time>
      </trkpt>
      <trkpt lat="46.109552" lon="7.582358">
        <ele>2480.310481</ele>
        <time>2026-09-12T08:47:40.016Z</time>
      </trkpt>
      <trkpt lat="46.109480" lon="7.582355">
        <ele>2478.966305</ele>
        <time>2026-09-12T08:47:44.095Z</time>
      </trkpt>
      <trkpt lat="46.109369" lon="7.582199">
        <ele>2476.074226</ele>
        <time>2026-09-12T08:47:53.113Z</time>
      </trkpt>
      <trkpt lat="46.109314" lon="7.582063">
        <ele>2474.037235</ele>
        <time>2026-09-12T08:47:59.596Z</time>
      </trkpt>
      <trkpt lat="46.109477" lon="7.581802">
        <ele>2469.492489</ele>
        <time>2026-09-12T08:48:14.465Z</time>
      </trkpt>
      <trkpt lat="46.109581" lon="7.581172">
        <ele>2459.140108</ele>
        <time>2026-09-12T08:48:41.626Z</time>
      </trkpt>
      <trkpt lat="46.109577" lon="7.581024">
        <ele>2456.731915</ele>
        <time>2026-09-12T08:48:47.692Z</time>
      </trkpt>
      <trkpt lat="46.109521" lon="7.580992">
        <ele>2455.319266</ele>
        <time>2026-09-12T08:48:51.248Z</time>
      </trkpt>
      <trkpt lat="46.109068" lon="7.581137">
        <ele>2444.436807</ele>
        <time>2026-09-12T08:49:18.320Z</time>
      </trkpt>
      <trkpt lat="46.108956" lon="7.581212">
        <ele>2441.540853</ele>
        <time>2026-09-12T08:49:25.374Z</time>
      </trkpt>
      <trkpt lat="46.108737" lon="7.581484">
        <ele>2434.763040</ele>
        <time>2026-09-12T08:49:41.912Z</time>
      </trkpt>
      <trkpt lat="46.108621" lon="7.581700">
        <ele>2430.320563</ele>
        <time>2026-09-12T08:49:52.792Z</time>
      </trkpt>
      <trkpt lat="46.108533" lon="7.581741">
        <ele>2428.151742</ele>
        <time>2026-09-12T08:49:58.119Z</time>
      </trkpt>
      <trkpt lat="46.108559" lon="7.581414">
        <ele>2423.351151</ele>
        <time>2026-09-12T08:50:11.215Z</time>
      </trkpt>
      <trkpt lat="46.108503" lon="7.581140">
        <ele>2419.376765</ele>
        <time>2026-09-12T08:50:22.560Z</time>
      </trkpt>
      <trkpt lat="46.108417" lon="7.581341">
        <ele>2416.090552</ele>
        <time>2026-09-12T08:50:31.958Z</time>
      </trkpt>
      <trkpt lat="46.108368" lon="7.581041">
        <ele>2411.802344</ele>
        <time>2026-09-12T08:50:44.225Z</time>
      </trkpt>
      <trkpt lat="46.108417" lon="7.580703">
        <ele>2406.997995</ele>
        <time>2026-09-12T08:50:57.963Z</time>
      </trkpt>
      <trkpt lat="46.108394" lon="7.580590">
        <ele>2405.359457</ele>
        <time>2026-09-12T08:51:02.629Z</time>
      </trkpt>
      <trkpt lat="46.108347" lon="7.580641">
        <ele>2404.179154</ele>
        <time>2026-09-12T08:51:06.047Z</time>
      </trkpt>
      <trkpt lat="46.108290" lon="7.580536">
        <ele>2402.323719</ele>
        <time>2026-09-12T08:51:11.348Z</time>
      </trkpt>
      <trkpt lat="46.108165" lon="7.580405">
        <ele>2399.222978</ele>
        <time>2026-09-12T08:51:20.274Z</time>
      </trkpt>
      <trkpt lat="46.108172" lon="7.580143">
        <ele>2395.575016</ele>
        <time>2026-09-12T08:51:30.797Z</time>
      </trkpt>
      <trkpt lat="46.108041" lon="7.580059">
        <ele>2392.698021</ele>
        <time>2026-09-12T08:51:39.060Z</time>
      </trkpt>
      <trkpt lat="46.107654" lon="7.580370">
        <ele>2385.207420</ele>
        <time>2026-09-12T08:52:04.628Z</time>
      </trkpt>
      <trkpt lat="46.107507" lon="7.580394">
        <ele>2382.857358</ele>
        <time>2026-09-12T08:52:13.197Z</time>
      </trkpt>
      <trkpt lat="46.107454" lon="7.580440">
        <ele>2381.874760</ele>
        <time>2026-09-12T08:52:16.753Z</time>
      </trkpt>
      <trkpt lat="46.107197" lon="7.580520">
        <ele>2377.698225</ele>
        <time>2026-09-12T08:52:31.973Z</time>
      </trkpt>
      <trkpt lat="46.107160" lon="7.580590">
        <ele>2376.728783</ele>
        <time>2026-09-12T08:52:35.504Z</time>
      </trkpt>
      <trkpt lat="46.107096" lon="7.580563">
        <ele>2375.669523</ele>
        <time>2026-09-12T08:52:39.320Z</time>
      </trkpt>
      <trkpt lat="46.107022" lon="7.580660">
        <ele>2374.081086</ele>
        <time>2026-09-12T08:52:45.113Z</time>
      </trkpt>
      <trkpt lat="46.106940" lon="7.580665">
        <ele>2372.777321</ele>
        <time>2026-09-12T08:52:49.863Z</time>
      </trkpt>
      <trkpt lat="46.106747" lon="7.580799">
        <ele>2369.374727</ele>
        <time>2026-09-12T08:53:02.299Z</time>
      </trkpt>
      <trkpt lat="46.106624" lon="7.580971">
        <ele>2366.653284</ele>
        <time>2026-09-12T08:53:12.225Z</time>
      </trkpt>
      <trkpt lat="46.106535" lon="7.580953">
        <ele>2365.225654</ele>
        <time>2026-09-12T08:53:17.434Z</time>
      </trkpt>
      <trkpt lat="46.106487" lon="7.580851">
        <ele>2363.867931</ele>
        <time>2026-09-12T08:53:22.442Z</time>
      </trkpt>
      <trkpt lat="46.106524" lon="7.580754">
        <ele>2362.648596</ele>
        <time>2026-09-12T08:53:26.925Z</time>
      </trkpt>
      <trkpt lat="46.106509" lon="7.580588">
        <ele>2361.951579</ele>
        <time>2026-09-12T08:53:33.736Z</time>
      </trkpt>
      <trkpt lat="46.106431" lon="7.580502">
        <ele>2361.951579</ele>
        <time>2026-09-12T08:53:39.486Z</time>
      </trkpt>
      <trkpt lat="46.106390" lon="7.580202">
        <ele>2361.951579</ele>
        <time>2026-09-12T08:53:52.070Z</time>
      </trkpt>
      <trkpt lat="46.106264" lon="7.580105">
        <ele>2361.951579</ele>
        <time>2026-09-12T08:54:00.838Z</time>
      </trkpt>
      <trkpt lat="46.106234" lon="7.580030">
        <ele>2361.951579</ele>
        <time>2026-09-12T08:54:04.552Z</time>
      </trkpt>
      <trkpt lat="46.106122" lon="7.579894">
        <ele>2361.951579</ele>
        <time>2026-09-12T08:54:13.810Z</time>
      </trkpt>
      <trkpt lat="46.106016" lon="7.580272">
        <ele>2361.951579</ele>
        <time>2026-09-12T08:54:26.644Z</time>
      </trkpt>
      <trkpt lat="46.106022" lon="7.580317">
        <ele>2361.951579</ele>
        <time>2026-09-12T08:54:28.124Z</time>
      </trkpt>
    </trkseg>
  </trk>
</gpx>