<?xml version='1.0' encoding='UTF-8'?>
<gpx version="1.1" creator="https://www.komoot.de" xmlns="http://www.topografix.com/GPX/1/1" xmlns:xsi="http://www.w3.org/2001/XMLSchema-instance" xsi:schemaLocation="http://www.topografix.com/GPX/1/1 http://www.topografix.com/GPX/1/1/gpx.xsd">
  <metadata>
    <name>Bendolla > Cabane des Becs de Bosson</name>
    <author>
      <link href="https://www.komoot.de">
        <text>komoot</text>
        <type>text/html</type>
      </link>
    </author>
  </metadata>
  <wpt lat="46.180209" lon="7.558163">
    <name>Bendolla (2,130 m)</name>
    <sym>Fishing Hot Spot Facility</sym>
  </wpt>
  <trk>
    <name>Bendolla > Cabane des Becs de Bosson</name>
    <type>jogging</type>
    <trkseg>
      <trkpt lat="46.180262" lon="7.558211">
        <ele>2126.721009</ele>
        <time>2026-09-12T06:55:54.758Z</time>
      </trkpt>
      <trkpt lat="46.180439" lon="7.558197">
        <ele>2126.721009</ele>
        <time>2026-09-12T06:56:04.749Z</time>
      </trkpt>
      <trkpt lat="46.180545" lon="7.557850">
        <ele>2126.721009</ele>
        <time>2026-09-12T06:56:20.832Z</time>
      </trkpt>
      <trkpt lat="46.180635" lon="7.557743">
        <ele>2126.721009</ele>
        <time>2026-09-12T06:56:28.090Z</time>
      </trkpt>
      <trkpt lat="46.180779" lon="7.557578">
        <ele>2126.721009</ele>
        <time>2026-09-12T06:56:39.438Z</time>
      </trkpt>
      <trkpt lat="46.180891" lon="7.557379">
        <ele>2126.871831</ele>
        <time>2026-09-12T06:56:50.567Z</time>
      </trkpt>
      <trkpt lat="46.180817" lon="7.557388">
        <ele>2127.477451</ele>
        <time>2026-09-12T06:56:57.264Z</time>
      </trkpt>
      <trkpt lat="46.180745" lon="7.557347">
        <ele>2128.108615</ele>
        <time>2026-09-12T06:57:04.105Z</time>
      </trkpt>
      <trkpt lat="46.180703" lon="7.557256">
        <ele>2128.726146</ele>
        <time>2026-09-12T06:57:10.858Z</time>
      </trkpt>
      <trkpt lat="46.180691" lon="7.557107">
        <ele>2129.573153</ele>
        <time>2026-09-12T06:57:19.840Z</time>
      </trkpt>
      <trkpt lat="46.180659" lon="7.556824">
        <ele>2131.192294</ele>
        <time>2026-09-12T06:57:35.991Z</time>
      </trkpt>
      <trkpt lat="46.180903" lon="7.556336">
        <ele>2134.591174</ele>
        <time>2026-09-12T06:57:57.221Z</time>
      </trkpt>
      <trkpt lat="46.181091" lon="7.556028">
        <ele>2136.909617</ele>
        <time>2026-09-12T06:58:11.389Z</time>
      </trkpt>
      <trkpt lat="46.181218" lon="7.555755">
        <ele>2138.766737</ele>
        <time>2026-09-12T06:58:22.636Z</time>
      </trkpt>
      <trkpt lat="46.181429" lon="7.555196">
        <ele>2142.369919</ele>
        <time>2026-09-12T06:58:43.784Z</time>
      </trkpt>
      <trkpt lat="46.182060" lon="7.553066">
        <ele>2155.562153</ele>
        <time>2026-09-12T07:00:10.083Z</time>
      </trkpt>
      <trkpt lat="46.182141" lon="7.552898">
        <ele>2157.062264</ele>
        <time>2026-09-12T07:00:19.404Z</time>
      </trkpt>
      <trkpt lat="46.182195" lon="7.552840">
        <ele>2157.954542</ele>
        <time>2026-09-12T07:00:23.887Z</time>
      </trkpt>
      <trkpt lat="46.182474" lon="7.552627">
        <ele>2162.138858</ele>
        <time>2026-09-12T07:00:46.208Z</time>
      </trkpt>
      <trkpt lat="46.182727" lon="7.552485">
        <ele>2165.737822</ele>
        <time>2026-09-12T07:01:06.616Z</time>
      </trkpt>
      <trkpt lat="46.182932" lon="7.552276">
        <ele>2169.064905</ele>
        <time>2026-09-12T07:01:29.782Z</time>
      </trkpt>
      <trkpt lat="46.182732" lon="7.552025">
        <ele>2172.577976</ele>
        <time>2026-09-12T07:01:55.037Z</time>
      </trkpt>
      <trkpt lat="46.182871" lon="7.551872">
        <ele>2174.895206</ele>
        <time>2026-09-12T07:02:12.261Z</time>
      </trkpt>
      <trkpt lat="46.182980" lon="7.551794">
        <ele>2176.508118</ele>
        <time>2026-09-12T07:02:24.904Z</time>
      </trkpt>
      <trkpt lat="46.183122" lon="7.551523">
        <ele>2179.628078</ele>
        <time>2026-09-12T07:02:51.154Z</time>
      </trkpt>
      <trkpt lat="46.183185" lon="7.551331">
        <ele>2182.377645</ele>
        <time>2026-09-12T07:03:09.047Z</time>
      </trkpt>
      <trkpt lat="46.183059" lon="7.551298">
        <ele>2184.951811</ele>
        <time>2026-09-12T07:03:25.157Z</time>
      </trkpt>
      <trkpt lat="46.183007" lon="7.551192">
        <ele>2186.759889</ele>
        <time>2026-09-12T07:03:36.455Z</time>
      </trkpt>
      <trkpt lat="46.182970" lon="7.550564">
        <ele>2195.531870</ele>
        <time>2026-09-12T07:04:33.050Z</time>
      </trkpt>
      <trkpt lat="46.182853" lon="7.550216">
        <ele>2200.916129</ele>
        <time>2026-09-12T07:05:08.249Z</time>
      </trkpt>
      <trkpt lat="46.182798" lon="7.549851">
        <ele>2206.115070</ele>
        <time>2026-09-12T07:05:41.978Z</time>
      </trkpt>
      <trkpt lat="46.182796" lon="7.549704">
        <ele>2208.161392</ele>
        <time>2026-09-12T07:05:55.279Z</time>
      </trkpt>
      <trkpt lat="46.182936" lon="7.549259">
        <ele>2214.964258</ele>
        <time>2026-09-12T07:06:39.698Z</time>
      </trkpt>
      <trkpt lat="46.182959" lon="7.549086">
        <ele>2217.307994</ele>
        <time>2026-09-12T07:06:55.350Z</time>
      </trkpt>
      <trkpt lat="46.182944" lon="7.548879">
        <ele>2219.950145</ele>
        <time>2026-09-12T07:07:13.519Z</time>
      </trkpt>
      <trkpt lat="46.182958" lon="7.548837">
        <ele>2220.541897</ele>
        <time>2026-09-12T07:07:17.457Z</time>
      </trkpt>
      <trkpt lat="46.182961" lon="7.548792">
        <ele>2221.115799</ele>
        <time>2026-09-12T07:07:21.402Z</time>
      </trkpt>
      <trkpt lat="46.183034" lon="7.548400">
        <ele>2226.268973</ele>
        <time>2026-09-12T07:07:54.136Z</time>
      </trkpt>
      <trkpt lat="46.183055" lon="7.548115">
        <ele>2229.907381</ele>
        <time>2026-09-12T07:08:15.891Z</time>
      </trkpt>
      <trkpt lat="46.183003" lon="7.547829">
        <ele>2233.661156</ele>
        <time>2026-09-12T07:08:37.180Z</time>
      </trkpt>
      <trkpt lat="46.183037" lon="7.547476">
        <ele>2238.185526</ele>
        <time>2026-09-12T07:09:04.887Z</time>
      </trkpt>
      <trkpt lat="46.183105" lon="7.547316">
        <ele>2240.568818</ele>
        <time>2026-09-12T07:09:19.249Z</time>
      </trkpt>
      <trkpt lat="46.183626" lon="7.547196">
        <ele>2250.341462</ele>
        <time>2026-09-12T07:10:19.550Z</time>
      </trkpt>
      <trkpt lat="46.183487" lon="7.546939">
        <ele>2254.862827</ele>
        <time>2026-09-12T07:10:45.210Z</time>
      </trkpt>
      <trkpt lat="46.183435" lon="7.546805">
        <ele>2256.992525</ele>
        <time>2026-09-12T07:10:58.200Z</time>
      </trkpt>
      <trkpt lat="46.183417" lon="7.546652">
        <ele>2259.144131</ele>
        <time>2026-09-12T07:11:10.891Z</time>
      </trkpt>
      <trkpt lat="46.183523" lon="7.546637">
        <ele>2261.276899</ele>
        <time>2026-09-12T07:11:23.284Z</time>
      </trkpt>
      <trkpt lat="46.183565" lon="7.546598">
        <ele>2262.276743</ele>
        <time>2026-09-12T07:11:29.782Z</time>
      </trkpt>
      <trkpt lat="46.183478" lon="7.546387">
        <ele>2265.681516</ele>
        <time>2026-09-12T07:11:50.883Z</time>
      </trkpt>
      <trkpt lat="46.183482" lon="7.546351">
        <ele>2266.187008</ele>
        <time>2026-09-12T07:11:54.129Z</time>
      </trkpt>
      <trkpt lat="46.183597" lon="7.546379">
        <ele>2268.522324</ele>
        <time>2026-09-12T07:12:09.133Z</time>
      </trkpt>
      <trkpt lat="46.183734" lon="7.546296">
        <ele>2271.497252</ele>
        <time>2026-09-12T07:12:28.983Z</time>
      </trkpt>
      <trkpt lat="46.183895" lon="7.546306">
        <ele>2274.724187</ele>
        <time>2026-09-12T07:12:51.174Z</time>
      </trkpt>
      <trkpt lat="46.184058" lon="7.546190">
        <ele>2278.362880</ele>
        <time>2026-09-12T07:13:16.502Z</time>
      </trkpt>
      <trkpt lat="46.184264" lon="7.546105">
        <ele>2282.652965</ele>
        <time>2026-09-12T07:13:43.067Z</time>
      </trkpt>
      <trkpt lat="46.184151" lon="7.545977">
        <ele>2285.565483</ele>
        <time>2026-09-12T07:14:01.014Z</time>
      </trkpt>
      <trkpt lat="46.183934" lon="7.545896">
        <ele>2290.532098</ele>
        <time>2026-09-12T07:14:29.656Z</time>
      </trkpt>
      <trkpt lat="46.183795" lon="7.545781">
        <ele>2294.081808</ele>
        <time>2026-09-12T07:14:50.011Z</time>
      </trkpt>
      <trkpt lat="46.183755" lon="7.545631">
        <ele>2296.547930</ele>
        <time>2026-09-12T07:15:03.963Z</time>
      </trkpt>
      <trkpt lat="46.183911" lon="7.545704">
        <ele>2300.181727</ele>
        <time>2026-09-12T07:15:24.654Z</time>
      </trkpt>
      <trkpt lat="46.183974" lon="7.545690">
        <ele>2301.594208</ele>
        <time>2026-09-12T07:15:32.769Z</time>
      </trkpt>
      <trkpt lat="46.184043" lon="7.545645">
        <ele>2303.271862</ele>
        <time>2026-09-12T07:15:42.590Z</time>
      </trkpt>
      <trkpt lat="46.183986" lon="7.545557">
        <ele>2305.120697</ele>
        <time>2026-09-12T07:15:53.445Z</time>
      </trkpt>
      <trkpt lat="46.184076" lon="7.545522">
        <ele>2307.186085</ele>
        <time>2026-09-12T07:16:05.734Z</time>
      </trkpt>
      <trkpt lat="46.183976" lon="7.545416">
        <ele>2309.934757</ele>
        <time>2026-09-12T07:16:22.414Z</time>
      </trkpt>
      <trkpt lat="46.184013" lon="7.545378">
        <ele>2310.940805</ele>
        <time>2026-09-12T07:16:28.628Z</time>
      </trkpt>
      <trkpt lat="46.183893" lon="7.545171">
        <ele>2315.082891</ele>
        <time>2026-09-12T07:16:54.463Z</time>
      </trkpt>
      <trkpt lat="46.183963" lon="7.545135">
        <ele>2316.729459</ele>
        <time>2026-09-12T07:17:04.973Z</time>
      </trkpt>
      <trkpt lat="46.183868" lon="7.544934">
        <ele>2320.463264</ele>
        <time>2026-09-12T07:17:29.109Z</time>
      </trkpt>
      <trkpt lat="46.183953" lon="7.544919">
        <ele>2322.360836</ele>
        <time>2026-09-12T07:17:41.578Z</time>
      </trkpt>
      <trkpt lat="46.184060" lon="7.544963">
        <ele>2324.826135</ele>
        <time>2026-09-12T07:17:58.323Z</time>
      </trkpt>
      <trkpt lat="46.184096" lon="7.544938">
        <ele>2325.821367</ele>
        <time>2026-09-12T07:18:04.404Z</time>
      </trkpt>
      <trkpt lat="46.184046" lon="7.544646">
        <ele>2331.192768</ele>
        <time>2026-09-12T07:18:36.963Z</time>
      </trkpt>
      <trkpt lat="46.184041" lon="7.544445">
        <ele>2334.784376</ele>
        <time>2026-09-12T07:18:59.147Z</time>
      </trkpt>
      <trkpt lat="46.184106" lon="7.544251">
        <ele>2338.633007</ele>
        <time>2026-09-12T07:19:22.976Z</time>
      </trkpt>
      <trkpt lat="46.184216" lon="7.544134">
        <ele>2342.156438</ele>
        <time>2026-09-12T07:19:44.958Z</time>
      </trkpt>
      <trkpt lat="46.184287" lon="7.543991">
        <ele>2345.298762</ele>
        <time>2026-09-12T07:20:04.810Z</time>
      </trkpt>
      <trkpt lat="46.184375" lon="7.543190">
        <ele>2359.781246</ele>
        <time>2026-09-12T07:21:34.508Z</time>
      </trkpt>
      <trkpt lat="46.184349" lon="7.543056">
        <ele>2362.266286</ele>
        <time>2026-09-12T07:21:49.188Z</time>
      </trkpt>
      <trkpt lat="46.184306" lon="7.543015">
        <ele>2363.595221</ele>
        <time>2026-09-12T07:21:57.141Z</time>
      </trkpt>
      <trkpt lat="46.184177" lon="7.542939">
        <ele>2367.188571</ele>
        <time>2026-09-12T07:22:17.957Z</time>
      </trkpt>
      <trkpt lat="46.183813" lon="7.542806">
        <ele>2376.292504</ele>
        <time>2026-09-12T07:23:12.534Z</time>
      </trkpt>
      <trkpt lat="46.183480" lon="7.542463">
        <ele>2385.716836</ele>
        <time>2026-09-12T07:24:09.461Z</time>
      </trkpt>
      <trkpt lat="46.183312" lon="7.542212">
        <ele>2391.286359</ele>
        <time>2026-09-12T07:24:42.539Z</time>
      </trkpt>
      <trkpt lat="46.183107" lon="7.542078">
        <ele>2396.471225</ele>
        <time>2026-09-12T07:25:14.009Z</time>
      </trkpt>
      <trkpt lat="46.183058" lon="7.541962">
        <ele>2398.639057</ele>
        <time>2026-09-12T07:25:27.103Z</time>
      </trkpt>
      <trkpt lat="46.183195" lon="7.541907">
        <ele>2401.915511</ele>
        <time>2026-09-12T07:25:46.952Z</time>
      </trkpt>
      <trkpt lat="46.183154" lon="7.541844">
        <ele>2403.294882</ele>
        <time>2026-09-12T07:25:55.258Z</time>
      </trkpt>
      <trkpt lat="46.183013" lon="7.541411">
        <ele>2410.928603</ele>
        <time>2026-09-12T07:26:41.677Z</time>
      </trkpt>
      <trkpt lat="46.182933" lon="7.541291">
        <ele>2413.549353</ele>
        <time>2026-09-12T07:26:57.884Z</time>
      </trkpt>
      <trkpt lat="46.182922" lon="7.541097">
        <ele>2416.493486</ele>
        <time>2026-09-12T07:27:16.991Z</time>
      </trkpt>
      <trkpt lat="46.182831" lon="7.540818">
        <ele>2421.158271</ele>
        <time>2026-09-12T07:27:47.656Z</time>
      </trkpt>
      <trkpt lat="46.182793" lon="7.540595">
        <ele>2424.631878</ele>
        <time>2026-09-12T07:28:10.733Z</time>
      </trkpt>
      <trkpt lat="46.182698" lon="7.540272">
        <ele>2429.939910</ele>
        <time>2026-09-12T07:28:45.825Z</time>
      </trkpt>
      <trkpt lat="46.182653" lon="7.539923">
        <ele>2435.309425</ele>
        <time>2026-09-12T07:29:20.901Z</time>
      </trkpt>
      <trkpt lat="46.182696" lon="7.539918">
        <ele>2436.251846</ele>
        <time>2026-09-12T07:29:26.989Z</time>
      </trkpt>
      <trkpt lat="46.182911" lon="7.540110">
        <ele>2441.774030</ele>
        <time>2026-09-12T07:30:01.978Z</time>
      </trkpt>
      <trkpt lat="46.182827" lon="7.539739">
        <ele>2447.677956</ele>
        <time>2026-09-12T07:30:36.327Z</time>
      </trkpt>
      <trkpt lat="46.182832" lon="7.539517">
        <ele>2451.037557</ele>
        <time>2026-09-12T07:30:54.442Z</time>
      </trkpt>
      <trkpt lat="46.182844" lon="7.539299">
        <ele>2453.788432</ele>
        <time>2026-09-12T07:31:11.501Z</time>
      </trkpt>
      <trkpt lat="46.182939" lon="7.538836">
        <ele>2459.223556</ele>
        <time>2026-09-12T07:31:48.285Z</time>
      </trkpt>
      <trkpt lat="46.182971" lon="7.538882">
        <ele>2459.957485</ele>
        <time>2026-09-12T07:31:53.157Z</time>
      </trkpt>
      <trkpt lat="46.182986" lon="7.538989">
        <ele>2461.186216</ele>
        <time>2026-09-12T07:32:01.450Z</time>
      </trkpt>
      <trkpt lat="46.183144" lon="7.539435">
        <ele>2466.824917</ele>
        <time>2026-09-12T07:32:38.310Z</time>
      </trkpt>
      <trkpt lat="46.183214" lon="7.539041">
        <ele>2471.403071</ele>
        <time>2026-09-12T07:33:07.251Z</time>
      </trkpt>
      <trkpt lat="46.183253" lon="7.538966">
        <ele>2472.458766</ele>
        <time>2026-09-12T07:33:13.906Z</time>
      </trkpt>
      <trkpt lat="46.183403" lon="7.539422">
        <ele>2478.140859</ele>
        <time>2026-09-12T07:33:49.044Z</time>
      </trkpt>
      <trkpt lat="46.183453" lon="7.539476">
        <ele>2479.155767</ele>
        <time>2026-09-12T07:33:55.149Z</time>
      </trkpt>
      <trkpt lat="46.183465" lon="7.539362">
        <ele>2480.453578</ele>
        <time>2026-09-12T07:34:02.897Z</time>
      </trkpt>
      <trkpt lat="46.183617" lon="7.538858">
        <ele>2486.666842</ele>
        <time>2026-09-12T07:34:40.259Z</time>
      </trkpt>
      <trkpt lat="46.183671" lon="7.538500">
        <ele>2490.811081</ele>
        <time>2026-09-12T07:35:05.787Z</time>
      </trkpt>
      <trkpt lat="46.183698" lon="7.538040">
        <ele>2496.032693</ele>
        <time>2026-09-12T07:35:38.297Z</time>
      </trkpt>
      <trkpt lat="46.183683" lon="7.537329">
        <ele>2504.078375</ele>
        <time>2026-09-12T07:36:29.868Z</time>
      </trkpt>
      <trkpt lat="46.183720" lon="7.536560">
        <ele>2513.574900</ele>
        <time>2026-09-12T07:37:30.891Z</time>
      </trkpt>
      <trkpt lat="46.183733" lon="7.536367">
        <ele>2516.618689</ele>
        <time>2026-09-12T07:37:48.200Z</time>
      </trkpt>
      <trkpt lat="46.183818" lon="7.536031">
        <ele>2522.233861</ele>
        <time>2026-09-12T07:38:22.580Z</time>
      </trkpt>
      <trkpt lat="46.183815" lon="7.535769">
        <ele>2526.346983</ele>
        <time>2026-09-12T07:38:48.853Z</time>
      </trkpt>
      <trkpt lat="46.183884" lon="7.535145">
        <ele>2536.265913</ele>
        <time>2026-09-12T07:39:53.486Z</time>
      </trkpt>
      <trkpt lat="46.183928" lon="7.535094">
        <ele>2537.544970</ele>
        <time>2026-09-12T07:40:02.086Z</time>
      </trkpt>
      <trkpt lat="46.184041" lon="7.535102">
        <ele>2540.109965</ele>
        <time>2026-09-12T07:40:18.899Z</time>
      </trkpt>
      <trkpt lat="46.184075" lon="7.535076">
        <ele>2540.982179</ele>
        <time>2026-09-12T07:40:24.912Z</time>
      </trkpt>
      <trkpt lat="46.184129" lon="7.534888">
        <ele>2544.177043</ele>
        <time>2026-09-12T07:40:45.983Z</time>
      </trkpt>
      <trkpt lat="46.184187" lon="7.534754">
        <ele>2546.657618</ele>
        <time>2026-09-12T07:41:02.080Z</time>
      </trkpt>
      <trkpt lat="46.184353" lon="7.534594">
        <ele>2551.182174</ele>
        <time>2026-09-12T07:41:31.437Z</time>
      </trkpt>
      <trkpt lat="46.184387" lon="7.534445">
        <ele>2553.069575</ele>
        <time>2026-09-12T07:41:46.948Z</time>
      </trkpt>
      <trkpt lat="46.184362" lon="7.533996">
        <ele>2558.179370</ele>
        <time>2026-09-12T07:42:30.692Z</time>
      </trkpt>
      <trkpt lat="46.184389" lon="7.533487">
        <ele>2563.970268</ele>
        <time>2026-09-12T07:43:12.226Z</time>
      </trkpt>
      <trkpt lat="46.184380" lon="7.533070">
        <ele>2568.702914</ele>
        <time>2026-09-12T07:43:39.856Z</time>
      </trkpt>
      <trkpt lat="46.184329" lon="7.532720">
        <ele>2572.760215</ele>
        <time>2026-09-12T07:44:02.259Z</time>
      </trkpt>
      <trkpt lat="46.184234" lon="7.532401">
        <ele>2576.699450</ele>
        <time>2026-09-12T07:44:23.675Z</time>
      </trkpt>
      <trkpt lat="46.184218" lon="7.532278">
        <ele>2578.119151</ele>
        <time>2026-09-12T07:44:31.343Z</time>
      </trkpt>
      <trkpt lat="46.183957" lon="7.532149">
        <ele>2582.568050</ele>
        <time>2026-09-12T07:44:56.183Z</time>
      </trkpt>
      <trkpt lat="46.183753" lon="7.532115">
        <ele>2585.783335</ele>
        <time>2026-09-12T07:45:15.121Z</time>
      </trkpt>
      <trkpt lat="46.183682" lon="7.532045">
        <ele>2587.129299</ele>
        <time>2026-09-12T07:45:23.151Z</time>
      </trkpt>
      <trkpt lat="46.183658" lon="7.531879">
        <ele>2588.967608</ele>
        <time>2026-09-12T07:45:34.340Z</time>
      </trkpt>
      <trkpt lat="46.183731" lon="7.531540">
        <ele>2592.816121</ele>
        <time>2026-09-12T07:45:58.165Z</time>
      </trkpt>
      <trkpt lat="46.183730" lon="7.531406">
        <ele>2594.268807</ele>
        <time>2026-09-12T07:46:07.437Z</time>
      </trkpt>
      <trkpt lat="46.183389" lon="7.530989">
        <ele>2601.264566</ele>
        <time>2026-09-12T07:46:56.308Z</time>
      </trkpt>
      <trkpt lat="46.183114" lon="7.530376">
        <ele>2609.182759</ele>
        <time>2026-09-12T07:47:58.450Z</time>
      </trkpt>
      <trkpt lat="46.182914" lon="7.530125">
        <ele>2612.965468</ele>
        <time>2026-09-12T07:48:29.966Z</time>
      </trkpt>
      <trkpt lat="46.182690" lon="7.529782">
        <ele>2617.624041</ele>
        <time>2026-09-12T07:49:05.633Z</time>
      </trkpt>
      <trkpt lat="46.182536" lon="7.529633">
        <ele>2620.269170</ele>
        <time>2026-09-12T07:49:24.461Z</time>
      </trkpt>
      <trkpt lat="46.182302" lon="7.529508">
        <ele>2623.829471</ele>
        <time>2026-09-12T07:49:48.317Z</time>
      </trkpt>
      <trkpt lat="46.181370" lon="7.528586">
        <ele>2640.328768</ele>
        <time>2026-09-12T07:51:26.256Z</time>
      </trkpt>
      <trkpt lat="46.181218" lon="7.528384">
        <ele>2643.496124</ele>
        <time>2026-09-12T07:51:45.307Z</time>
      </trkpt>
      <trkpt lat="46.181178" lon="7.528292">
        <ele>2644.649513</ele>
        <time>2026-09-12T07:51:52.420Z</time>
      </trkpt>
      <trkpt lat="46.181199" lon="7.528041">
        <ele>2647.333790</ele>
        <time>2026-09-12T07:52:09.659Z</time>
      </trkpt>
      <trkpt lat="46.181169" lon="7.527857">
        <ele>2649.340770</ele>
        <time>2026-09-12T07:52:23.124Z</time>
      </trkpt>
      <trkpt lat="46.180841" lon="7.526979">
        <ele>2659.932929</ele>
        <time>2026-09-12T07:53:42.624Z</time>
      </trkpt>
      <trkpt lat="46.180765" lon="7.526841">
        <ele>2661.805061</ele>
        <time>2026-09-12T07:53:57.697Z</time>
      </trkpt>
      <trkpt lat="46.180498" lon="7.526483">
        <ele>2667.244507</ele>
        <time>2026-09-12T07:54:42.144Z</time>
      </trkpt>
      <trkpt lat="46.180268" lon="7.526032">
        <ele>2673.014450</ele>
        <time>2026-09-12T07:55:24.762Z</time>
      </trkpt>
      <trkpt lat="46.179959" lon="7.525727">
        <ele>2678.582668</ele>
        <time>2026-09-12T07:56:02.478Z</time>
      </trkpt>
      <trkpt lat="46.179745" lon="7.525387">
        <ele>2683.315883</ele>
        <time>2026-09-12T07:56:32.560Z</time>
      </trkpt>
      <trkpt lat="46.179531" lon="7.525267">
        <ele>2686.731231</ele>
        <time>2026-09-12T07:56:53.149Z</time>
      </trkpt>
      <trkpt lat="46.179461" lon="7.525138">
        <ele>2688.419556</ele>
        <time>2026-09-12T07:57:03.052Z</time>
      </trkpt>
      <trkpt lat="46.179316" lon="7.524970">
        <ele>2690.446699</ele>
        <time>2026-09-12T07:57:18.402Z</time>
      </trkpt>
      <trkpt lat="46.179161" lon="7.524896">
        <ele>2691.967398</ele>
        <time>2026-09-12T07:57:31.580Z</time>
      </trkpt>
      <trkpt lat="46.178986" lon="7.524893">
        <ele>2693.597672</ele>
        <time>2026-09-12T07:57:45.442Z</time>
      </trkpt>
      <trkpt lat="46.178798" lon="7.524953">
        <ele>2695.391179</ele>
        <time>2026-09-12T07:58:00.483Z</time>
      </trkpt>
      <trkpt lat="46.178580" lon="7.525174">
        <ele>2697.872241</ele>
        <time>2026-09-12T07:58:21.208Z</time>
      </trkpt>
      <trkpt lat="46.178449" lon="7.525200">
        <ele>2699.104001</ele>
        <time>2026-09-12T07:58:31.618Z</time>
      </trkpt>
      <trkpt lat="46.178001" lon="7.525003">
        <ele>2703.466364</ele>
        <time>2026-09-12T07:59:01.790Z</time>
      </trkpt>
      <trkpt lat="46.177772" lon="7.524793">
        <ele>2705.998603</ele>
        <time>2026-09-12T07:59:18.537Z</time>
      </trkpt>
      <trkpt lat="46.177372" lon="7.524578">
        <ele>2710.719348</ele>
        <time>2026-09-12T07:59:46.254Z</time>
      </trkpt>
      <trkpt lat="46.177055" lon="7.524245">
        <ele>2715.055007</ele>
        <time>2026-09-12T08:00:09.823Z</time>
      </trkpt>
      <trkpt lat="46.176938" lon="7.524156">
        <ele>2716.517643</ele>
        <time>2026-09-12T08:00:19.442Z</time>
      </trkpt>
      <trkpt lat="46.176830" lon="7.524133">
        <ele>2717.725112</ele>
        <time>2026-09-12T08:00:27.590Z</time>
      </trkpt>
      <trkpt lat="46.176746" lon="7.524069">
        <ele>2718.775576</ele>
        <time>2026-09-12T08:00:34.807Z</time>
      </trkpt>
      <trkpt lat="46.176429" lon="7.523939">
        <ele>2722.420427</ele>
        <time>2026-09-12T08:01:00.389Z</time>
      </trkpt>
      <trkpt lat="46.176318" lon="7.523905">
        <ele>2723.675471</ele>
        <time>2026-09-12T08:01:11.133Z</time>
      </trkpt>
      <trkpt lat="46.176211" lon="7.523918">
        <ele>2724.863141</ele>
        <time>2026-09-12T08:01:21.292Z</time>
      </trkpt>
      <trkpt lat="46.176176" lon="7.524116">
        <ele>2726.534567</ele>
        <time>2026-09-12T08:01:35.044Z</time>
      </trkpt>
      <trkpt lat="46.176009" lon="7.524310">
        <ele>2729.347845</ele>
        <time>2026-09-12T08:01:56.458Z</time>
      </trkpt>
      <trkpt lat="46.175877" lon="7.524693">
        <ele>2733.236391</ele>
        <time>2026-09-12T08:02:26.108Z</time>
      </trkpt>
      <trkpt lat="46.175806" lon="7.524765">
        <ele>2734.375179</ele>
        <time>2026-09-12T08:02:34.508Z</time>
      </trkpt>
      <trkpt lat="46.175714" lon="7.524783">
        <ele>2735.593831</ele>
        <time>2026-09-12T08:02:43.534Z</time>
      </trkpt>
      <trkpt lat="46.175625" lon="7.524887">
        <ele>2737.096613</ele>
        <time>2026-09-12T08:02:54.575Z</time>
      </trkpt>
      <trkpt lat="46.175606" lon="7.525103">
        <ele>2739.075681</ele>
        <time>2026-09-12T08:03:08.499Z</time>
      </trkpt>
      <trkpt lat="46.175519" lon="7.525415">
        <ele>2742.132849</ele>
        <time>2026-09-12T08:03:29.876Z</time>
      </trkpt>
      <trkpt lat="46.175400" lon="7.525516">
        <ele>2743.944672</ele>
        <time>2026-09-12T08:03:42.461Z</time>
      </trkpt>
      <trkpt lat="46.175238" lon="7.525863">
        <ele>2747.748564</ele>
        <time>2026-09-12T08:04:08.919Z</time>
      </trkpt>
      <trkpt lat="46.175052" lon="7.526139">
        <ele>2751.297370</ele>
        <time>2026-09-12T08:04:33.277Z</time>
      </trkpt>
      <trkpt lat="46.175007" lon="7.526414">
        <ele>2753.935306</ele>
        <time>2026-09-12T08:04:51.239Z</time>
      </trkpt>
      <trkpt lat="46.174907" lon="7.526648">
        <ele>2756.502302</ele>
        <time>2026-09-12T08:05:09.211Z</time>
      </trkpt>
      <trkpt lat="46.174867" lon="7.526822">
        <ele>2758.213835</ele>
        <time>2026-09-12T08:05:21.307Z</time>
      </trkpt>
      <trkpt lat="46.174953" lon="7.526950">
        <ele>2759.878794</ele>
        <time>2026-09-12T08:05:33.231Z</time>
      </trkpt>
      <trkpt lat="46.175082" lon="7.527018">
        <ele>2761.730145</ele>
        <time>2026-09-12T08:05:46.683Z</time>
      </trkpt>
      <trkpt lat="46.174943" lon="7.527154">
        <ele>2763.993666</ele>
        <time>2026-09-12T08:06:03.172Z</time>
      </trkpt>
      <trkpt lat="46.174840" lon="7.527163">
        <ele>2765.384801</ele>
        <time>2026-09-12T08:06:13.307Z</time>
      </trkpt>
      <trkpt lat="46.174621" lon="7.527256">
        <ele>2768.462255</ele>
        <time>2026-09-12T08:06:35.443Z</time>
      </trkpt>
      <trkpt lat="46.174433" lon="7.527297">
        <ele>2771.025517</ele>
        <time>2026-09-12T08:06:53.953Z</time>
      </trkpt>
      <trkpt lat="46.174154" lon="7.527425">
        <ele>2775.111684</ele>
        <time>2026-09-12T08:07:22.312Z</time>
      </trkpt>
      <trkpt lat="46.174125" lon="7.527420">
        <ele>2775.549203</ele>
        <time>2026-09-12T08:07:25.134Z</time>
      </trkpt>
      <trkpt lat="46.173853" lon="7.527373">
        <ele>2779.652962</ele>
        <time>2026-09-12T08:07:51.466Z</time>
      </trkpt>
      <trkpt lat="46.173290" lon="7.527409">
        <ele>2788.095241</ele>
        <time>2026-09-12T08:08:46.450Z</time>
      </trkpt>
      <trkpt lat="46.172936" lon="7.527260">
        <ele>2793.619002</ele>
        <time>2026-09-12T08:09:23.044Z</time>
      </trkpt>
      <trkpt lat="46.172787" lon="7.526952">
        <ele>2797.516568</ele>
        <time>2026-09-12T08:09:49.634Z</time>
      </trkpt>
      <trkpt lat="46.172692" lon="7.526578">
        <ele>2801.887747</ele>
        <time>2026-09-12T08:10:19.856Z</time>
      </trkpt>
      <trkpt lat="46.172636" lon="7.526677">
        <ele>2803.534156</ele>
        <time>2026-09-12T08:10:30.179Z</time>
      </trkpt>
      <trkpt lat="46.172608" lon="7.526682">
        <ele>2804.058897</ele>
        <time>2026-09-12T08:10:33.445Z</time>
      </trkpt>
      <trkpt lat="46.172224" lon="7.525965">
        <ele>2815.733196</ele>
        <time>2026-09-12T08:11:48.919Z</time>
      </trkpt>
      <trkpt lat="46.172143" lon="7.525929">
        <ele>2817.309461</ele>
        <time>2026-09-12T08:11:59.606Z</time>
      </trkpt>
      <trkpt lat="46.172035" lon="7.525478">
        <ele>2823.455741</ele>
        <time>2026-09-12T08:12:41.475Z</time>
      </trkpt>
      <trkpt lat="46.172001" lon="7.525300">
        <ele>2825.833957</ele>
        <time>2026-09-12T08:12:57.279Z</time>
      </trkpt>
      <trkpt lat="46.171958" lon="7.525199">
        <ele>2827.360997</ele>
        <time>2026-09-12T08:13:07.269Z</time>
      </trkpt>
      <trkpt lat="46.171519" lon="7.524530">
        <ele>2837.696541</ele>
        <time>2026-09-12T08:14:19.879Z</time>
      </trkpt>
      <trkpt lat="46.171498" lon="7.524381">
        <ele>2839.067462</ele>
        <time>2026-09-12T08:14:30.989Z</time>
      </trkpt>
      <trkpt lat="46.171514" lon="7.524076">
        <ele>2841.825213</ele>
        <time>2026-09-12T08:14:52.945Z</time>
      </trkpt>
      <trkpt lat="46.171458" lon="7.523931">
        <ele>2843.322092</ele>
        <time>2026-09-12T08:15:04.481Z</time>
      </trkpt>
      <trkpt lat="46.171356" lon="7.523890">
        <ele>2844.700562</ele>
        <time>2026-09-12T08:15:14.901Z</time>
      </trkpt>
      <trkpt lat="46.170962" lon="7.524015">
        <ele>2849.952559</ele>
        <time>2026-09-12T08:15:51.769Z</time>
      </trkpt>
      <trkpt lat="46.170814" lon="7.524018">
        <ele>2851.879623</ele>
        <time>2026-09-12T08:16:03.641Z</time>
      </trkpt>
      <trkpt lat="46.170644" lon="7.523818">
        <ele>2854.734498</ele>
        <time>2026-09-12T08:16:20.133Z</time>
      </trkpt>
      <trkpt lat="46.170607" lon="7.523657">
        <ele>2856.263937</ele>
        <time>2026-09-12T08:16:28.958Z</time>
      </trkpt>
      <trkpt lat="46.170531" lon="7.523660">
        <ele>2857.253782</ele>
        <time>2026-09-12T08:16:34.308Z</time>
      </trkpt>
      <trkpt lat="46.170302" lon="7.523800">
        <ele>2860.156778</ele>
        <time>2026-09-12T08:16:52.384Z</time>
      </trkpt>
      <trkpt lat="46.169940" lon="7.524329">
        <ele>2866.103941</ele>
        <time>2026-09-12T08:17:32.406Z</time>
      </trkpt>
      <trkpt lat="46.169564" lon="7.524389">
        <ele>2870.472165</ele>
        <time>2026-09-12T08:18:05.355Z</time>
      </trkpt>
      <trkpt lat="46.169399" lon="7.524276">
        <ele>2872.580902</ele>
        <time>2026-09-12T08:18:21.855Z</time>
      </trkpt>
      <trkpt lat="46.169256" lon="7.524249">
        <ele>2874.246225</ele>
        <time>2026-09-12T08:18:35.535Z</time>
      </trkpt>
      <trkpt lat="46.169212" lon="7.523960">
        <ele>2876.612512</ele>
        <time>2026-09-12T08:18:55.813Z</time>
      </trkpt>
      <trkpt lat="46.169036" lon="7.524037">
        <ele>2878.952782</ele>
        <time>2026-09-12T08:19:15.134Z</time>
      </trkpt>
      <trkpt lat="46.168808" lon="7.524040">
        <ele>2882.897936</ele>
        <time>2026-09-12T08:19:40.256Z</time>
      </trkpt>
      <trkpt lat="46.168446" lon="7.523929">
        <ele>2889.301140</ele>
        <time>2026-09-12T08:20:22.874Z</time>
      </trkpt>
      <trkpt lat="46.168363" lon="7.524026">
        <ele>2891.148687</ele>
        <time>2026-09-12T08:20:35.437Z</time>
      </trkpt>
      <trkpt lat="46.168187" lon="7.523992">
        <ele>2894.221075</ele>
        <time>2026-09-12T08:20:56.825Z</time>
      </trkpt>
      <trkpt lat="46.168083" lon="7.524102">
        <ele>2896.451659</ele>
        <time>2026-09-12T08:21:12.484Z</time>
      </trkpt>
      <trkpt lat="46.167620" lon="7.524141">
        <ele>2904.476377</ele>
        <time>2026-09-12T08:22:05.986Z</time>
      </trkpt>
      <trkpt lat="46.167284" lon="7.524047">
        <ele>2910.110389</ele>
        <time>2026-09-12T08:22:43.269Z</time>
      </trkpt>
      <trkpt lat="46.167092" lon="7.524060">
        <ele>2912.455240</ele>
        <time>2026-09-12T08:23:02.901Z</time>
      </trkpt>
      <trkpt lat="46.166884" lon="7.524131">
        <ele>2915.062647</ele>
        <time>2026-09-12T08:23:23.448Z</time>
      </trkpt>
      <trkpt lat="46.166753" lon="7.523976">
        <ele>2917.128787</ele>
        <time>2026-09-12T08:23:39.509Z</time>
      </trkpt>
      <trkpt lat="46.166764" lon="7.523710">
        <ele>2919.380173</ele>
        <time>2026-09-12T08:23:57.060Z</time>
      </trkpt>
      <trkpt lat="46.166697" lon="7.523701">
        <ele>2920.201059</ele>
        <time>2026-09-12T08:24:03.522Z</time>
      </trkpt>
      <trkpt lat="46.166678" lon="7.523761">
        <ele>2920.758466</ele>
        <time>2026-09-12T08:24:07.846Z</time>
      </trkpt>
      <trkpt lat="46.166641" lon="7.523738">
        <ele>2921.249895</ele>
        <time>2026-09-12T08:24:11.547Z</time>
      </trkpt>
      <trkpt lat="46.166560" lon="7.523569">
        <ele>2922.986328</ele>
        <time>2026-09-12T08:24:24.945Z</time>
      </trkpt>
      <trkpt lat="46.166555" lon="7.523433">
        <ele>2924.136989</ele>
        <time>2026-09-12T08:24:33.539Z</time>
      </trkpt>
      <trkpt lat="46.166483" lon="7.523437">
        <ele>2925.015992</ele>
        <time>2026-09-12T08:24:39.994Z</time>
      </trkpt>
      <trkpt lat="46.166418" lon="7.523329">
        <ele>2926.224875</ele>
        <time>2026-09-12T08:24:48.672Z</time>
      </trkpt>
      <trkpt lat="46.166390" lon="7.523194">
        <ele>2927.415521</ele>
        <time>2026-09-12T08:24:56.680Z</time>
      </trkpt>
      <trkpt lat="46.166410" lon="7.523009">
        <ele>2928.997489</ele>
        <time>2026-09-12T08:25:06.955Z</time>
      </trkpt>
      <trkpt lat="46.166463" lon="7.522932">
        <ele>2929.914702</ele>
        <time>2026-09-12T08:25:12.741Z</time>
      </trkpt>
      <trkpt lat="46.166474" lon="7.522664">
        <ele>2931.566918</ele>
        <time>2026-09-12T08:25:26.200Z</time>
      </trkpt>
      <trkpt lat="46.166400" lon="7.522445">
        <ele>2932.075596</ele>
        <time>2026-09-12T08:25:37.639Z</time>
      </trkpt>
      <trkpt lat="46.166381" lon="7.522253">
        <ele>2932.480471</ele>
        <time>2026-09-12T08:25:46.289Z</time>
      </trkpt>
      <trkpt lat="46.166416" lon="7.522015">
        <ele>2932.988378</ele>
        <time>2026-09-12T08:25:56.493Z</time>
      </trkpt>
      <trkpt lat="46.166388" lon="7.521746">
        <ele>2933.556228</ele>
        <time>2026-09-12T08:26:07.685Z</time>
      </trkpt>
      <trkpt lat="46.166321" lon="7.521593">
        <ele>2933.934109</ele>
        <time>2026-09-12T08:26:15.131Z</time>
      </trkpt>
      <trkpt lat="46.166226" lon="7.521508">
        <ele>2934.270976</ele>
        <time>2026-09-12T08:26:21.544Z</time>
      </trkpt>
      <trkpt lat="46.166102" lon="7.521270">
        <ele>2934.892698</ele>
        <time>2026-09-12T08:26:32.823Z</time>
      </trkpt>
      <trkpt lat="46.165977" lon="7.520674">
        <ele>2936.192666</ele>
        <time>2026-09-12T08:26:54.751Z</time>
      </trkpt>
      <trkpt lat="46.165968" lon="7.520480">
        <ele>2936.598556</ele>
        <time>2026-09-12T08:27:01.532Z</time>
      </trkpt>
      <trkpt lat="46.165847" lon="7.520340">
        <ele>2937.197958</ele>
        <time>2026-09-12T08:27:09.440Z</time>
      </trkpt>
      <trkpt lat="46.165827" lon="7.520268">
        <ele>2937.436339</ele>
        <time>2026-09-12T08:27:12.182Z</time>
      </trkpt>
      <trkpt lat="46.165779" lon="7.520218">
        <ele>2937.698949</ele>
        <time>2026-09-12T08:27:15.244Z</time>
      </trkpt>
      <trkpt lat="46.165795" lon="7.519958">
        <ele>2938.501050</ele>
        <time>2026-09-12T08:27:24.764Z</time>
      </trkpt>
      <trkpt lat="46.165760" lon="7.519542">
        <ele>2939.788774</ele>
        <time>2026-09-12T08:27:40.942Z</time>
      </trkpt>
      <trkpt lat="46.165650" lon="7.519438">
        <ele>2940.372158</ele>
        <time>2026-09-12T08:27:48.728Z</time>
      </trkpt>
      <trkpt lat="46.165597" lon="7.519352">
        <ele>2940.725906</ele>
        <time>2026-09-12T08:27:53.586Z</time>
      </trkpt>
      <trkpt lat="46.165629" lon="7.519168">
        <ele>2941.308875</ele>
        <time>2026-09-12T08:28:01.797Z</time>
      </trkpt>
      <trkpt lat="46.165639" lon="7.518922">
        <ele>2942.066111</ele>
        <time>2026-09-12T08:28:13.004Z</time>
      </trkpt>
      <trkpt lat="46.165608" lon="7.518637">
        <ele>2942.952625</ele>
        <time>2026-09-12T08:28:26.697Z</time>
      </trkpt>
      <trkpt lat="46.165570" lon="7.518502">
        <ele>2943.400422</ele>
        <time>2026-09-12T08:28:33.940Z</time>
      </trkpt>
      <trkpt lat="46.165494" lon="7.518393">
        <ele>2943.875709</ele>
        <time>2026-09-12T08:28:41.876Z</time>
      </trkpt>
      <trkpt lat="46.165433" lon="7.518437">
        <ele>2944.178255</ele>
        <time>2026-09-12T08:28:47.139Z</time>
      </trkpt>
      <trkpt lat="46.165376" lon="7.518371">
        <ele>2944.502436</ele>
        <time>2026-09-12T08:28:52.886Z</time>
      </trkpt>
      <trkpt lat="46.164977" lon="7.518319">
        <ele>2946.226432</ele>
        <time>2026-09-12T08:29:26.103Z</time>
      </trkpt>
      <trkpt lat="46.164707" lon="7.518050">
        <ele>2947.630429</ele>
        <time>2026-09-12T08:29:53.943Z</time>
      </trkpt>
      <trkpt lat="46.164673" lon="7.517972">
        <ele>2947.903622</ele>
        <time>2026-09-12T08:29:59.200Z</time>
      </trkpt>
      <trkpt lat="46.164561" lon="7.517943">
        <ele>2948.390625</ele>
        <time>2026-09-12T08:30:07.766Z</time>
      </trkpt>
      <trkpt lat="46.164353" lon="7.517650">
        <ele>2949.634353</ele>
        <time>2026-09-12T08:30:26.483Z</time>
      </trkpt>
      <trkpt lat="46.164343" lon="7.517457">
        <ele>2950.208056</ele>
        <time>2026-09-12T08:30:34.613Z</time>
      </trkpt>
      <trkpt lat="46.164365" lon="7.517185">
        <ele>2951.019817</ele>
        <time>2026-09-12T08:30:44.973Z</time>
      </trkpt>
      <trkpt lat="46.164292" lon="7.516936">
        <ele>2951.821325</ele>
        <time>2026-09-12T08:30:54.504Z</time>
      </trkpt>
      <trkpt lat="46.164318" lon="7.516829">
        <ele>2952.157456</ele>
        <time>2026-09-12T08:30:58.567Z</time>
      </trkpt>
      <trkpt lat="46.164199" lon="7.516709">
        <ele>2950.942720</ele>
        <time>2026-09-12T08:31:05.478Z</time>
      </trkpt>
      <trkpt lat="46.164125" lon="7.516510">
        <ele>2947.696444</ele>
        <time>2026-09-12T08:31:12.606Z</time>
      </trkpt>
      <trkpt lat="46.164061" lon="7.516449">
        <ele>2946.105069</ele>
        <time>2026-09-12T08:31:15.743Z</time>
      </trkpt>
      <trkpt lat="46.164085" lon="7.516289">
        <ele>2943.752169</ele>
        <time>2026-09-12T08:31:20.442Z</time>
      </trkpt>
      <trkpt lat="46.164061" lon="7.516449">
        <ele>2941.399270</ele>
        <time>2026-09-12T08:31:25.047Z</time>
      </trkpt>
      <trkpt lat="46.164028" lon="7.516584">
        <ele>2939.341693</ele>
        <time>2026-09-12T08:31:28.993Z</time>
      </trkpt>
      <trkpt lat="46.163895" lon="7.516796">
        <ele>2935.230575</ele>
        <time>2026-09-12T08:31:36.930Z</time>
      </trkpt>
      <trkpt lat="46.163860" lon="7.517029">
        <ele>2931.803934</ele>
        <time>2026-09-12T08:31:43.677Z</time>
      </trkpt>
      <trkpt lat="46.163779" lon="7.516992">
        <ele>2930.040946</ele>
        <time>2026-09-12T08:31:47.417Z</time>
      </trkpt>
      <trkpt lat="46.163676" lon="7.517033">
        <ele>2927.823797</ele>
        <time>2026-09-12T08:31:51.998Z</time>
      </trkpt>
      <trkpt lat="46.163576" lon="7.517133">
        <ele>2925.299525</ele>
        <time>2026-09-12T08:31:57.381Z</time>
      </trkpt>
      <trkpt lat="46.163370" lon="7.517146">
        <ele>2921.020630</ele>
        <time>2026-09-12T08:32:06.521Z</time>
      </trkpt>
      <trkpt lat="46.163257" lon="7.517241">
        <ele>2918.307151</ele>
        <time>2026-09-12T08:32:12.406Z</time>
      </trkpt>
      <trkpt lat="46.163176" lon="7.517239">
        <ele>2916.626032</ele>
        <time>2026-09-12T08:32:16.139Z</time>
      </trkpt>
      <trkpt lat="46.162960" lon="7.517569">
        <ele>2907.643710</ele>
        <time>2026-09-12T08:32:30.744Z</time>
      </trkpt>
      <trkpt lat="46.162884" lon="7.517571">
        <ele>2905.297543</ele>
        <time>2026-09-12T08:32:34.297Z</time>
      </trkpt>
      <trkpt lat="46.162806" lon="7.517525">
        <ele>2902.696941</ele>
        <time>2026-09-12T08:32:38.254Z</time>
      </trkpt>
      <trkpt lat="46.162762" lon="7.517540">
        <ele>2901.301515</ele>
        <time>2026-09-12T08:32:40.330Z</time>
      </trkpt>
      <trkpt lat="46.162679" lon="7.517493">
        <ele>2898.549690</ele>
        <time>2026-09-12T08:32:44.568Z</time>
      </trkpt>
      <trkpt lat="46.162675" lon="7.517538">
        <ele>2897.579797</ele>
        <time>2026-09-12T08:32:46.012Z</time>
      </trkpt>
      <trkpt lat="46.162608" lon="7.517616">
        <ele>2894.923288</ele>
        <time>2026-09-12T08:32:50.088Z</time>
      </trkpt>
      <trkpt lat="46.162572" lon="7.517620">
        <ele>2893.808844</ele>
        <time>2026-09-12T08:32:51.774Z</time>
      </trkpt>
      <trkpt lat="46.162526" lon="7.517547">
        <ele>2891.699034</ele>
        <time>2026-09-12T08:32:54.917Z</time>
      </trkpt>
      <trkpt lat="46.162483" lon="7.517561">
        <ele>2890.338491</ele>
        <time>2026-09-12T08:32:57.014Z</time>
      </trkpt>
      <trkpt lat="46.162445" lon="7.517601">
        <ele>2888.886977</ele>
        <time>2026-09-12T08:32:59.188Z</time>
      </trkpt>
      <trkpt lat="46.162507" lon="7.518026">
        <ele>2879.602013</ele>
        <time>2026-09-12T08:33:12.841Z</time>
      </trkpt>
      <trkpt lat="46.162500" lon="7.518131">
        <ele>2877.346958</ele>
        <time>2026-09-12T08:33:16.077Z</time>
      </trkpt>
      <trkpt lat="46.162440" lon="7.518154">
        <ele>2875.430867</ele>
        <time>2026-09-12T08:33:18.861Z</time>
      </trkpt>
      <trkpt lat="46.162459" lon="7.518286">
        <ele>2872.548686</ele>
        <time>2026-09-12T08:33:22.973Z</time>
      </trkpt>
      <trkpt lat="46.162300" lon="7.518358">
        <ele>2867.405356</ele>
        <time>2026-09-12T08:33:30.307Z</time>
      </trkpt>
      <trkpt lat="46.162236" lon="7.518296">
        <ele>2865.026500</ele>
        <time>2026-09-12T08:33:33.628Z</time>
      </trkpt>
      <trkpt lat="46.162200" lon="7.518395">
        <ele>2862.636118</ele>
        <time>2026-09-12T08:33:36.927Z</time>
      </trkpt>
      <trkpt lat="46.162116" lon="7.518305">
        <ele>2859.541297</ele>
        <time>2026-09-12T08:33:41.363Z</time>
      </trkpt>
      <trkpt lat="46.162035" lon="7.518327">
        <ele>2858.568178</ele>
        <time>2026-09-12T08:33:44.846Z</time>
      </trkpt>
      <trkpt lat="46.161935" lon="7.518287">
        <ele>2857.343032</ele>
        <time>2026-09-12T08:33:49.086Z</time>
      </trkpt>
      <trkpt lat="46.161830" lon="7.518149">
        <ele>2855.666606</ele>
        <time>2026-09-12T08:33:54.894Z</time>
      </trkpt>
      <trkpt lat="46.161718" lon="7.517857">
        <ele>2852.937042</ele>
        <time>2026-09-12T08:34:04.106Z</time>
      </trkpt>
      <trkpt lat="46.161536" lon="7.517701">
        <ele>2850.438066</ele>
        <time>2026-09-12T08:34:12.580Z</time>
      </trkpt>
      <trkpt lat="46.161450" lon="7.517582">
        <ele>2849.031653</ele>
        <time>2026-09-12T08:34:17.424Z</time>
      </trkpt>
      <trkpt lat="46.161105" lon="7.517567">
        <ele>2844.956488</ele>
        <time>2026-09-12T08:34:32.207Z</time>
      </trkpt>
      <trkpt lat="46.161019" lon="7.517670">
        <ele>2843.637219</ele>
        <time>2026-09-12T08:34:37.498Z</time>
      </trkpt>
      <trkpt lat="46.160949" lon="7.517829">
        <ele>2842.096527</ele>
        <time>2026-09-12T08:34:44.103Z</time>
      </trkpt>
      <trkpt lat="46.160944" lon="7.517966">
        <ele>2840.974621</ele>
        <time>2026-09-12T08:34:49.287Z</time>
      </trkpt>
      <trkpt lat="46.160884" lon="7.518071">
        <ele>2839.861455</ele>
        <time>2026-09-12T08:34:54.726Z</time>
      </trkpt>
      <trkpt lat="46.160854" lon="7.518327">
        <ele>2838.417597</ele>
        <time>2026-09-12T08:35:05.910Z</time>
      </trkpt>
      <trkpt lat="46.160770" lon="7.518387">
        <ele>2838.467805</ele>
        <time>2026-09-12T08:35:12.096Z</time>
      </trkpt>
      <trkpt lat="46.160703" lon="7.518526">
        <ele>2838.530643</ele>
        <time>2026-09-12T08:35:19.973Z</time>
      </trkpt>
      <trkpt lat="46.160700" lon="7.518591">
        <ele>2838.554816</ele>
        <time>2026-09-12T08:35:22.943Z</time>
      </trkpt>
      <trkpt lat="46.160644" lon="7.518662">
        <ele>2838.594743</ele>
        <time>2026-09-12T08:35:27.802Z</time>
      </trkpt>
      <trkpt lat="46.160625" lon="7.518763">
        <ele>2838.633578</ele>
        <time>2026-09-12T08:35:32.509Z</time>
      </trkpt>
      <trkpt lat="46.160554" lon="7.518847">
        <ele>2838.682755</ele>
        <time>2026-09-12T08:35:38.328Z</time>
      </trkpt>
      <trkpt lat="46.160455" lon="7.519319">
        <ele>2838.865753</ele>
        <time>2026-09-12T08:35:59.310Z</time>
      </trkpt>
      <trkpt lat="46.160423" lon="7.519385">
        <ele>2838.895648</ele>
        <time>2026-09-12T08:36:02.489Z</time>
      </trkpt>
      <trkpt lat="46.160301" lon="7.519452">
        <ele>2838.965575</ele>
        <time>2026-09-12T08:36:09.792Z</time>
      </trkpt>
      <trkpt lat="46.160257" lon="7.519448">
        <ele>2838.989194</ele>
        <time>2026-09-12T08:36:12.134Z</time>
      </trkpt>
      <trkpt lat="46.160055" lon="7.519287">
        <ele>2839.112807</ele>
        <time>2026-09-12T08:36:24.006Z</time>
      </trkpt>
      <trkpt lat="46.159922" lon="7.519219">
        <ele>2839.188395</ele>
        <time>2026-09-12T08:36:30.873Z</time>
      </trkpt>
      <trkpt lat="46.159825" lon="7.519117">
        <ele>2839.252683</ele>
        <time>2026-09-12T08:36:36.573Z</time>
      </trkpt>
      <trkpt lat="46.159771" lon="7.518986">
        <ele>2839.309251</ele>
        <time>2026-09-12T08:36:41.509Z</time>
      </trkpt>
      <trkpt lat="46.159680" lon="7.518950">
        <ele>2839.221576</ele>
        <time>2026-09-12T08:36:45.856Z</time>
      </trkpt>
      <trkpt lat="46.159573" lon="7.518819">
        <ele>2838.015161</ele>
        <time>2026-09-12T08:36:52.182Z</time>
      </trkpt>
      <trkpt lat="46.159362" lon="7.518703">
        <ele>2836.073626</ele>
        <time>2026-09-12T08:37:02.008Z</time>
      </trkpt>
      <trkpt lat="46.159340" lon="7.518731">
        <ele>2835.821427</ele>
        <time>2026-09-12T08:37:03.246Z</time>
      </trkpt>
      <trkpt lat="46.159355" lon="7.518946">
        <ele>2834.534344</ele>
        <time>2026-09-12T08:37:09.583Z</time>
      </trkpt>
      <trkpt lat="46.159277" lon="7.519168">
        <ele>2833.051656</ele>
        <time>2026-09-12T08:37:16.917Z</time>
      </trkpt>
      <trkpt lat="46.159248" lon="7.519392">
        <ele>2831.694338</ele>
        <time>2026-09-12T08:37:23.649Z</time>
      </trkpt>
      <trkpt lat="46.159191" lon="7.519524">
        <ele>2830.767831</ele>
        <time>2026-09-12T08:37:28.277Z</time>
      </trkpt>
      <trkpt lat="46.159112" lon="7.519862">
        <ele>2828.643069</ele>
        <time>2026-09-12T08:37:38.863Z</time>
      </trkpt>
      <trkpt lat="46.158999" lon="7.520136">
        <ele>2826.743659</ele>
        <time>2026-09-12T08:37:48.256Z</time>
      </trkpt>
      <trkpt lat="46.158882" lon="7.520333">
        <ele>2825.197982</ele>
        <time>2026-09-12T08:37:55.822Z</time>
      </trkpt>
      <trkpt lat="46.158770" lon="7.520458">
        <ele>2823.980635</ele>
        <time>2026-09-12T08:38:01.693Z</time>
      </trkpt>
      <trkpt lat="46.158451" lon="7.520718">
        <ele>2818.225298</ele>
        <time>2026-09-12T08:38:16.575Z</time>
      </trkpt>
      <trkpt lat="46.158336" lon="7.520757">
        <ele>2816.342983</ele>
        <time>2026-09-12T08:38:21.313Z</time>
      </trkpt>
      <trkpt lat="46.158261" lon="7.520756">
        <ele>2815.147864</ele>
        <time>2026-09-12T08:38:24.317Z</time>
      </trkpt>
      <trkpt lat="46.158204" lon="7.520698">
        <ele>2814.036685</ele>
        <time>2026-09-12T08:38:27.136Z</time>
      </trkpt>
      <trkpt lat="46.158067" lon="7.520672">
        <ele>2811.834914</ele>
        <time>2026-09-12T08:38:32.672Z</time>
      </trkpt>
      <trkpt lat="46.158002" lon="7.520588">
        <ele>2810.444847</ele>
        <time>2026-09-12T08:38:36.169Z</time>
      </trkpt>
      <trkpt lat="46.157925" lon="7.520572">
        <ele>2809.205268</ele>
        <time>2026-09-12T08:38:39.292Z</time>
      </trkpt>
      <trkpt lat="46.157826" lon="7.520370">
        <ele>2806.474109</ele>
        <time>2026-09-12T08:38:46.129Z</time>
      </trkpt>
      <trkpt lat="46.157621" lon="7.520327">
        <ele>2803.173293</ele>
        <time>2026-09-12T08:38:54.427Z</time>
      </trkpt>
      <trkpt lat="46.157436" lon="7.520178">
        <ele>2799.797751</ele>
        <time>2026-09-12T08:39:02.907Z</time>
      </trkpt>
      <trkpt lat="46.157316" lon="7.519885">
        <ele>2796.040824</ele>
        <time>2026-09-12T08:39:12.394Z</time>
      </trkpt>
      <trkpt lat="46.157141" lon="7.519668">
        <ele>2793.422994</ele>
        <time>2026-09-12T08:39:21.679Z</time>
      </trkpt>
      <trkpt lat="46.156860" lon="7.519695">
        <ele>2790.595803</ele>
        <time>2026-09-12T08:39:33.039Z</time>
      </trkpt>
      <trkpt lat="46.156697" lon="7.519659">
        <ele>2788.940413</ele>
        <time>2026-09-12T08:39:39.733Z</time>
      </trkpt>
      <trkpt lat="46.156619" lon="7.519683">
        <ele>2788.139786</ele>
        <time>2026-09-12T08:39:42.981Z</time>
      </trkpt>
      <trkpt lat="46.156550" lon="7.519637">
        <ele>2787.376805</ele>
        <time>2026-09-12T08:39:46.175Z</time>
      </trkpt>
      <trkpt lat="46.156408" lon="7.519693">
        <ele>2785.899039</ele>
        <time>2026-09-12T08:39:52.489Z</time>
      </trkpt>
      <trkpt lat="46.156321" lon="7.519786">
        <ele>2784.812278</ele>
        <time>2026-09-12T08:39:57.180Z</time>
      </trkpt>
      <trkpt lat="46.156062" lon="7.519836">
        <ele>2782.189040</ele>
        <time>2026-09-12T08:40:08.859Z</time>
      </trkpt>
      <trkpt lat="46.155898" lon="7.519909">
        <ele>2780.466165</ele>
        <time>2026-09-12T08:40:16.720Z</time>
      </trkpt>
      <trkpt lat="46.155817" lon="7.519915">
        <ele>2779.651939</ele>
        <time>2026-09-12T08:40:20.509Z</time>
      </trkpt>
      <trkpt lat="46.155729" lon="7.519843">
        <ele>2778.636491</ele>
        <time>2026-09-12T08:40:25.124Z</time>
      </trkpt>
      <trkpt lat="46.155657" lon="7.520254">
        <ele>2775.620577</ele>
        <time>2026-09-12T08:40:38.685Z</time>
      </trkpt>
      <trkpt lat="46.155575" lon="7.520547">
        <ele>2773.322303</ele>
        <time>2026-09-12T08:40:48.578Z</time>
      </trkpt>
      <trkpt lat="46.155423" lon="7.520902">
        <ele>2770.287052</ele>
        <time>2026-09-12T08:41:01.114Z</time>
      </trkpt>
      <trkpt lat="46.155275" lon="7.521133">
        <ele>2767.998600</ele>
        <time>2026-09-12T08:41:10.198Z</time>
      </trkpt>
      <trkpt lat="46.155152" lon="7.521496">
        <ele>2765.059631</ele>
        <time>2026-09-12T08:41:21.588Z</time>
      </trkpt>
      <trkpt lat="46.155009" lon="7.521654">
        <ele>2763.168969</ele>
        <time>2026-09-12T08:41:28.843Z</time>
      </trkpt>
      <trkpt lat="46.154824" lon="7.521952">
        <ele>2760.258645</ele>
        <time>2026-09-12T08:41:40.045Z</time>
      </trkpt>
      <trkpt lat="46.154714" lon="7.522394">
        <ele>2756.900853</ele>
        <time>2026-09-12T08:41:53.157Z</time>
      </trkpt>
      <trkpt lat="46.154637" lon="7.522959">
        <ele>2752.881432</ele>
        <time>2026-09-12T08:42:09.308Z</time>
      </trkpt>
      <trkpt lat="46.154708" lon="7.523642">
        <ele>2748.060561</ele>
        <time>2026-09-12T08:42:28.909Z</time>
      </trkpt>
      <trkpt lat="46.154756" lon="7.523716">
        <ele>2747.352922</ele>
        <time>2026-09-12T08:42:31.942Z</time>
      </trkpt>
      <trkpt lat="46.154709" lon="7.524000">
        <ele>2745.314755</ele>
        <time>2026-09-12T08:42:40.748Z</time>
      </trkpt>
      <trkpt lat="46.154722" lon="7.524343">
        <ele>2742.916962</ele>
        <time>2026-09-12T08:42:51.484Z</time>
      </trkpt>
      <trkpt lat="46.154800" lon="7.524663">
        <ele>2740.549047</ele>
        <time>2026-09-12T08:43:02.284Z</time>
      </trkpt>
      <trkpt lat="46.154868" lon="7.524893">
        <ele>2738.593638</ele>
        <time>2026-09-12T08:43:10.198Z</time>
      </trkpt>
      <trkpt lat="46.154989" lon="7.525145">
        <ele>2736.122210</ele>
        <time>2026-09-12T08:43:19.820Z</time>
      </trkpt>
      <trkpt lat="46.155068" lon="7.525412">
        <ele>2733.782035</ele>
        <time>2026-09-12T08:43:28.605Z</time>
      </trkpt>
      <trkpt lat="46.155070" lon="7.525489">
        <ele>2733.160963</ele>
        <time>2026-09-12T08:43:30.910Z</time>
      </trkpt>
      <trkpt lat="46.155209" lon="7.525815">
        <ele>2730.075462</ele>
        <time>2026-09-12T08:43:41.937Z</time>
      </trkpt>
      <trkpt lat="46.155318" lon="7.525952">
        <ele>2728.393813</ele>
        <time>2026-09-12T08:43:47.820Z</time>
      </trkpt>
      <trkpt lat="46.155367" lon="7.526132">
        <ele>2726.834972</ele>
        <time>2026-09-12T08:43:53.249Z</time>
      </trkpt>
      <trkpt lat="46.155365" lon="7.526224">
        <ele>2726.093071</ele>
        <time>2026-09-12T08:43:55.828Z</time>
      </trkpt>
      <trkpt lat="46.155425" lon="7.526566">
        <ele>2723.249461</ele>
        <time>2026-09-12T08:44:05.667Z</time>
      </trkpt>
      <trkpt lat="46.155417" lon="7.526859">
        <ele>2720.886000</ele>
        <time>2026-09-12T08:44:13.845Z</time>
      </trkpt>
      <trkpt lat="46.155460" lon="7.526995">
        <ele>2719.681030</ele>
        <time>2026-09-12T08:44:18.011Z</time>
      </trkpt>
      <trkpt lat="46.155438" lon="7.527217">
        <ele>2717.458024</ele>
        <time>2026-09-12T08:44:24.226Z</time>
      </trkpt>
      <trkpt lat="46.155443" lon="7.527554">
        <ele>2713.909777</ele>
        <time>2026-09-12T08:44:33.601Z</time>
      </trkpt>
      <trkpt lat="46.155557" lon="7.527928">
        <ele>2709.608572</ele>
        <time>2026-09-12T08:44:44.927Z</time>
      </trkpt>
      <trkpt lat="46.155607" lon="7.528193">
        <ele>2706.717427</ele>
        <time>2026-09-12T08:44:52.575Z</time>
      </trkpt>
      <trkpt lat="46.155736" lon="7.528184">
        <ele>2704.754823</ele>
        <time>2026-09-12T08:44:57.782Z</time>
      </trkpt>
      <trkpt lat="46.155822" lon="7.528289">
        <ele>2703.043227</ele>
        <time>2026-09-12T08:45:02.327Z</time>
      </trkpt>
      <trkpt lat="46.155876" lon="7.528308">
        <ele>2702.198608</ele>
        <time>2026-09-12T08:45:04.547Z</time>
      </trkpt>
      <trkpt lat="46.156156" lon="7.528304">
        <ele>2697.943450</ele>
        <time>2026-09-12T08:45:15.835Z</time>
      </trkpt>
      <trkpt lat="46.156219" lon="7.528336">
        <ele>2696.928557</ele>
        <time>2026-09-12T08:45:18.573Z</time>
      </trkpt>
      <trkpt lat="46.156298" lon="7.528538">
        <ele>2694.486742</ele>
        <time>2026-09-12T08:45:25.078Z</time>
      </trkpt>
      <trkpt lat="46.156378" lon="7.528898">
        <ele>2691.286060</ele>
        <time>2026-09-12T08:45:35.804Z</time>
      </trkpt>
      <trkpt lat="46.156461" lon="7.529071">
        <ele>2690.311076</ele>
        <time>2026-09-12T08:45:41.879Z</time>
      </trkpt>
      <trkpt lat="46.156669" lon="7.529300">
        <ele>2688.561498</ele>
        <time>2026-09-12T08:45:52.943Z</time>
      </trkpt>
      <trkpt lat="46.156704" lon="7.529404">
        <ele>2688.025812</ele>
        <time>2026-09-12T08:45:56.417Z</time>
      </trkpt>
      <trkpt lat="46.156787" lon="7.529450">
        <ele>2687.431173</ele>
        <time>2026-09-12T08:46:00.248Z</time>
      </trkpt>
      <trkpt lat="46.156910" lon="7.529714">
        <ele>2685.957141</ele>
        <time>2026-09-12T08:46:09.978Z</time>
      </trkpt>
      <trkpt lat="46.157066" lon="7.529848">
        <ele>2684.743026</ele>
        <time>2026-09-12T08:46:18.211Z</time>
      </trkpt>
      <trkpt lat="46.157154" lon="7.530043">
        <ele>2683.664787</ele>
        <time>2026-09-12T08:46:25.690Z</time>
      </trkpt>
      <trkpt lat="46.157215" lon="7.530124">
        <ele>2683.110456</ele>
        <time>2026-09-12T08:46:29.618Z</time>
      </trkpt>
      <trkpt lat="46.157451" lon="7.530244">
        <ele>2681.436949</ele>
        <time>2026-09-12T08:46:41.667Z</time>
      </trkpt>
      <trkpt lat="46.157711" lon="7.530520">
        <ele>2679.307257</ele>
        <time>2026-09-12T08:46:57.419Z</time>
      </trkpt>
      <trkpt lat="46.157826" lon="7.530600">
        <ele>2678.495130</ele>
        <time>2026-09-12T08:47:03.616Z</time>
      </trkpt>
      <trkpt lat="46.157933" lon="7.530550">
        <ele>2677.779634</ele>
        <time>2026-09-12T08:47:08.991Z</time>
      </trkpt>
      <trkpt lat="46.157970" lon="7.530587">
        <ele>2677.493289</ele>
        <time>2026-09-12T08:47:11.151Z</time>
      </trkpt>
      <trkpt lat="46.158069" lon="7.530569">
        <ele>2676.858485</ele>
        <time>2026-09-12T08:47:15.823Z</time>
      </trkpt>
      <trkpt lat="46.158139" lon="7.530593">
        <ele>2676.400765</ele>
        <time>2026-09-12T08:47:19.152Z</time>
      </trkpt>
      <trkpt lat="46.158212" lon="7.530518">
        <ele>2675.830750</ele>
        <time>2026-09-12T08:47:23.302Z</time>
      </trkpt>
      <trkpt lat="46.158488" lon="7.530450">
        <ele>2674.049477</ele>
        <time>2026-09-12T08:47:35.930Z</time>
      </trkpt>
      <trkpt lat="46.158667" lon="7.530509">
        <ele>2672.881393</ele>
        <time>2026-09-12T08:47:44.040Z</time>
      </trkpt>
      <trkpt lat="46.158726" lon="7.530566">
        <ele>2672.429751</ele>
        <time>2026-09-12T08:47:47.114Z</time>
      </trkpt>
      <trkpt lat="46.158734" lon="7.530999">
        <ele>2670.520989</ele>
        <time>2026-09-12T08:48:00.106Z</time>
      </trkpt>
      <trkpt lat="46.158803" lon="7.531297">
        <ele>2669.136378</ele>
        <time>2026-09-12T08:48:09.289Z</time>
      </trkpt>
      <trkpt lat="46.158780" lon="7.531558">
        <ele>2667.960262</ele>
        <time>2026-09-12T08:48:16.886Z</time>
      </trkpt>
      <trkpt lat="46.158809" lon="7.531700">
        <ele>2667.283591</ele>
        <time>2026-09-12T08:48:21.118Z</time>
      </trkpt>
      <trkpt lat="46.158803" lon="7.531960">
        <ele>2666.094534</ele>
        <time>2026-09-12T08:48:28.580Z</time>
      </trkpt>
      <trkpt lat="46.158831" lon="7.532049">
        <ele>2665.647742</ele>
        <time>2026-09-12T08:48:31.404Z</time>
      </trkpt>
      <trkpt lat="46.158817" lon="7.532221">
        <ele>2664.856162</ele>
        <time>2026-09-12T08:48:36.391Z</time>
      </trkpt>
      <trkpt lat="46.158865" lon="7.532652">
        <ele>2662.860865</ele>
        <time>2026-09-12T08:48:49.165Z</time>
      </trkpt>
      <trkpt lat="46.159018" lon="7.532974">
        <ele>2661.076075</ele>
        <time>2026-09-12T08:49:00.968Z</time>
      </trkpt>
      <trkpt lat="46.158974" lon="7.533146">
        <ele>2660.238005</ele>
        <time>2026-09-12T08:49:06.721Z</time>
      </trkpt>
      <trkpt lat="46.158977" lon="7.533368">
        <ele>2659.223106</ele>
        <time>2026-09-12T08:49:13.904Z</time>
      </trkpt>
      <trkpt lat="46.158950" lon="7.533512">
        <ele>2658.541230</ele>
        <time>2026-09-12T08:49:18.810Z</time>
      </trkpt>
      <trkpt lat="46.158935" lon="7.533881">
        <ele>2656.851722</ele>
        <time>2026-09-12T08:49:31.187Z</time>
      </trkpt>
      <trkpt lat="46.158978" lon="7.534218">
        <ele>2656.530123</ele>
        <time>2026-09-12T08:49:43.026Z</time>
      </trkpt>
      <trkpt lat="46.158943" lon="7.534465">
        <ele>2656.506034</ele>
        <time>2026-09-12T08:49:51.948Z</time>
      </trkpt>
      <trkpt lat="46.158952" lon="7.534860">
        <ele>2656.468271</ele>
        <time>2026-09-12T08:50:06.481Z</time>
      </trkpt>
      <trkpt lat="46.159021" lon="7.535252">
        <ele>2656.429625</ele>
        <time>2026-09-12T08:50:21.904Z</time>
      </trkpt>
      <trkpt lat="46.159087" lon="7.535434">
        <ele>2656.409996</ele>
        <time>2026-09-12T08:50:29.947Z</time>
      </trkpt>
      <trkpt lat="46.159200" lon="7.535950">
        <ele>2656.358287</ele>
        <time>2026-09-12T08:50:49.961Z</time>
      </trkpt>
      <trkpt lat="46.159206" lon="7.536065">
        <ele>2656.347267</ele>
        <time>2026-09-12T08:50:54.169Z</time>
      </trkpt>
      <trkpt lat="46.159273" lon="7.536174">
        <ele>2656.333343</ele>
        <time>2026-09-12T08:50:59.346Z</time>
      </trkpt>
      <trkpt lat="46.159273" lon="7.536249">
        <ele>2656.326177</ele>
        <time>2026-09-12T08:51:02.044Z</time>
      </trkpt>
      <trkpt lat="46.159360" lon="7.536613">
        <ele>2656.254923</ele>
        <time>2026-09-12T08:51:15.560Z</time>
      </trkpt>
      <trkpt lat="46.159360" lon="7.536906">
        <ele>2656.176672</ele>
        <time>2026-09-12T08:51:25.749Z</time>
      </trkpt>
      <trkpt lat="46.159365" lon="7.537065">
        <ele>2656.134165</ele>
        <time>2026-09-12T08:51:31.160Z</time>
      </trkpt>
      <trkpt lat="46.159406" lon="7.537276">
        <ele>2656.075638</ele>
        <time>2026-09-12T08:51:38.660Z</time>
      </trkpt>
      <trkpt lat="46.159479" lon="7.537484">
        <ele>2656.013363</ele>
        <time>2026-09-12T08:51:46.598Z</time>
      </trkpt>
      <trkpt lat="46.159498" lon="7.537632">
        <ele>2655.973164</ele>
        <time>2026-09-12T08:51:51.697Z</time>
      </trkpt>
      <trkpt lat="46.159488" lon="7.537833">
        <ele>2655.919345</ele>
        <time>2026-09-12T08:51:58.508Z</time>
      </trkpt>
      <trkpt lat="46.159515" lon="7.537971">
        <ele>2655.881048</ele>
        <time>2026-09-12T08:52:03.417Z</time>
      </trkpt>
      <trkpt lat="46.159476" lon="7.538331">
        <ele>2655.783734</ele>
        <time>2026-09-12T08:52:15.912Z</time>
      </trkpt>
      <trkpt lat="46.159485" lon="7.538698">
        <ele>2655.685659</ele>
        <time>2026-09-12T08:52:29.024Z</time>
      </trkpt>
      <trkpt lat="46.159347" lon="7.539119">
        <ele>2655.701383</ele>
        <time>2026-09-12T08:52:47.698Z</time>
      </trkpt>
      <trkpt lat="46.159354" lon="7.539291">
        <ele>2655.775194</ele>
        <time>2026-09-12T08:52:55.108Z</time>
      </trkpt>
      <trkpt lat="46.159450" lon="7.539662">
        <ele>2655.944857</ele>
        <time>2026-09-12T08:53:13.060Z</time>
      </trkpt>
      <trkpt lat="46.159726" lon="7.540023">
        <ele>2656.175196</ele>
        <time>2026-09-12T08:53:37.040Z</time>
      </trkpt>
      <trkpt lat="46.159814" lon="7.540068">
        <ele>2656.232936</ele>
        <time>2026-09-12T08:53:42.448Z</time>
      </trkpt>
      <trkpt lat="46.160031" lon="7.539990">
        <ele>2656.371244</ele>
        <time>2026-09-12T08:53:56.093Z</time>
      </trkpt>
      <trkpt lat="46.160176" lon="7.540083">
        <ele>2656.469375</ele>
        <time>2026-09-12T08:54:04.929Z</time>
      </trkpt>
      <trkpt lat="46.160296" lon="7.540273">
        <ele>2656.579527</ele>
        <time>2026-09-12T08:54:13.950Z</time>
      </trkpt>
      <trkpt lat="46.160331" lon="7.540380">
        <ele>2656.630219</ele>
        <time>2026-09-12T08:54:17.800Z</time>
      </trkpt>
      <trkpt lat="46.160514" lon="7.540655">
        <ele>2654.399757</ele>
        <time>2026-09-12T08:54:29.618Z</time>
      </trkpt>
      <trkpt lat="46.160523" lon="7.540733">
        <ele>2653.206448</ele>
        <time>2026-09-12T08:54:31.933Z</time>
      </trkpt>
      <trkpt lat="46.160472" lon="7.540841">
        <ele>2651.233893</ele>
        <time>2026-09-12T08:54:35.631Z</time>
      </trkpt>
      <trkpt lat="46.160491" lon="7.540862">
        <ele>2650.712554</ele>
        <time>2026-09-12T08:54:36.613Z</time>
      </trkpt>
      <trkpt lat="46.160562" lon="7.540790">
        <ele>2648.822183</ele>
        <time>2026-09-12T08:54:40.121Z</time>
      </trkpt>
      <trkpt lat="46.160611" lon="7.540764">
        <ele>2647.684780</ele>
        <time>2026-09-12T08:54:42.211Z</time>
      </trkpt>
      <trkpt lat="46.160669" lon="7.540784">
        <ele>2646.385565</ele>
        <time>2026-09-12T08:54:44.618Z</time>
      </trkpt>
      <trkpt lat="46.160730" lon="7.540901">
        <ele>2644.175640</ele>
        <time>2026-09-12T08:54:48.695Z</time>
      </trkpt>
      <trkpt lat="46.160789" lon="7.540920">
        <ele>2642.858591</ele>
        <time>2026-09-12T08:54:51.116Z</time>
      </trkpt>
      <trkpt lat="46.160821" lon="7.540975">
        <ele>2641.774629</ele>
        <time>2026-09-12T08:54:53.080Z</time>
      </trkpt>
      <trkpt lat="46.160785" lon="7.540999">
        <ele>2640.910698</ele>
        <time>2026-09-12T08:54:54.662Z</time>
      </trkpt>
      <trkpt lat="46.160728" lon="7.540985">
        <ele>2639.650971</ele>
        <time>2026-09-12T08:54:56.971Z</time>
      </trkpt>
      <trkpt lat="46.160676" lon="7.541047">
        <ele>2638.181626</ele>
        <time>2026-09-12T08:54:59.708Z</time>
      </trkpt>
      <trkpt lat="46.160727" lon="7.541058">
        <ele>2637.058135</ele>
        <time>2026-09-12T08:55:01.853Z</time>
      </trkpt>
      <trkpt lat="46.160788" lon="7.541150">
        <ele>2635.136194</ele>
        <time>2026-09-12T08:55:05.527Z</time>
      </trkpt>
      <trkpt lat="46.160739" lon="7.541165">
        <ele>2634.044874</ele>
        <time>2026-09-12T08:55:07.708Z</time>
      </trkpt>
      <trkpt lat="46.160746" lon="7.541191">
        <ele>2633.623915</ele>
        <time>2026-09-12T08:55:08.524Z</time>
      </trkpt>
      <trkpt lat="46.160836" lon="7.541232">
        <ele>2631.567746</ele>
        <time>2026-09-12T08:55:12.585Z</time>
      </trkpt>
      <trkpt lat="46.160908" lon="7.541319">
        <ele>2629.522139</ele>
        <time>2026-09-12T08:55:16.687Z</time>
      </trkpt>
      <trkpt lat="46.160963" lon="7.541443">
        <ele>2627.300082</ele>
        <time>2026-09-12T08:55:21.223Z</time>
      </trkpt>
      <trkpt lat="46.160976" lon="7.541595">
        <ele>2624.988868</ele>
        <time>2026-09-12T08:55:25.841Z</time>
      </trkpt>
      <trkpt lat="46.161042" lon="7.541671">
        <ele>2623.149539</ele>
        <time>2026-09-12T08:55:29.603Z</time>
      </trkpt>
      <trkpt lat="46.161085" lon="7.541807">
        <ele>2620.893481</ele>
        <time>2026-09-12T08:55:34.356Z</time>
      </trkpt>
      <trkpt lat="46.161152" lon="7.541889">
        <ele>2618.979807</ele>
        <time>2026-09-12T08:55:38.376Z</time>
      </trkpt>
      <trkpt lat="46.161228" lon="7.542134">
        <ele>2614.131264</ele>
        <time>2026-09-12T08:55:46.879Z</time>
      </trkpt>
      <trkpt lat="46.161267" lon="7.542170">
        <ele>2612.814688</ele>
        <time>2026-09-12T08:55:48.983Z</time>
      </trkpt>
      <trkpt lat="46.161388" lon="7.542478">
        <ele>2605.839090</ele>
        <time>2026-09-12T08:55:59.986Z</time>
      </trkpt>
      <trkpt lat="46.161476" lon="7.542805">
        <ele>2598.928106</ele>
        <time>2026-09-12T08:56:10.813Z</time>
      </trkpt>
      <trkpt lat="46.161650" lon="7.543031">
        <ele>2592.271278</ele>
        <time>2026-09-12T08:56:21.142Z</time>
      </trkpt>
      <trkpt lat="46.161770" lon="7.543081">
        <ele>2588.718943</ele>
        <time>2026-09-12T08:56:26.624Z</time>
      </trkpt>
      <trkpt lat="46.161897" lon="7.543069">
        <ele>2585.099075</ele>
        <time>2026-09-12T08:56:32.121Z</time>
      </trkpt>
      <trkpt lat="46.161990" lon="7.543141">
        <ele>2582.097677</ele>
        <time>2026-09-12T08:56:36.657Z</time>
      </trkpt>
      <trkpt lat="46.162026" lon="7.543232">
        <ele>2580.033206</ele>
        <time>2026-09-12T08:56:39.721Z</time>
      </trkpt>
      <trkpt lat="46.162036" lon="7.543299">
        <ele>2578.683037</ele>
        <time>2026-09-12T08:56:41.726Z</time>
      </trkpt>
      <trkpt lat="46.162018" lon="7.543363">
        <ele>2577.322285</ele>
        <time>2026-09-12T08:56:43.725Z</time>
      </trkpt>
      <trkpt lat="46.162042" lon="7.543460">
        <ele>2575.293162</ele>
        <time>2026-09-12T08:56:46.697Z</time>
      </trkpt>
      <trkpt lat="46.162130" lon="7.543684">
        <ele>2570.220053</ele>
        <time>2026-09-12T08:56:54.057Z</time>
      </trkpt>
      <trkpt lat="46.162189" lon="7.543795">
        <ele>2567.463718</ele>
        <time>2026-09-12T08:56:58.019Z</time>
      </trkpt>
      <trkpt lat="46.162349" lon="7.543986">
        <ele>2563.285877</ele>
        <time>2026-09-12T08:57:06.440Z</time>
      </trkpt>
      <trkpt lat="46.162455" lon="7.544183">
        <ele>2560.131009</ele>
        <time>2026-09-12T08:57:13.361Z</time>
      </trkpt>
      <trkpt lat="46.162632" lon="7.544407">
        <ele>2555.833308</ele>
        <time>2026-09-12T08:57:22.731Z</time>
      </trkpt>
      <trkpt lat="46.162909" lon="7.544562">
        <ele>2550.408905</ele>
        <time>2026-09-12T08:57:34.603Z</time>
      </trkpt>
      <trkpt lat="46.163118" lon="7.544727">
        <ele>2546.059468</ele>
        <time>2026-09-12T08:57:44.146Z</time>
      </trkpt>
      <trkpt lat="46.163153" lon="7.544784">
        <ele>2545.096116</ele>
        <time>2026-09-12T08:57:46.279Z</time>
      </trkpt>
      <trkpt lat="46.163310" lon="7.544829">
        <ele>2542.173461</ele>
        <time>2026-09-12T08:57:52.762Z</time>
      </trkpt>
      <trkpt lat="46.163511" lon="7.545041">
        <ele>2537.628371</ele>
        <time>2026-09-12T08:58:02.869Z</time>
      </trkpt>
      <trkpt lat="46.163579" lon="7.545066">
        <ele>2536.347117</ele>
        <time>2026-09-12T08:58:05.703Z</time>
      </trkpt>
      <trkpt lat="46.163682" lon="7.545167">
        <ele>2534.073676</ele>
        <time>2026-09-12T08:58:10.782Z</time>
      </trkpt>
      <trkpt lat="46.163867" lon="7.545244">
        <ele>2530.454524</ele>
        <time>2026-09-12T08:58:18.603Z</time>
      </trkpt>
      <trkpt lat="46.164239" lon="7.545180">
        <ele>2523.376334</ele>
        <time>2026-09-12T08:58:33.751Z</time>
      </trkpt>
      <trkpt lat="46.164317" lon="7.545192">
        <ele>2521.894281</ele>
        <time>2026-09-12T08:58:36.925Z</time>
      </trkpt>
      <trkpt lat="46.164405" lon="7.545351">
        <ele>2519.230942</ele>
        <time>2026-09-12T08:58:42.593Z</time>
      </trkpt>
      <trkpt lat="46.164652" lon="7.545572">
        <ele>2513.740788</ele>
        <time>2026-09-12T08:58:54.203Z</time>
      </trkpt>
      <trkpt lat="46.164696" lon="7.545749">
        <ele>2511.279968</ele>
        <time>2026-09-12T08:58:59.406Z</time>
      </trkpt>
      <trkpt lat="46.164686" lon="7.545921">
        <ele>2509.021333</ele>
        <time>2026-09-12T08:59:04.154Z</time>
      </trkpt>
      <trkpt lat="46.164706" lon="7.545971">
        <ele>2508.265774</ele>
        <time>2026-09-12T08:59:05.725Z</time>
      </trkpt>
      <trkpt lat="46.164756" lon="7.546044">
        <ele>2506.922298</ele>
        <time>2026-09-12T08:59:08.590Z</time>
      </trkpt>
      <trkpt lat="46.164891" lon="7.546126">
        <ele>2504.155134</ele>
        <time>2026-09-12T08:59:14.498Z</time>
      </trkpt>
      <trkpt lat="46.164923" lon="7.546216">
        <ele>2502.831310</ele>
        <time>2026-09-12T08:59:17.335Z</time>
      </trkpt>
      <trkpt lat="46.164964" lon="7.546445">
        <ele>2499.736220</ele>
        <time>2026-09-12T08:59:24.078Z</time>
      </trkpt>
      <trkpt lat="46.164958" lon="7.546646">
        <ele>2496.685837</ele>
        <time>2026-09-12T08:59:29.836Z</time>
      </trkpt>
      <trkpt lat="46.164925" lon="7.546777">
        <ele>2494.551231</ele>
        <time>2026-09-12T08:59:33.832Z</time>
      </trkpt>
      <trkpt lat="46.165021" lon="7.547128">
        <ele>2488.772359</ele>
        <time>2026-09-12T08:59:44.672Z</time>
      </trkpt>
      <trkpt lat="46.165021" lon="7.547273">
        <ele>2486.551943</ele>
        <time>2026-09-12T08:59:48.846Z</time>
      </trkpt>
      <trkpt lat="46.165067" lon="7.547362">
        <ele>2484.851395</ele>
        <time>2026-09-12T08:59:52.024Z</time>
      </trkpt>
      <trkpt lat="46.165172" lon="7.547422">
        <ele>2482.354616</ele>
        <time>2026-09-12T08:59:56.687Z</time>
      </trkpt>
      <trkpt lat="46.165417" lon="7.547683">
        <ele>2475.622760</ele>
        <time>2026-09-12T09:00:08.978Z</time>
      </trkpt>
      <trkpt lat="46.165498" lon="7.547922">
        <ele>2471.548232</ele>
        <time>2026-09-12T09:00:16.323Z</time>
      </trkpt>
      <trkpt lat="46.165511" lon="7.548007">
        <ele>2470.215261</ele>
        <time>2026-09-12T09:00:18.736Z</time>
      </trkpt>
      <trkpt lat="46.165488" lon="7.548066">
        <ele>2469.178502</ele>
        <time>2026-09-12T09:00:20.588Z</time>
      </trkpt>
      <trkpt lat="46.165486" lon="7.548201">
        <ele>2467.110763</ele>
        <time>2026-09-12T09:00:24.343Z</time>
      </trkpt>
      <trkpt lat="46.165515" lon="7.548265">
        <ele>2465.939607</ele>
        <time>2026-09-12T09:00:26.460Z</time>
      </trkpt>
      <trkpt lat="46.165507" lon="7.548344">
        <ele>2464.717011</ele>
        <time>2026-09-12T09:00:28.685Z</time>
      </trkpt>
      <trkpt lat="46.165562" lon="7.548558">
        <ele>2461.221654</ele>
        <time>2026-09-12T09:00:35.008Z</time>
      </trkpt>
      <trkpt lat="46.165605" lon="7.548616">
        <ele>2459.920603</ele>
        <time>2026-09-12T09:00:37.350Z</time>
      </trkpt>
      <trkpt lat="46.165525" lon="7.548628">
        <ele>2459.191706</ele>
        <time>2026-09-12T09:00:40.557Z</time>
      </trkpt>
      <trkpt lat="46.165527" lon="7.548716">
        <ele>2458.702681</ele>
        <time>2026-09-12T09:00:42.988Z</time>
      </trkpt>
      <trkpt lat="46.165640" lon="7.548946">
        <ele>2457.136455</ele>
        <time>2026-09-12T09:00:50.840Z</time>
      </trkpt>
      <trkpt lat="46.165626" lon="7.548967">
        <ele>2456.974563</ele>
        <time>2026-09-12T09:00:51.669Z</time>
      </trkpt>
      <trkpt lat="46.165660" lon="7.549058">
        <ele>2456.400283</ele>
        <time>2026-09-12T09:00:54.537Z</time>
      </trkpt>
      <trkpt lat="46.165736" lon="7.549173">
        <ele>2455.517429</ele>
        <time>2026-09-12T09:00:58.993Z</time>
      </trkpt>
      <trkpt lat="46.165853" lon="7.549232">
        <ele>2454.523573</ele>
        <time>2026-09-12T09:01:04.004Z</time>
      </trkpt>
      <trkpt lat="46.165883" lon="7.549362">
        <ele>2453.762516</ele>
        <time>2026-09-12T09:01:07.878Z</time>
      </trkpt>
      <trkpt lat="46.165964" lon="7.549494">
        <ele>2452.783005</ele>
        <time>2026-09-12T09:01:12.919Z</time>
      </trkpt>
      <trkpt lat="46.166193" lon="7.549734">
        <ele>2450.513774</ele>
        <time>2026-09-12T09:01:25.420Z</time>
      </trkpt>
      <trkpt lat="46.166332" lon="7.549814">
        <ele>2449.313776</ele>
        <time>2026-09-12T09:01:32.624Z</time>
      </trkpt>
      <trkpt lat="46.166373" lon="7.549901">
        <ele>2448.729318</ele>
        <time>2026-09-12T09:01:36.315Z</time>
      </trkpt>
      <trkpt lat="46.166426" lon="7.549901">
        <ele>2448.304285</ele>
        <time>2026-09-12T09:01:38.993Z</time>
      </trkpt>
      <trkpt lat="46.166475" lon="7.549864">
        <ele>2447.860841</ele>
        <time>2026-09-12T09:01:41.881Z</time>
      </trkpt>
      <trkpt lat="46.166514" lon="7.549743">
        <ele>2447.119592</ele>
        <time>2026-09-12T09:01:46.868Z</time>
      </trkpt>
      <trkpt lat="46.166536" lon="7.549512">
        <ele>2445.824541</ele>
        <time>2026-09-12T09:01:55.960Z</time>
      </trkpt>
      <trkpt lat="46.166572" lon="7.549392">
        <ele>2445.300899</ele>
        <time>2026-09-12T09:02:01.276Z</time>
      </trkpt>
      <trkpt lat="46.166578" lon="7.549228">
        <ele>2445.082285</ele>
        <time>2026-09-12T09:02:08.180Z</time>
      </trkpt>
      <trkpt lat="46.166464" lon="7.548484">
        <ele>2444.067954</ele>
        <time>2026-09-12T09:02:41.440Z</time>
      </trkpt>
      <trkpt lat="46.166529" lon="7.548221">
        <ele>2443.696235</ele>
        <time>2026-09-12T09:02:52.687Z</time>
      </trkpt>
      <trkpt lat="46.166525" lon="7.547867">
        <ele>2443.224943</ele>
        <time>2026-09-12T09:03:05.443Z</time>
      </trkpt>
      <trkpt lat="46.166564" lon="7.547625">
        <ele>2442.894196</ele>
        <time>2026-09-12T09:03:13.759Z</time>
      </trkpt>
      <trkpt lat="46.166628" lon="7.547532">
        <ele>2442.719674</ele>
        <time>2026-09-12T09:03:17.925Z</time>
      </trkpt>
      <trkpt lat="46.166654" lon="7.547132">
        <ele>2442.184872</ele>
        <time>2026-09-12T09:03:30.052Z</time>
      </trkpt>
      <trkpt lat="46.166700" lon="7.546955">
        <ele>2441.933215</ele>
        <time>2026-09-12T09:03:35.381Z</time>
      </trkpt>
      <trkpt lat="46.166778" lon="7.546779">
        <ele>2439.912274</ele>
        <time>2026-09-12T09:03:41.251Z</time>
      </trkpt>
      <trkpt lat="46.166798" lon="7.546649">
        <ele>2438.511968</ele>
        <time>2026-09-12T09:03:44.991Z</time>
      </trkpt>
      <trkpt lat="46.166892" lon="7.546481">
        <ele>2436.240916</ele>
        <time>2026-09-12T09:03:51.047Z</time>
      </trkpt>
      <trkpt lat="46.167078" lon="7.546324">
        <ele>2432.969712</ele>
        <time>2026-09-12T09:03:59.726Z</time>
      </trkpt>
      <trkpt lat="46.167526" lon="7.545840">
        <ele>2424.474468</ele>
        <time>2026-09-12T09:04:22.223Z</time>
      </trkpt>
      <trkpt lat="46.167844" lon="7.545335">
        <ele>2417.297475</ele>
        <time>2026-09-12T09:04:41.175Z</time>
      </trkpt>
      <trkpt lat="46.168013" lon="7.545116">
        <ele>2413.766108</ele>
        <time>2026-09-12T09:04:50.292Z</time>
      </trkpt>
      <trkpt lat="46.168356" lon="7.544809">
        <ele>2406.954811</ele>
        <time>2026-09-12T09:05:06.539Z</time>
      </trkpt>
      <trkpt lat="46.168602" lon="7.544692">
        <ele>2402.583279</ele>
        <time>2026-09-12T09:05:17.037Z</time>
      </trkpt>
      <trkpt lat="46.168743" lon="7.544776">
        <ele>2400.008824</ele>
        <time>2026-09-12T09:05:23.164Z</time>
      </trkpt>
      <trkpt lat="46.169143" lon="7.544851">
        <ele>2393.200762</ele>
        <time>2026-09-12T09:05:39.353Z</time>
      </trkpt>
      <trkpt lat="46.169284" lon="7.544780">
        <ele>2390.680347</ele>
        <time>2026-09-12T09:05:45.310Z</time>
      </trkpt>
      <trkpt lat="46.169386" lon="7.544672">
        <ele>2388.545505</ele>
        <time>2026-09-12T09:05:50.392Z</time>
      </trkpt>
      <trkpt lat="46.169451" lon="7.544681">
        <ele>2387.443374</ele>
        <time>2026-09-12T09:05:52.980Z</time>
      </trkpt>
      <trkpt lat="46.169503" lon="7.544882">
        <ele>2384.935341</ele>
        <time>2026-09-12T09:05:58.929Z</time>
      </trkpt>
      <trkpt lat="46.169495" lon="7.544985">
        <ele>2383.765220</ele>
        <time>2026-09-12T09:06:01.802Z</time>
      </trkpt>
      <trkpt lat="46.169479" lon="7.545071">
        <ele>2382.807724</ele>
        <time>2026-09-12T09:06:04.276Z</time>
      </trkpt>
      <trkpt lat="46.169416" lon="7.545197">
        <ele>2381.136707</ele>
        <time>2026-09-12T09:06:08.605Z</time>
      </trkpt>
      <trkpt lat="46.169397" lon="7.545322">
        <ele>2379.760659</ele>
        <time>2026-09-12T09:06:12.177Z</time>
      </trkpt>
      <trkpt lat="46.169352" lon="7.545378">
        <ele>2378.838309</ele>
        <time>2026-09-12T09:06:14.550Z</time>
      </trkpt>
      <trkpt lat="46.169296" lon="7.545568">
        <ele>2376.618016</ele>
        <time>2026-09-12T09:06:20.323Z</time>
      </trkpt>
      <trkpt lat="46.169305" lon="7.545695">
        <ele>2375.245323</ele>
        <time>2026-09-12T09:06:23.884Z</time>
      </trkpt>
      <trkpt lat="46.169374" lon="7.545943">
        <ele>2372.371559</ele>
        <time>2026-09-12T09:06:31.358Z</time>
      </trkpt>
      <trkpt lat="46.169915" lon="7.546237">
        <ele>2363.396645</ele>
        <time>2026-09-12T09:06:54.595Z</time>
      </trkpt>
      <trkpt lat="46.170008" lon="7.546390">
        <ele>2361.207725</ele>
        <time>2026-09-12T09:07:00.295Z</time>
      </trkpt>
      <trkpt lat="46.170297" lon="7.546689">
        <ele>2355.807089</ele>
        <time>2026-09-12T09:07:14.728Z</time>
      </trkpt>
      <trkpt lat="46.170340" lon="7.546780">
        <ele>2354.848290</ele>
        <time>2026-09-12T09:07:17.832Z</time>
      </trkpt>
      <trkpt lat="46.170358" lon="7.546928">
        <ele>2353.540495</ele>
        <time>2026-09-12T09:07:22.052Z</time>
      </trkpt>
      <trkpt lat="46.170580" lon="7.547064">
        <ele>2350.509801</ele>
        <time>2026-09-12T09:07:31.866Z</time>
      </trkpt>
      <trkpt lat="46.170697" lon="7.547171">
        <ele>2348.769311</ele>
        <time>2026-09-12T09:07:37.470Z</time>
      </trkpt>
      <trkpt lat="46.170819" lon="7.547516">
        <ele>2345.397896</ele>
        <time>2026-09-12T09:07:48.374Z</time>
      </trkpt>
      <trkpt lat="46.170881" lon="7.547631">
        <ele>2344.129485</ele>
        <time>2026-09-12T09:07:52.494Z</time>
      </trkpt>
      <trkpt lat="46.171038" lon="7.548163">
        <ele>2339.096515</ele>
        <time>2026-09-12T09:08:08.738Z</time>
      </trkpt>
      <trkpt lat="46.171395" lon="7.548516">
        <ele>2333.673715</ele>
        <time>2026-09-12T09:08:26.261Z</time>
      </trkpt>
      <trkpt lat="46.171777" lon="7.548652">
        <ele>2330.184073</ele>
        <time>2026-09-12T09:08:42.284Z</time>
      </trkpt>
      <trkpt lat="46.171850" lon="7.548715">
        <ele>2329.429773</ele>
        <time>2026-09-12T09:08:45.734Z</time>
      </trkpt>
      <trkpt lat="46.171949" lon="7.548748">
        <ele>2328.528593</ele>
        <time>2026-09-12T09:08:49.924Z</time>
      </trkpt>
      <trkpt lat="46.172068" lon="7.548939">
        <ele>2326.950515</ele>
        <time>2026-09-12T09:08:57.318Z</time>
      </trkpt>
      <trkpt lat="46.172151" lon="7.548945">
        <ele>2326.213416</ele>
        <time>2026-09-12T09:09:00.782Z</time>
      </trkpt>
      <trkpt lat="46.172214" lon="7.549026">
        <ele>2325.465245</ele>
        <time>2026-09-12T09:09:04.368Z</time>
      </trkpt>
      <trkpt lat="46.172291" lon="7.549000">
        <ele>2324.763863</ele>
        <time>2026-09-12T09:09:07.721Z</time>
      </trkpt>
      <trkpt lat="46.172342" lon="7.548947">
        <ele>2324.206556</ele>
        <time>2026-09-12T09:09:10.412Z</time>
      </trkpt>
      <trkpt lat="46.172426" lon="7.548970">
        <ele>2323.448235</ele>
        <time>2026-09-12T09:09:14.124Z</time>
      </trkpt>
      <trkpt lat="46.172611" lon="7.548920">
        <ele>2321.778867</ele>
        <time>2026-09-12T09:09:22.368Z</time>
      </trkpt>
      <trkpt lat="46.172674" lon="7.548932">
        <ele>2321.215242</ele>
        <time>2026-09-12T09:09:25.182Z</time>
      </trkpt>
      <trkpt lat="46.172745" lon="7.548996">
        <ele>2320.472883</ele>
        <time>2026-09-12T09:09:28.887Z</time>
      </trkpt>
      <trkpt lat="46.172840" lon="7.548936">
        <ele>2319.553207</ele>
        <time>2026-09-12T09:09:33.593Z</time>
      </trkpt>
      <trkpt lat="46.172913" lon="7.548953">
        <ele>2318.897361</ele>
        <time>2026-09-12T09:09:36.943Z</time>
      </trkpt>
      <trkpt lat="46.173177" lon="7.549163">
        <ele>2316.866253</ele>
        <time>2026-09-12T09:09:50.782Z</time>
      </trkpt>
      <trkpt lat="46.173302" lon="7.549156">
        <ele>2316.221808</ele>
        <time>2026-09-12T09:09:56.652Z</time>
      </trkpt>
      <trkpt lat="46.173379" lon="7.549100">
        <ele>2315.777663</ele>
        <time>2026-09-12T09:10:00.715Z</time>
      </trkpt>
      <trkpt lat="46.173502" lon="7.549139">
        <ele>2315.128912</ele>
        <time>2026-09-12T09:10:06.672Z</time>
      </trkpt>
      <trkpt lat="46.173601" lon="7.549233">
        <ele>2314.518528</ele>
        <time>2026-09-12T09:10:12.310Z</time>
      </trkpt>
      <trkpt lat="46.173704" lon="7.549597">
        <ele>2313.115759</ele>
        <time>2026-09-12T09:10:25.282Z</time>
      </trkpt>
      <trkpt lat="46.173897" lon="7.549970">
        <ele>2311.454679</ele>
        <time>2026-09-12T09:10:40.427Z</time>
      </trkpt>
      <trkpt lat="46.174030" lon="7.550325">
        <ele>2310.014786</ele>
        <time>2026-09-12T09:10:53.317Z</time>
      </trkpt>
      <trkpt lat="46.174018" lon="7.550467">
        <ele>2309.504459</ele>
        <time>2026-09-12T09:10:57.797Z</time>
      </trkpt>
      <trkpt lat="46.174056" lon="7.550609">
        <ele>2308.961379</ele>
        <time>2026-09-12T09:11:02.532Z</time>
      </trkpt>
      <trkpt lat="46.174388" lon="7.550954">
        <ele>2305.301610</ele>
        <time>2026-09-12T09:11:20.399Z</time>
      </trkpt>
      <trkpt lat="46.174678" lon="7.551424">
        <ele>2300.924457</ele>
        <time>2026-09-12T09:11:38.687Z</time>
      </trkpt>
      <trkpt lat="46.174763" lon="7.551586">
        <ele>2299.511201</ele>
        <time>2026-09-12T09:11:44.501Z</time>
      </trkpt>
      <trkpt lat="46.174899" lon="7.551976">
        <ele>2296.475014</ele>
        <time>2026-09-12T09:11:56.830Z</time>
      </trkpt>
      <trkpt lat="46.175072" lon="7.552331">
        <ele>2293.456651</ele>
        <time>2026-09-12T09:12:09.055Z</time>
      </trkpt>
      <trkpt lat="46.175163" lon="7.552445">
        <ele>2292.246999</ele>
        <time>2026-09-12T09:12:13.976Z</time>
      </trkpt>
      <trkpt lat="46.175297" lon="7.552553">
        <ele>2290.706103</ele>
        <time>2026-09-12T09:12:20.205Z</time>
      </trkpt>
      <trkpt lat="46.175551" lon="7.552620">
        <ele>2287.137651</ele>
        <time>2026-09-12T09:12:30.731Z</time>
      </trkpt>
      <trkpt lat="46.175713" lon="7.552719">
        <ele>2284.627125</ele>
        <time>2026-09-12T09:12:37.866Z</time>
      </trkpt>
      <trkpt lat="46.176052" lon="7.553081">
        <ele>2278.609982</ele>
        <time>2026-09-12T09:12:54.937Z</time>
      </trkpt>
      <trkpt lat="46.176358" lon="7.553354">
        <ele>2273.476658</ele>
        <time>2026-09-12T09:13:09.503Z</time>
      </trkpt>
      <trkpt lat="46.176656" lon="7.553942">
        <ele>2266.275685</ele>
        <time>2026-09-12T09:13:29.846Z</time>
      </trkpt>
      <trkpt lat="46.176765" lon="7.554049">
        <ele>2264.230567</ele>
        <time>2026-09-12T09:13:35.144Z</time>
      </trkpt>
      <trkpt lat="46.176879" lon="7.554089">
        <ele>2261.802832</ele>
        <time>2026-09-12T09:13:39.838Z</time>
      </trkpt>
      <trkpt lat="46.176950" lon="7.554269">
        <ele>2258.834454</ele>
        <time>2026-09-12T09:13:45.583Z</time>
      </trkpt>
      <trkpt lat="46.177173" lon="7.554357">
        <ele>2254.050538</ele>
        <time>2026-09-12T09:13:54.820Z</time>
      </trkpt>
      <trkpt lat="46.177240" lon="7.554441">
        <ele>2252.214478</ele>
        <time>2026-09-12T09:13:58.374Z</time>
      </trkpt>
      <trkpt lat="46.177567" lon="7.554477">
        <ele>2245.427939</ele>
        <time>2026-09-12T09:14:11.427Z</time>
      </trkpt>
      <trkpt lat="46.177637" lon="7.554621">
        <ele>2242.906854</ele>
        <time>2026-09-12T09:14:16.279Z</time>
      </trkpt>
      <trkpt lat="46.177773" lon="7.554730">
        <ele>2239.688147</ele>
        <time>2026-09-12T09:14:22.485Z</time>
      </trkpt>
      <trkpt lat="46.177819" lon="7.554870">
        <ele>2237.467699</ele>
        <time>2026-09-12T09:14:26.761Z</time>
      </trkpt>
      <trkpt lat="46.177952" lon="7.554954">
        <ele>2234.463733</ele>
        <time>2026-09-12T09:14:32.524Z</time>
      </trkpt>
      <trkpt lat="46.178015" lon="7.554899">
        <ele>2232.940329</ele>
        <time>2026-09-12T09:14:35.466Z</time>
      </trkpt>
      <trkpt lat="46.177987" lon="7.555019">
        <ele>2231.125860</ele>
        <time>2026-09-12T09:14:38.991Z</time>
      </trkpt>
      <trkpt lat="46.177905" lon="7.555070">
        <ele>2229.278294</ele>
        <time>2026-09-12T09:14:42.580Z</time>
      </trkpt>
      <trkpt lat="46.177910" lon="7.555109">
        <ele>2228.709969</ele>
        <time>2026-09-12T09:14:43.691Z</time>
      </trkpt>
      <trkpt lat="46.177991" lon="7.555134">
        <ele>2226.915090</ele>
        <time>2026-09-12T09:14:47.070Z</time>
      </trkpt>
      <trkpt lat="46.178194" lon="7.555045">
        <ele>2221.870987</ele>
        <time>2026-09-12T09:14:55.660Z</time>
      </trkpt>
      <trkpt lat="46.178155" lon="7.555196">
        <ele>2219.217735</ele>
        <time>2026-09-12T09:15:00.195Z</time>
      </trkpt>
      <trkpt lat="46.178146" lon="7.555415">
        <ele>2215.605952</ele>
        <time>2026-09-12T09:15:06.366Z</time>
      </trkpt>
      <trkpt lat="46.178096" lon="7.555531">
        <ele>2213.356427</ele>
        <time>2026-09-12T09:15:10.251Z</time>
      </trkpt>
      <trkpt lat="46.178058" lon="7.555542">
        <ele>2212.434955</ele>
        <time>2026-09-12T09:15:11.812Z</time>
      </trkpt>
      <trkpt lat="46.178150" lon="7.555617">
        <ele>2209.923101</ele>
        <time>2026-09-12T09:15:16.124Z</time>
      </trkpt>
      <trkpt lat="46.178360" lon="7.555462">
        <ele>2204.315780</ele>
        <time>2026-09-12T09:15:25.723Z</time>
      </trkpt>
      <trkpt lat="46.178330" lon="7.555635">
        <ele>2201.379698</ele>
        <time>2026-09-12T09:15:30.721Z</time>
      </trkpt>
      <trkpt lat="46.178325" lon="7.555858">
        <ele>2197.706494</ele>
        <time>2026-09-12T09:15:36.914Z</time>
      </trkpt>
      <trkpt lat="46.178268" lon="7.555992">
        <ele>2195.117398</ele>
        <time>2026-09-12T09:15:41.231Z</time>
      </trkpt>
      <trkpt lat="46.178692" lon="7.555872">
        <ele>2184.844471</ele>
        <time>2026-09-12T09:15:58.721Z</time>
      </trkpt>
      <trkpt lat="46.178632" lon="7.556102">
        <ele>2181.230580</ele>
        <time>2026-09-12T09:16:05.736Z</time>
      </trkpt>
      <trkpt lat="46.178627" lon="7.556302">
        <ele>2178.294238</ele>
        <time>2026-09-12T09:16:11.491Z</time>
      </trkpt>
      <trkpt lat="46.178736" lon="7.556235">
        <ele>2175.784046</ele>
        <time>2026-09-12T09:16:16.399Z</time>
      </trkpt>
      <trkpt lat="46.179018" lon="7.556138">
        <ele>2169.641351</ele>
        <time>2026-09-12T09:16:28.238Z</time>
      </trkpt>
      <trkpt lat="46.179102" lon="7.556173">
        <ele>2167.788803</ele>
        <time>2026-09-12T09:16:31.721Z</time>
      </trkpt>
      <trkpt lat="46.179152" lon="7.556258">
        <ele>2166.152392</ele>
        <time>2026-09-12T09:16:34.863Z</time>
      </trkpt>
      <trkpt lat="46.179287" lon="7.556289">
        <ele>2163.255822</ele>
        <time>2026-09-12T09:16:40.297Z</time>
      </trkpt>
      <trkpt lat="46.179393" lon="7.556399">
        <ele>2160.489991</ele>
        <time>2026-09-12T09:16:45.491Z</time>
      </trkpt>
      <trkpt lat="46.179456" lon="7.556597">
        <ele>2157.292897</ele>
        <time>2026-09-12T09:16:51.514Z</time>
      </trkpt>
      <trkpt lat="46.179524" lon="7.556725">
        <ele>2154.925803</ele>
        <time>2026-09-12T09:16:56.003Z</time>
      </trkpt>
      <trkpt lat="46.179787" lon="7.557061">
        <ele>2147.485363</ele>
        <time>2026-09-12T09:17:10.098Z</time>
      </trkpt>
      <trkpt lat="46.179858" lon="7.557109">
        <ele>2146.660241</ele>
        <time>2026-09-12T09:17:13.218Z</time>
      </trkpt>
      <trkpt lat="46.179955" lon="7.557108">
        <ele>2146.660241</ele>
        <time>2026-09-12T09:17:17.133Z</time>
      </trkpt>
      <trkpt lat="46.180145" lon="7.557022">
        <ele>2146.660241</ele>
        <time>2026-09-12T09:17:25.144Z</time>
      </trkpt>
      <trkpt lat="46.180364" lon="7.557024">
        <ele>2146.660241</ele>
        <time>2026-09-12T09:17:34.011Z</time>
      </trkpt>
      <trkpt lat="46.180563" lon="7.556831">
        <ele>2146.660241</ele>
        <time>2026-09-12T09:17:43.790Z</time>
      </trkpt>
      <trkpt lat="46.180626" lon="7.556807">
        <ele>2146.660241</ele>
        <time>2026-09-12T09:17:46.476Z</time>
      </trkpt>
      <trkpt lat="46.180659" lon="7.556824">
        <ele>2146.660241</ele>
        <time>2026-09-12T09:17:47.883Z</time>
      </trkpt>
      <trkpt lat="46.180691" lon="7.557107">
        <ele>2146.660241</ele>
        <time>2026-09-12T09:17:55.929Z</time>
      </trkpt>
      <trkpt lat="46.180703" lon="7.557256">
        <ele>2146.660241</ele>
        <time>2026-09-12T09:18:00.157Z</time>
      </trkpt>
      <trkpt lat="46.180745" lon="7.557347">
        <ele>2146.660241</ele>
        <time>2026-09-12T09:18:03.208Z</time>
      </trkpt>
      <trkpt lat="46.180817" lon="7.557388">
        <ele>2146.660241</ele>
        <time>2026-09-12T09:18:06.371Z</time>
      </trkpt>
      <trkpt lat="46.180891" lon="7.557379">
        <ele>2146.660241</ele>
        <time>2026-09-12T09:18:09.401Z</time>
      </trkpt>
      <trkpt lat="46.180779" lon="7.557578">
        <ele>2146.660241</ele>
        <time>2026-09-12T09:18:14.619Z</time>
      </trkpt>
      <trkpt lat="46.180635" lon="7.557743">
        <ele>2146.660241</ele>
        <time>2026-09-12T09:18:20.022Z</time>
      </trkpt>
      <trkpt lat="46.180545" lon="7.557850">
        <ele>2146.660241</ele>
        <time>2026-09-12T09:18:23.438Z</time>
      </trkpt>
      <trkpt lat="46.180439" lon="7.558197">
        <ele>2146.660241</ele>
        <time>2026-09-12T09:18:31.221Z</time>
      </trkpt>
      <trkpt lat="46.180262" lon="7.558211">
        <ele>2146.660241</ele>
        <time>2026-09-12T09:18:36.609Z</time>
      </trkpt>
    </trkseg>
  </trk>
</gpx>